{"type":"FeatureCollection","features":[{"type":"Feature","geometry":{"type":"Point","coordinates":[76.52609,30.96884]},"properties":{"id":"osm:n125907877","kind":"settlement","subtype":"town","name":"Rupnagar","population":5000,"populationEstimated":false}},{"type":"Feature","geometry":{"type":"Point","coordinates":[76.47968,31.16798]},"properties":{"id":"osm:n245771394","kind":"settlement","subtype":"village","name":"Nurpur Kalan","population":1000,"populationEstimated":true}},{"type":"Feature","geometry":{"type":"Point","coordinates":[76.37544,31.38375]},"properties":{"id":"osm:n414659175","kind":"settlement","subtype":"town","name":"Nangal","population":40644,"populationEstimated":false}},{"type":"Feature","geometry":{"type":"Point","coordinates":[76.40606,30.93515]},"properties":{"id":"osm:n681229683","kind":"settlement","subtype":"village","name":"Bela","population":1000,"populationEstimated":true}},{"type":"Feature","geometry":{"type":"Point","coordinates":[76.34541,31.38137]},"properties":{"id":"osm:n1351765261","kind":"settlement","subtype":"suburb","name":"Naya Nangal","population":5000,"populationEstimated":true}},{"type":"Feature","geometry":{"type":"Point","coordinates":[76.49731,31.23468]},"properties":{"id":"osm:n1364801679","kind":"settlement","subtype":"city","name":"Anandpur Sahib","population":1000,"populationEstimated":false}},{"type":"Feature","geometry":{"type":"Point","coordinates":[76.42474,31.30165]},"properties":{"id":"osm:n1364802189","kind":"settlement","subtype":"village","name":"Bhanupali","population":1000,"populationEstimated":true}},{"type":"Feature","geometry":{"type":"Point","coordinates":[76.31756,31.35274]},"properties":{"id":"osm:n1364996069","kind":"settlement","subtype":"village","name":"Santokhgarh","population":9363,"populationEstimated":false}},{"type":"Feature","geometry":{"type":"Point","coordinates":[76.58632,31.02535]},"properties":{"id":"osm:n1523328984","kind":"settlement","subtype":"village","name":"Ghanauli","population":1000,"populationEstimated":true}},{"type":"Feature","geometry":{"type":"Point","coordinates":[76.32225,31.35664]},"properties":{"id":"osm:n3047149065","kind":"hospital","subtype":"hospital","name":"Primary Health Center","population":0,"populationEstimated":false}},{"type":"Feature","geometry":{"type":"Point","coordinates":[76.35707,31.39182]},"properties":{"id":"osm:n3047150396","kind":"hospital","subtype":"hospital","name":"NFL Hospital","population":0,"populationEstimated":false}},{"type":"Feature","geometry":{"type":"Point","coordinates":[76.54298,31.45539]},"properties":{"id":"osm:n3098608734","kind":"settlement","subtype":"hamlet","name":"Deotsidh","population":150,"populationEstimated":true}},{"type":"Feature","geometry":{"type":"Point","coordinates":[76.53622,31.30819]},"properties":{"id":"osm:n3098608738","kind":"settlement","subtype":"town","name":"Naina Devi","population":15000,"populationEstimated":true}},{"type":"Feature","geometry":{"type":"Point","coordinates":[76.52047,31.45222]},"properties":{"id":"osm:n3098608740","kind":"settlement","subtype":"village","name":"Shahtalai","population":1000,"populationEstimated":true}},{"type":"Feature","geometry":{"type":"Point","coordinates":[76.63976,31.41793]},"properties":{"id":"osm:n3099119834","kind":"settlement","subtype":"village","name":"Berthin","population":1000,"populationEstimated":true}},{"type":"Feature","geometry":{"type":"Point","coordinates":[76.37174,30.92667]},"properties":{"id":"osm:n3721555503","kind":"settlement","subtype":"village","name":"Hafizabad","population":1000,"populationEstimated":true}},{"type":"Feature","geometry":{"type":"Point","coordinates":[76.3497,30.95297]},"properties":{"id":"osm:n3721639868","kind":"settlement","subtype":"village","name":"Makowal","population":1000,"populationEstimated":true}},{"type":"Feature","geometry":{"type":"Point","coordinates":[76.38898,30.92993]},"properties":{"id":"osm:n3721679269","kind":"settlement","subtype":"village","name":"Balrampur","population":1000,"populationEstimated":true}},{"type":"Feature","geometry":{"type":"Point","coordinates":[76.37935,30.94184]},"properties":{"id":"osm:n3721679270","kind":"settlement","subtype":"village","name":"Bazidpur","population":1000,"populationEstimated":true}},{"type":"Feature","geometry":{"type":"Point","coordinates":[76.33811,30.93803]},"properties":{"id":"osm:n3721679271","kind":"settlement","subtype":"village","name":"Behrampur Bet","population":1000,"populationEstimated":true}},{"type":"Feature","geometry":{"type":"Point","coordinates":[76.3198,30.93591]},"properties":{"id":"osm:n3721679273","kind":"settlement","subtype":"village","name":"Chak Lohat","population":1000,"populationEstimated":true}},{"type":"Feature","geometry":{"type":"Point","coordinates":[76.34372,30.94322]},"properties":{"id":"osm:n3721679274","kind":"settlement","subtype":"village","name":"Dalla","population":1000,"populationEstimated":true}},{"type":"Feature","geometry":{"type":"Point","coordinates":[76.3783,30.92076]},"properties":{"id":"osm:n3721679277","kind":"settlement","subtype":"village","name":"Khanpur","population":1000,"populationEstimated":true}},{"type":"Feature","geometry":{"type":"Point","coordinates":[76.34844,30.94023]},"properties":{"id":"osm:n3721679278","kind":"settlement","subtype":"village","name":"Khokhar","population":1000,"populationEstimated":true}},{"type":"Feature","geometry":{"type":"Point","coordinates":[76.34873,30.92131]},"properties":{"id":"osm:n3721679281","kind":"settlement","subtype":"village","name":"Mehtot","population":1000,"populationEstimated":true}},{"type":"Feature","geometry":{"type":"Point","coordinates":[76.30715,30.96054]},"properties":{"id":"osm:n3721679283","kind":"settlement","subtype":"village","name":"Shergarh","population":1000,"populationEstimated":true}},{"type":"Feature","geometry":{"type":"Point","coordinates":[76.30437,30.93615]},"properties":{"id":"osm:n3721679284","kind":"settlement","subtype":"village","name":"Sherpur Bet","population":1000,"populationEstimated":true}},{"type":"Feature","geometry":{"type":"Point","coordinates":[76.32916,30.93622]},"properties":{"id":"osm:n3721679285","kind":"settlement","subtype":"village","name":"Taprian Amar Singh","population":1000,"populationEstimated":true}},{"type":"Feature","geometry":{"type":"Point","coordinates":[76.32522,30.95793]},"properties":{"id":"osm:n3721721832","kind":"settlement","subtype":"village","name":"Fatehgarh Viran","population":1000,"populationEstimated":true}},{"type":"Feature","geometry":{"type":"Point","coordinates":[76.34007,30.95419]},"properties":{"id":"osm:n3721721833","kind":"settlement","subtype":"village","name":"Mohan Majra","population":1000,"populationEstimated":true}},{"type":"Feature","geometry":{"type":"Point","coordinates":[76.32513,30.95293]},"properties":{"id":"osm:n3721721834","kind":"settlement","subtype":"village","name":"Rampur","population":1000,"populationEstimated":true}},{"type":"Feature","geometry":{"type":"Point","coordinates":[76.41169,30.92202]},"properties":{"id":"osm:n3721733770","kind":"settlement","subtype":"village","name":"Jatana","population":1000,"populationEstimated":true}},{"type":"Feature","geometry":{"type":"Point","coordinates":[76.34464,31.39882]},"properties":{"id":"osm:n4294897389","kind":"settlement","subtype":"village","name":"Kalsera","population":1000,"populationEstimated":true}},{"type":"Feature","geometry":{"type":"Point","coordinates":[76.34642,31.40898]},"properties":{"id":"osm:n4294901619","kind":"settlement","subtype":"hamlet","name":"Mehatpur","population":150,"populationEstimated":true}},{"type":"Feature","geometry":{"type":"Point","coordinates":[76.6145,31.09623]},"properties":{"id":"osm:n4336771370","kind":"settlement","subtype":"town","name":"Bharatgarh","population":15000,"populationEstimated":true}},{"type":"Feature","geometry":{"type":"Point","coordinates":[76.56759,31.18659]},"properties":{"id":"osm:n4336775985","kind":"settlement","subtype":"town","name":"Kiratpur Sahib","population":15000,"populationEstimated":true}},{"type":"Feature","geometry":{"type":"Point","coordinates":[76.43234,30.94668]},"properties":{"id":"osm:n6034612939","kind":"settlement","subtype":"village","name":"Gari","population":1000,"populationEstimated":true}},{"type":"Feature","geometry":{"type":"Point","coordinates":[76.46744,30.99863]},"properties":{"id":"osm:n6034612940","kind":"settlement","subtype":"village","name":"Rel Majri","population":1000,"populationEstimated":true}},{"type":"Feature","geometry":{"type":"Point","coordinates":[76.44105,30.9531]},"properties":{"id":"osm:n6034612941","kind":"settlement","subtype":"hamlet","name":"Ranga","population":150,"populationEstimated":true}},{"type":"Feature","geometry":{"type":"Point","coordinates":[76.45774,30.94395]},"properties":{"id":"osm:n6034612942","kind":"settlement","subtype":"hamlet","name":"Garispur","population":150,"populationEstimated":true}},{"type":"Feature","geometry":{"type":"Point","coordinates":[76.45954,30.94438]},"properties":{"id":"osm:n6034612943","kind":"settlement","subtype":"hamlet","name":"Bara Sartanpur","population":150,"populationEstimated":true}},{"type":"Feature","geometry":{"type":"Point","coordinates":[76.47068,30.94837]},"properties":{"id":"osm:n6034612944","kind":"settlement","subtype":"hamlet","name":"Chhota Sartanpur","population":150,"populationEstimated":true}},{"type":"Feature","geometry":{"type":"Point","coordinates":[76.47463,30.94276]},"properties":{"id":"osm:n6034612945","kind":"settlement","subtype":"hamlet","name":"Raotan","population":150,"populationEstimated":true}},{"type":"Feature","geometry":{"type":"Point","coordinates":[76.47692,30.94046]},"properties":{"id":"osm:n6034612946","kind":"settlement","subtype":"village","name":"Bhauwal","population":1000,"populationEstimated":true}},{"type":"Feature","geometry":{"type":"Point","coordinates":[76.49061,30.93311]},"properties":{"id":"osm:n6034612970","kind":"settlement","subtype":"village","name":"Bara Mansuha","population":1000,"populationEstimated":true}},{"type":"Feature","geometry":{"type":"Point","coordinates":[76.48817,30.93449]},"properties":{"id":"osm:n6034612971","kind":"settlement","subtype":"village","name":"Chhota Mansuha","population":1000,"populationEstimated":true}},{"type":"Feature","geometry":{"type":"Point","coordinates":[76.46592,30.93288]},"properties":{"id":"osm:n6034612972","kind":"settlement","subtype":"village","name":"Bheni","population":1000,"populationEstimated":true}},{"type":"Feature","geometry":{"type":"Point","coordinates":[76.47192,30.9321]},"properties":{"id":"osm:n6034612973","kind":"settlement","subtype":"village","name":"Mahalan","population":1000,"populationEstimated":true}},{"type":"Feature","geometry":{"type":"Point","coordinates":[76.47665,30.93052]},"properties":{"id":"osm:n6034612974","kind":"settlement","subtype":"village","name":"Chhoti Jhalian","population":1000,"populationEstimated":true}},{"type":"Feature","geometry":{"type":"Point","coordinates":[76.44055,30.94151]},"properties":{"id":"osm:n6034612979","kind":"settlement","subtype":"village","name":"Asarpur","population":1000,"populationEstimated":true}},{"type":"Feature","geometry":{"type":"Point","coordinates":[76.45012,30.93985]},"properties":{"id":"osm:n6034612980","kind":"settlement","subtype":"village","name":"Muazuddinpur","population":1000,"populationEstimated":true}},{"type":"Feature","geometry":{"type":"Point","coordinates":[76.44742,30.9305]},"properties":{"id":"osm:n6034612981","kind":"settlement","subtype":"village","name":"Suleman Shako","population":1000,"populationEstimated":true}},{"type":"Feature","geometry":{"type":"Point","coordinates":[76.44648,30.92432]},"properties":{"id":"osm:n6034612982","kind":"settlement","subtype":"village","name":"Bhallan","population":1000,"populationEstimated":true}},{"type":"Feature","geometry":{"type":"Point","coordinates":[76.49081,30.94416]},"properties":{"id":"osm:n6052892866","kind":"settlement","subtype":"village","name":"Budha Bora","population":1000,"populationEstimated":true}},{"type":"Feature","geometry":{"type":"Point","coordinates":[76.5163,30.94633]},"properties":{"id":"osm:n6052892867","kind":"settlement","subtype":"village","name":"Bari Relon","population":1000,"populationEstimated":true}},{"type":"Feature","geometry":{"type":"Point","coordinates":[76.5081,30.94732]},"properties":{"id":"osm:n6052892868","kind":"settlement","subtype":"village","name":"Samrala","population":1000,"populationEstimated":true}},{"type":"Feature","geometry":{"type":"Point","coordinates":[76.50274,30.94872]},"properties":{"id":"osm:n6052892869","kind":"settlement","subtype":"village","name":"Khairabad","population":1000,"populationEstimated":true}},{"type":"Feature","geometry":{"type":"Point","coordinates":[76.49827,30.95601]},"properties":{"id":"osm:n6052892870","kind":"settlement","subtype":"village","name":"Gurdaspur","population":1000,"populationEstimated":true}},{"type":"Feature","geometry":{"type":"Point","coordinates":[76.49433,30.9577]},"properties":{"id":"osm:n6052892871","kind":"settlement","subtype":"village","name":"Bara Phul","population":1000,"populationEstimated":true}},{"type":"Feature","geometry":{"type":"Point","coordinates":[76.49381,30.95402]},"properties":{"id":"osm:n6052892872","kind":"settlement","subtype":"village","name":"Chhota Phul","population":1000,"populationEstimated":true}},{"type":"Feature","geometry":{"type":"Point","coordinates":[76.51523,30.97404]},"properties":{"id":"osm:n6052892873","kind":"settlement","subtype":"village","name":"Bari Haveli","population":1000,"populationEstimated":true}},{"type":"Feature","geometry":{"type":"Point","coordinates":[76.51166,30.96098]},"properties":{"id":"osm:n6052892874","kind":"settlement","subtype":"village","name":"Shampur","population":1000,"populationEstimated":true}},{"type":"Feature","geometry":{"type":"Point","coordinates":[76.51956,30.95895]},"properties":{"id":"osm:n6052892875","kind":"settlement","subtype":"village","name":"Chhoti Haveli","population":1000,"populationEstimated":true}},{"type":"Feature","geometry":{"type":"Point","coordinates":[76.52623,30.93477]},"properties":{"id":"osm:n6052892877","kind":"settlement","subtype":"village","name":"Chhoti Relon","population":1000,"populationEstimated":true}},{"type":"Feature","geometry":{"type":"Point","coordinates":[76.52059,30.93786]},"properties":{"id":"osm:n6052892878","kind":"settlement","subtype":"village","name":"Rasulpur","population":1000,"populationEstimated":true}},{"type":"Feature","geometry":{"type":"Point","coordinates":[76.50708,30.92784]},"properties":{"id":"osm:n6052892879","kind":"settlement","subtype":"hamlet","name":"Chhota Bandaniohal","population":150,"populationEstimated":true}},{"type":"Feature","geometry":{"type":"Point","coordinates":[76.50875,30.93068]},"properties":{"id":"osm:n6052892880","kind":"settlement","subtype":"village","name":"Bara Bandoniahal","population":1000,"populationEstimated":true}},{"type":"Feature","geometry":{"type":"Point","coordinates":[76.53355,30.92995]},"properties":{"id":"osm:n6052892881","kind":"settlement","subtype":"hamlet","name":"Gurpura","population":150,"populationEstimated":true}},{"type":"Feature","geometry":{"type":"Point","coordinates":[76.51711,30.92781]},"properties":{"id":"osm:n6052892882","kind":"settlement","subtype":"village","name":"Gobindpur","population":1000,"populationEstimated":true}},{"type":"Feature","geometry":{"type":"Point","coordinates":[76.50943,30.92203]},"properties":{"id":"osm:n6052892883","kind":"settlement","subtype":"hamlet","name":"Sangatpur","population":150,"populationEstimated":true}},{"type":"Feature","geometry":{"type":"Point","coordinates":[76.53068,30.93429]},"properties":{"id":"osm:n6052892987","kind":"settlement","subtype":"village","name":"Paprala","population":1000,"populationEstimated":true}},{"type":"Feature","geometry":{"type":"Point","coordinates":[76.53973,30.93418]},"properties":{"id":"osm:n6052892988","kind":"settlement","subtype":"village","name":"Bheora","population":1000,"populationEstimated":true}},{"type":"Feature","geometry":{"type":"Point","coordinates":[76.53029,30.95104]},"properties":{"id":"osm:n6052892989","kind":"settlement","subtype":"village","name":"Sukhrampur","population":1000,"populationEstimated":true}},{"type":"Feature","geometry":{"type":"Point","coordinates":[76.53819,30.95321]},"properties":{"id":"osm:n6052892990","kind":"settlement","subtype":"village","name":"Kotla Nihang","population":1000,"populationEstimated":true}},{"type":"Feature","geometry":{"type":"Point","coordinates":[76.54501,30.95126]},"properties":{"id":"osm:n6052892991","kind":"settlement","subtype":"village","name":"Taprian","population":1000,"populationEstimated":true}},{"type":"Feature","geometry":{"type":"Point","coordinates":[76.5614,30.95792]},"properties":{"id":"osm:n6052892992","kind":"settlement","subtype":"village","name":"Majri","population":1000,"populationEstimated":true}},{"type":"Feature","geometry":{"type":"Point","coordinates":[76.55681,30.94894]},"properties":{"id":"osm:n6052892993","kind":"settlement","subtype":"village","name":"Phulpur Garewal","population":1000,"populationEstimated":true}},{"type":"Feature","geometry":{"type":"Point","coordinates":[76.58533,30.95178]},"properties":{"id":"osm:n6052892994","kind":"settlement","subtype":"village","name":"Baghwali","population":1000,"populationEstimated":true}},{"type":"Feature","geometry":{"type":"Point","coordinates":[76.54432,30.92023]},"properties":{"id":"osm:n6052893028","kind":"settlement","subtype":"village","name":"Rangilpur","population":1000,"populationEstimated":true}},{"type":"Feature","geometry":{"type":"Point","coordinates":[76.54441,30.92362]},"properties":{"id":"osm:n6052893029","kind":"settlement","subtype":"village","name":"Chhoti Gandhon","population":1000,"populationEstimated":true}},{"type":"Feature","geometry":{"type":"Point","coordinates":[76.55342,30.93586]},"properties":{"id":"osm:n6052893033","kind":"settlement","subtype":"village","name":"Jahlian Sambal","population":1000,"populationEstimated":true}},{"type":"Feature","geometry":{"type":"Point","coordinates":[76.55891,30.92991]},"properties":{"id":"osm:n6052893034","kind":"settlement","subtype":"village","name":"Manak Majra","population":1000,"populationEstimated":true}},{"type":"Feature","geometry":{"type":"Point","coordinates":[76.56896,30.92859]},"properties":{"id":"osm:n6052893035","kind":"settlement","subtype":"village","name":"Thona","population":1000,"populationEstimated":true}},{"type":"Feature","geometry":{"type":"Point","coordinates":[76.57805,30.9284]},"properties":{"id":"osm:n6052893036","kind":"settlement","subtype":"village","name":"Madpur","population":1000,"populationEstimated":true}},{"type":"Feature","geometry":{"type":"Point","coordinates":[76.57458,30.93315]},"properties":{"id":"osm:n6052893037","kind":"settlement","subtype":"village","name":"Parhi","population":1000,"populationEstimated":true}},{"type":"Feature","geometry":{"type":"Point","coordinates":[76.61054,30.95273]},"properties":{"id":"osm:n6052893038","kind":"settlement","subtype":"village","name":"Kalewal","population":1000,"populationEstimated":true}},{"type":"Feature","geometry":{"type":"Point","coordinates":[76.60277,30.94891]},"properties":{"id":"osm:n6052893039","kind":"settlement","subtype":"village","name":"Bholo","population":1000,"populationEstimated":true}},{"type":"Feature","geometry":{"type":"Point","coordinates":[76.60037,30.94342]},"properties":{"id":"osm:n6052893040","kind":"settlement","subtype":"hamlet","name":"Surari","population":150,"populationEstimated":true}},{"type":"Feature","geometry":{"type":"Point","coordinates":[76.58908,30.93757]},"properties":{"id":"osm:n6052893041","kind":"settlement","subtype":"village","name":"Safilpur","population":1000,"populationEstimated":true}},{"type":"Feature","geometry":{"type":"Point","coordinates":[76.57445,30.94994]},"properties":{"id":"osm:n6052893042","kind":"settlement","subtype":"village","name":"Magror","population":1000,"populationEstimated":true}},{"type":"Feature","geometry":{"type":"Point","coordinates":[76.57209,30.95332]},"properties":{"id":"osm:n6052893043","kind":"settlement","subtype":"village","name":"Akbarpur","population":1000,"populationEstimated":true}},{"type":"Feature","geometry":{"type":"Point","coordinates":[76.58722,30.96937]},"properties":{"id":"osm:n6052893044","kind":"settlement","subtype":"village","name":"Chaurangiani","population":1000,"populationEstimated":true}},{"type":"Feature","geometry":{"type":"Point","coordinates":[76.62393,30.9711]},"properties":{"id":"osm:n6052893045","kind":"settlement","subtype":"hamlet","name":"Jhandion","population":150,"populationEstimated":true}},{"type":"Feature","geometry":{"type":"Point","coordinates":[76.61985,30.96904]},"properties":{"id":"osm:n6052893046","kind":"settlement","subtype":"hamlet","name":"Daburan","population":150,"populationEstimated":true}},{"type":"Feature","geometry":{"type":"Point","coordinates":[76.60938,30.96628]},"properties":{"id":"osm:n6052893047","kind":"settlement","subtype":"village","name":"Bhugalan","population":1000,"populationEstimated":true}},{"type":"Feature","geometry":{"type":"Point","coordinates":[76.61738,30.93471]},"properties":{"id":"osm:n6052893048","kind":"settlement","subtype":"village","name":"Ramgarh","population":1000,"populationEstimated":true}},{"type":"Feature","geometry":{"type":"Point","coordinates":[76.59631,30.93157]},"properties":{"id":"osm:n6052893049","kind":"settlement","subtype":"village","name":"Santhokgarh","population":1000,"populationEstimated":true}},{"type":"Feature","geometry":{"type":"Point","coordinates":[76.60573,30.93435]},"properties":{"id":"osm:n6052893050","kind":"settlement","subtype":"village","name":"Siasatpur Bhadal","population":1000,"populationEstimated":true}},{"type":"Feature","geometry":{"type":"Point","coordinates":[76.62582,30.9407]},"properties":{"id":"osm:n6052893051","kind":"settlement","subtype":"village","name":"Khanpur","population":1000,"populationEstimated":true}},{"type":"Feature","geometry":{"type":"Point","coordinates":[76.62895,30.93437]},"properties":{"id":"osm:n6052893052","kind":"settlement","subtype":"village","name":"Rampur","population":1000,"populationEstimated":true}},{"type":"Feature","geometry":{"type":"Point","coordinates":[76.63281,30.93632]},"properties":{"id":"osm:n6052893053","kind":"settlement","subtype":"village","name":"Purkhali","population":1000,"populationEstimated":true}},{"type":"Feature","geometry":{"type":"Point","coordinates":[76.64569,30.93672]},"properties":{"id":"osm:n6052893054","kind":"settlement","subtype":"village","name":"Hardapur","population":1000,"populationEstimated":true}},{"type":"Feature","geometry":{"type":"Point","coordinates":[76.64608,30.93374]},"properties":{"id":"osm:n6052893055","kind":"settlement","subtype":"village","name":"Kheri","population":1000,"populationEstimated":true}},{"type":"Feature","geometry":{"type":"Point","coordinates":[76.64234,30.94368]},"properties":{"id":"osm:n6052893056","kind":"settlement","subtype":"village","name":"Jodhpur","population":1000,"populationEstimated":true}},{"type":"Feature","geometry":{"type":"Point","coordinates":[76.65427,30.94806]},"properties":{"id":"osm:n6052893057","kind":"settlement","subtype":"village","name":"Kakot","population":1000,"populationEstimated":true}},{"type":"Feature","geometry":{"type":"Point","coordinates":[76.56241,31.02186]},"properties":{"id":"osm:n6053313242","kind":"settlement","subtype":"village","name":"Lohgarh","population":1000,"populationEstimated":true}},{"type":"Feature","geometry":{"type":"Point","coordinates":[76.57022,31.0208]},"properties":{"id":"osm:n6053313243","kind":"settlement","subtype":"hamlet","name":"Rawal Mazra","population":150,"populationEstimated":true}},{"type":"Feature","geometry":{"type":"Point","coordinates":[76.58181,31.01576]},"properties":{"id":"osm:n6053313244","kind":"settlement","subtype":"hamlet","name":"Singhpura","population":150,"populationEstimated":true}},{"type":"Feature","geometry":{"type":"Point","coordinates":[76.57638,31.01567]},"properties":{"id":"osm:n6053313245","kind":"settlement","subtype":"village","name":"Alipur","population":1000,"populationEstimated":true}},{"type":"Feature","geometry":{"type":"Point","coordinates":[76.58404,31.01921]},"properties":{"id":"osm:n6053313246","kind":"settlement","subtype":"village","name":"Thalli","population":1000,"populationEstimated":true}},{"type":"Feature","geometry":{"type":"Point","coordinates":[76.60292,31.02403]},"properties":{"id":"osm:n6053313247","kind":"settlement","subtype":"village","name":"Ghanaula","population":1000,"populationEstimated":true}},{"type":"Feature","geometry":{"type":"Point","coordinates":[76.60378,31.01366]},"properties":{"id":"osm:n6053313248","kind":"settlement","subtype":"village","name":"Chhoti Makori","population":1000,"populationEstimated":true}},{"type":"Feature","geometry":{"type":"Point","coordinates":[76.59168,31.01265]},"properties":{"id":"osm:n6053313249","kind":"settlement","subtype":"village","name":"Bari Makori","population":1000,"populationEstimated":true}},{"type":"Feature","geometry":{"type":"Point","coordinates":[76.54432,30.99336]},"properties":{"id":"osm:n6053313250","kind":"settlement","subtype":"village","name":"Khawaspur","population":1000,"populationEstimated":true}},{"type":"Feature","geometry":{"type":"Point","coordinates":[76.55475,31.0123]},"properties":{"id":"osm:n6053313251","kind":"settlement","subtype":"village","name":"Dakala","population":1000,"populationEstimated":true}},{"type":"Feature","geometry":{"type":"Point","coordinates":[76.55814,31.01039]},"properties":{"id":"osm:n6053313252","kind":"settlement","subtype":"village","name":"Chandpura","population":1000,"populationEstimated":true}},{"type":"Feature","geometry":{"type":"Point","coordinates":[76.52445,31.00984]},"properties":{"id":"osm:n6053313253","kind":"settlement","subtype":"village","name":"Dolian","population":1000,"populationEstimated":true}},{"type":"Feature","geometry":{"type":"Point","coordinates":[76.54613,31.00634]},"properties":{"id":"osm:n6053313254","kind":"settlement","subtype":"village","name":"Alampur","population":1000,"populationEstimated":true}},{"type":"Feature","geometry":{"type":"Point","coordinates":[76.53514,30.99494]},"properties":{"id":"osm:n6053313255","kind":"settlement","subtype":"village","name":"Katli","population":1000,"populationEstimated":true}},{"type":"Feature","geometry":{"type":"Point","coordinates":[76.59509,30.96315]},"properties":{"id":"osm:n6053313256","kind":"settlement","subtype":"hamlet","name":"Fatehpur","population":150,"populationEstimated":true}},{"type":"Feature","geometry":{"type":"Point","coordinates":[76.5558,30.96226]},"properties":{"id":"osm:n6053313257","kind":"settlement","subtype":"village","name":"Khalidpur","population":1000,"populationEstimated":true}},{"type":"Feature","geometry":{"type":"Point","coordinates":[76.546,30.96642]},"properties":{"id":"osm:n6053313258","kind":"settlement","subtype":"village","name":"Rampur Tabiyan","population":1000,"populationEstimated":true}},{"type":"Feature","geometry":{"type":"Point","coordinates":[76.54825,30.96363]},"properties":{"id":"osm:n6053313259","kind":"settlement","subtype":"village","name":"Nayagaon","population":1000,"populationEstimated":true}},{"type":"Feature","geometry":{"type":"Point","coordinates":[76.53694,30.98197]},"properties":{"id":"osm:n6053313260","kind":"settlement","subtype":"village","name":"Sadabarat","population":1000,"populationEstimated":true}},{"type":"Feature","geometry":{"type":"Point","coordinates":[76.5425,30.97297]},"properties":{"id":"osm:n6053313261","kind":"settlement","subtype":"village","name":"Nanakpur","population":1000,"populationEstimated":true}},{"type":"Feature","geometry":{"type":"Point","coordinates":[76.54413,30.98037]},"properties":{"id":"osm:n6053313262","kind":"settlement","subtype":"village","name":"Husainpur","population":1000,"populationEstimated":true}},{"type":"Feature","geometry":{"type":"Point","coordinates":[76.55756,30.9823]},"properties":{"id":"osm:n6053313263","kind":"settlement","subtype":"village","name":"Berampur","population":1000,"populationEstimated":true}},{"type":"Feature","geometry":{"type":"Point","coordinates":[76.56061,30.98752]},"properties":{"id":"osm:n6053313264","kind":"settlement","subtype":"village","name":"Ladhal","population":1000,"populationEstimated":true}},{"type":"Feature","geometry":{"type":"Point","coordinates":[76.56681,30.99784]},"properties":{"id":"osm:n6053313265","kind":"settlement","subtype":"village","name":"Malakpur","population":1000,"populationEstimated":true}},{"type":"Feature","geometry":{"type":"Point","coordinates":[76.5617,30.99802]},"properties":{"id":"osm:n6053313266","kind":"settlement","subtype":"village","name":"Tapal Majra","population":1000,"populationEstimated":true}},{"type":"Feature","geometry":{"type":"Point","coordinates":[76.57151,31.00654]},"properties":{"id":"osm:n6053313267","kind":"settlement","subtype":"village","name":"Ahmadpur","population":1000,"populationEstimated":true}},{"type":"Feature","geometry":{"type":"Point","coordinates":[76.57636,31.0029]},"properties":{"id":"osm:n6053313268","kind":"settlement","subtype":"village","name":"Dugri","population":1000,"populationEstimated":true}},{"type":"Feature","geometry":{"type":"Point","coordinates":[76.59949,31.00367]},"properties":{"id":"osm:n6053313269","kind":"settlement","subtype":"village","name":"Chak Kerman","population":1000,"populationEstimated":true}},{"type":"Feature","geometry":{"type":"Point","coordinates":[76.59153,31.00084]},"properties":{"id":"osm:n6053313270","kind":"settlement","subtype":"village","name":"Dangaoli","population":1000,"populationEstimated":true}},{"type":"Feature","geometry":{"type":"Point","coordinates":[76.59138,30.9893]},"properties":{"id":"osm:n6053313271","kind":"settlement","subtype":"hamlet","name":"Taloh","population":150,"populationEstimated":true}},{"type":"Feature","geometry":{"type":"Point","coordinates":[76.60357,30.99234]},"properties":{"id":"osm:n6053313272","kind":"settlement","subtype":"village","name":"Mansali","population":1000,"populationEstimated":true}},{"type":"Feature","geometry":{"type":"Point","coordinates":[76.54091,31.19263]},"properties":{"id":"osm:n6076658557","kind":"settlement","subtype":"village","name":"Gajpur","population":1000,"populationEstimated":true}},{"type":"Feature","geometry":{"type":"Point","coordinates":[76.52003,31.19272]},"properties":{"id":"osm:n6076658558","kind":"settlement","subtype":"village","name":"Chandpur","population":1000,"populationEstimated":true}},{"type":"Feature","geometry":{"type":"Point","coordinates":[76.41238,31.21668]},"properties":{"id":"osm:n6076658559","kind":"settlement","subtype":"village","name":"Heerpur","population":1000,"populationEstimated":true}},{"type":"Feature","geometry":{"type":"Point","coordinates":[76.40929,31.32537]},"properties":{"id":"osm:n6612759526","kind":"settlement","subtype":"village","name":"Ajouli","population":1000,"populationEstimated":true}},{"type":"Feature","geometry":{"type":"Point","coordinates":[76.51993,31.45107]},"properties":{"id":"osm:n6988130889","kind":"hospital","subtype":"hospital","name":"Sri Krishna Hospital","population":0,"populationEstimated":false}},{"type":"Feature","geometry":{"type":"Point","coordinates":[76.3398,31.41352]},"properties":{"id":"osm:n6990475923","kind":"hospital","subtype":"hospital","name":"Anandraj Malik Hospital and Diagnostic Centre","population":0,"populationEstimated":false}},{"type":"Feature","geometry":{"type":"Point","coordinates":[76.34146,31.40959]},"properties":{"id":"osm:n6993302083","kind":"hospital","subtype":"hospital","name":"Eshan Eye Hospital And Research Centre","population":0,"populationEstimated":false}},{"type":"Feature","geometry":{"type":"Point","coordinates":[76.33618,31.37108]},"properties":{"id":"osm:n6993508886","kind":"hospital","subtype":"clinic","name":"Shergill Healthcare Centre","population":0,"populationEstimated":false}},{"type":"Feature","geometry":{"type":"Point","coordinates":[76.47811,31.16561]},"properties":{"id":"osm:n7051329427","kind":"hospital","subtype":"hospital","name":"Gurdev Hospital, Ropar","population":0,"populationEstimated":false}},{"type":"Feature","geometry":{"type":"Point","coordinates":[76.52999,30.97226]},"properties":{"id":"osm:n7053641545","kind":"hospital","subtype":"hospital","name":"Sharma Eye Hospital and Laser Centre, Rupnagar","population":0,"populationEstimated":false}},{"type":"Feature","geometry":{"type":"Point","coordinates":[76.52089,30.96582]},"properties":{"id":"osm:n7053922106","kind":"hospital","subtype":"hospital","name":"Kiran Nursing Home And Laparoscopicb Center","population":0,"populationEstimated":false}},{"type":"Feature","geometry":{"type":"Point","coordinates":[76.52689,30.96303]},"properties":{"id":"osm:n7054096745","kind":"hospital","subtype":"hospital","name":"Dhawan Surgical Centre","population":0,"populationEstimated":false}},{"type":"Feature","geometry":{"type":"Point","coordinates":[76.52269,30.959]},"properties":{"id":"osm:n7063547466","kind":"hospital","subtype":"clinic","name":"Kamal Nursing Home, Rupnagar","population":0,"populationEstimated":false}},{"type":"Feature","geometry":{"type":"Point","coordinates":[76.63756,31.36577]},"properties":{"id":"osm:n7092795782","kind":"settlement","subtype":"village","name":"Jhanduta","population":1000,"populationEstimated":true}},{"type":"Feature","geometry":{"type":"Point","coordinates":[76.50841,30.95444]},"properties":{"id":"osm:n7103675516","kind":"hospital","subtype":"hospital","name":"Snd Medical Foundation and Hospital","population":0,"populationEstimated":false}},{"type":"Feature","geometry":{"type":"Point","coordinates":[76.51637,31.2294]},"properties":{"id":"osm:n7103822710","kind":"hospital","subtype":"hospital","name":"Mata Nanki Charitable Hospital","population":0,"populationEstimated":false}},{"type":"Feature","geometry":{"type":"Point","coordinates":[76.52501,30.96587]},"properties":{"id":"osm:n7103836442","kind":"hospital","subtype":"hospital","name":"Civil Hospital, Rupnagar","population":0,"populationEstimated":false}},{"type":"Feature","geometry":{"type":"Point","coordinates":[76.5299,30.96326]},"properties":{"id":"osm:n7103908027","kind":"hospital","subtype":"clinic","name":"Shashi Nursing Home, Rupnagar","population":0,"populationEstimated":false}},{"type":"Feature","geometry":{"type":"Point","coordinates":[76.52571,30.9646]},"properties":{"id":"osm:n7103964202","kind":"hospital","subtype":"hospital","name":"Baweja Multispeciality Hospital","population":0,"populationEstimated":false}},{"type":"Feature","geometry":{"type":"Point","coordinates":[76.34049,31.38345]},"properties":{"id":"osm:n7104053296","kind":"hospital","subtype":"clinic","name":"Gupta Healthcare Centre","population":0,"populationEstimated":false}},{"type":"Feature","geometry":{"type":"Point","coordinates":[76.52119,30.97516]},"properties":{"id":"osm:n7106360184","kind":"hospital","subtype":"hospital","name":"Pannu Hospital","population":0,"populationEstimated":false}},{"type":"Feature","geometry":{"type":"Point","coordinates":[76.52134,30.96371]},"properties":{"id":"osm:n7106398542","kind":"hospital","subtype":"clinic","name":"Parmar Nursing Home, Rupnagar","population":0,"populationEstimated":false}},{"type":"Feature","geometry":{"type":"Point","coordinates":[76.49549,31.23141]},"properties":{"id":"osm:n7106432019","kind":"hospital","subtype":"clinic","name":"Deep Nursing Home, Anandpur Sahib","population":0,"populationEstimated":false}},{"type":"Feature","geometry":{"type":"Point","coordinates":[76.37688,31.27263]},"properties":{"id":"osm:n7150766745","kind":"hospital","subtype":"hospital","name":"Government Hospital Bhallan","population":0,"populationEstimated":false}},{"type":"Feature","geometry":{"type":"Point","coordinates":[76.49519,31.23865]},"properties":{"id":"osm:n7150766804","kind":"hospital","subtype":"hospital","name":"Civil Hospital Anandpur Sahib","population":0,"populationEstimated":false}},{"type":"Feature","geometry":{"type":"Point","coordinates":[76.52513,30.96621]},"properties":{"id":"osm:n7150766820","kind":"hospital","subtype":"hospital","name":"Civil Hospital Ropar","population":0,"populationEstimated":false}},{"type":"Feature","geometry":{"type":"Point","coordinates":[76.37411,31.36384]},"properties":{"id":"osm:n7150766848","kind":"hospital","subtype":"hospital","name":"Government Hospital Kethera","population":0,"populationEstimated":false}},{"type":"Feature","geometry":{"type":"Point","coordinates":[76.52066,30.98069]},"properties":{"id":"osm:n7150766883","kind":"hospital","subtype":"clinic","name":"USAD Mini Secretariat","population":0,"populationEstimated":false}},{"type":"Feature","geometry":{"type":"Point","coordinates":[76.639,31.15199]},"properties":{"id":"osm:n7165506482","kind":"hospital","subtype":"clinic","name":"Dispensary, Baruna","population":0,"populationEstimated":false}},{"type":"Feature","geometry":{"type":"Point","coordinates":[76.30791,31.45756]},"properties":{"id":"osm:n7637726839","kind":"hospital","subtype":"hospital","name":"Dr. Satinder Chauhan Megacare Hospital","population":0,"populationEstimated":false}},{"type":"Feature","geometry":{"type":"Point","coordinates":[76.30262,31.4315]},"properties":{"id":"osm:n7637726861","kind":"hospital","subtype":"hospital","name":"Global Multispeciality Hospital","population":0,"populationEstimated":false}},{"type":"Feature","geometry":{"type":"Point","coordinates":[76.33812,31.41915]},"properties":{"id":"osm:n7637726872","kind":"hospital","subtype":"hospital","name":"Ayurvedic Hospital","population":0,"populationEstimated":false}},{"type":"Feature","geometry":{"type":"Point","coordinates":[76.36558,31.06602]},"properties":{"id":"osm:n7726585297","kind":"settlement","subtype":"village","name":"Rattewal","population":1000,"populationEstimated":true}},{"type":"Feature","geometry":{"type":"Point","coordinates":[76.30323,31.05637]},"properties":{"id":"osm:n7865637505","kind":"hospital","subtype":"doctors","name":"Dr. Kechi","population":0,"populationEstimated":false}},{"type":"Feature","geometry":{"type":"Point","coordinates":[76.30855,31.06532]},"properties":{"id":"osm:n7865637510","kind":"hospital","subtype":"hospital","name":"Bains Charitable Hospital","population":0,"populationEstimated":false}},{"type":"Feature","geometry":{"type":"Point","coordinates":[76.3033,31.06287]},"properties":{"id":"osm:n7865637514","kind":"hospital","subtype":"hospital","name":"Soori Hospital","population":0,"populationEstimated":false}},{"type":"Feature","geometry":{"type":"Point","coordinates":[76.3128,31.06937]},"properties":{"id":"osm:n7865637515","kind":"hospital","subtype":"hospital","name":"JP Hospital","population":0,"populationEstimated":false}},{"type":"Feature","geometry":{"type":"Point","coordinates":[76.30502,31.06017]},"properties":{"id":"osm:n7865637516","kind":"hospital","subtype":"hospital","name":"Dr. Kataria Hospital","population":0,"populationEstimated":false}},{"type":"Feature","geometry":{"type":"Point","coordinates":[76.4641,30.99742]},"properties":{"id":"osm:n7865637517","kind":"hospital","subtype":"clinic","name":"Women and Child Healthcare Centre","population":0,"populationEstimated":false}},{"type":"Feature","geometry":{"type":"Point","coordinates":[76.30168,31.06151]},"properties":{"id":"osm:n7865637530","kind":"hospital","subtype":"hospital","name":"Dr. Bhagat Singh Hospital","population":0,"populationEstimated":false}},{"type":"Feature","geometry":{"type":"Point","coordinates":[76.30346,31.06293]},"properties":{"id":"osm:n7865637533","kind":"hospital","subtype":"clinic","name":"Bagga Clinic","population":0,"populationEstimated":false}},{"type":"Feature","geometry":{"type":"Point","coordinates":[76.30417,31.06336]},"properties":{"id":"osm:n7865637542","kind":"hospital","subtype":"hospital","name":"Gurunanak Charitable Hospital","population":0,"populationEstimated":false}},{"type":"Feature","geometry":{"type":"Point","coordinates":[76.36749,31.06782]},"properties":{"id":"osm:n7865637543","kind":"hospital","subtype":"hospital","name":"Satguru Lal Dass Bhuriwale Charitable Hospital","population":0,"populationEstimated":false}},{"type":"Feature","geometry":{"type":"Point","coordinates":[76.30042,31.05804]},"properties":{"id":"osm:n7865637545","kind":"hospital","subtype":"clinic","name":"Allergy & Skin Centre","population":0,"populationEstimated":false}},{"type":"Feature","geometry":{"type":"Point","coordinates":[76.38129,31.0378]},"properties":{"id":"osm:n7865637549","kind":"hospital","subtype":"clinic","name":"Jiwan Aturvedic & Accupressre Centre","population":0,"populationEstimated":false}},{"type":"Feature","geometry":{"type":"Point","coordinates":[76.37822,31.04904]},"properties":{"id":"osm:n8614184129","kind":"settlement","subtype":"village","name":"Surapur","population":1000,"populationEstimated":true}},{"type":"Feature","geometry":{"type":"Point","coordinates":[76.54849,31.02525]},"properties":{"id":"osm:n11802454382","kind":"settlement","subtype":"village","name":"Lodhi Majra","population":1000,"populationEstimated":true}},{"type":"Feature","geometry":{"type":"Point","coordinates":[76.34003,31.0889]},"properties":{"id":"osm:n13375000953","kind":"settlement","subtype":"village","name":"Thopia","population":1000,"populationEstimated":true}},{"type":"Feature","geometry":{"type":"Point","coordinates":[76.30252,31.26713]},"properties":{"id":"osm:n13506928454","kind":"settlement","subtype":"village","name":"Kharali","population":1000,"populationEstimated":true}},{"type":"Feature","geometry":{"type":"Point","coordinates":[76.3723,31.39623]},"properties":{"id":"osm:w32553617","kind":"emergency","subtype":"police","name":"DSP nangal office","population":0,"populationEstimated":false}},{"type":"Feature","geometry":{"type":"Point","coordinates":[76.36138,31.38202]},"properties":{"id":"osm:w227054400","kind":"school","subtype":"school","name":"school","population":0,"populationEstimated":false}},{"type":"Feature","geometry":{"type":"Point","coordinates":[76.35323,31.39082]},"properties":{"id":"osm:w227054405","kind":"school","subtype":"school","name":"school","population":0,"populationEstimated":false}},{"type":"Feature","geometry":{"type":"Point","coordinates":[76.53763,30.97543]},"properties":{"id":"osm:w255427611","kind":"school","subtype":"university","name":"Indian Institute of Technology Ropar","population":0,"populationEstimated":false}},{"type":"Feature","geometry":{"type":"Point","coordinates":[76.40731,30.93551]},"properties":{"id":"osm:w368324886","kind":"school","subtype":"college","name":"A.S.B.A.S.J.S. Memorial College Bela","population":0,"populationEstimated":false}},{"type":"Feature","geometry":{"type":"Point","coordinates":[76.52309,30.97327]},"properties":{"id":"osm:w589825815","kind":"school","subtype":"college","name":"college","population":0,"populationEstimated":false}},{"type":"Feature","geometry":{"type":"Point","coordinates":[76.47059,30.96555]},"properties":{"id":"osm:w620975887","kind":"school","subtype":"university","name":"Indian Institute of Technology Ropar","population":0,"populationEstimated":false}},{"type":"Feature","geometry":{"type":"Point","coordinates":[76.54787,30.9831]},"properties":{"id":"osm:w644575710","kind":"school","subtype":"school","name":"school","population":0,"populationEstimated":false}},{"type":"Feature","geometry":{"type":"Point","coordinates":[76.53503,30.98266]},"properties":{"id":"osm:w644575711","kind":"school","subtype":"school","name":"school","population":0,"populationEstimated":false}},{"type":"Feature","geometry":{"type":"Point","coordinates":[76.51513,31.22938]},"properties":{"id":"osm:w857756631","kind":"hospital","subtype":"hospital","name":"Maa Nanki Charitable Hospital","population":0,"populationEstimated":false}},{"type":"Feature","geometry":{"type":"Point","coordinates":[76.6005,30.93932]},"properties":{"id":"osm:w919986509","kind":"school","subtype":"university","name":"Institute Of Engineering & Technology","population":0,"populationEstimated":false}},{"type":"Feature","geometry":{"type":"Point","coordinates":[76.5212,30.97513]},"properties":{"id":"osm:w1153423733","kind":"hospital","subtype":"hospital","name":"Pannu Hospital","population":0,"populationEstimated":false}},{"type":"Feature","geometry":{"type":"Point","coordinates":[76.52536,30.96592]},"properties":{"id":"osm:w1153428593","kind":"hospital","subtype":"hospital","name":"Civil Hospital Ropar","population":0,"populationEstimated":false}},{"type":"Feature","geometry":{"type":"Point","coordinates":[76.35713,31.39221]},"properties":{"id":"osm:w1154998431","kind":"hospital","subtype":"hospital","name":"NFL Hospital","population":0,"populationEstimated":false}},{"type":"Feature","geometry":{"type":"Point","coordinates":[76.34489,31.38645]},"properties":{"id":"osm:w1155846980","kind":"school","subtype":"school","name":"school","population":0,"populationEstimated":false}},{"type":"Feature","geometry":{"type":"Point","coordinates":[76.50349,30.96307]},"properties":{"id":"osm:w1426169915","kind":"school","subtype":"school","name":"school","population":0,"populationEstimated":false}},{"type":"Feature","geometry":{"type":"Point","coordinates":[76.56551,31.18225]},"properties":{"id":"osm:w26495315","kind":"bridge","subtype":"trunk","name":"NH205 bridge","population":0,"populationEstimated":false}},{"type":"Feature","geometry":{"type":"Point","coordinates":[76.56929,31.17476]},"properties":{"id":"osm:w55333494","kind":"bridge","subtype":"trunk","name":"NH205 bridge","population":0,"populationEstimated":false}},{"type":"Feature","geometry":{"type":"Point","coordinates":[76.49357,31.27561]},"properties":{"id":"osm:w122043158","kind":"bridge","subtype":"tertiary","name":"Road bridge","population":0,"populationEstimated":false}},{"type":"Feature","geometry":{"type":"Point","coordinates":[76.49173,31.27187]},"properties":{"id":"osm:w122043164","kind":"bridge","subtype":"tertiary","name":"Road bridge","population":0,"populationEstimated":false}},{"type":"Feature","geometry":{"type":"Point","coordinates":[76.49123,31.2375]},"properties":{"id":"osm:w122062095","kind":"bridge","subtype":"trunk","name":"NH503 bridge","population":0,"populationEstimated":false}},{"type":"Feature","geometry":{"type":"Point","coordinates":[76.45855,31.2598]},"properties":{"id":"osm:w122062096","kind":"bridge","subtype":"trunk","name":"NH503 bridge","population":0,"populationEstimated":false}},{"type":"Feature","geometry":{"type":"Point","coordinates":[76.43557,31.27893]},"properties":{"id":"osm:w122062097","kind":"bridge","subtype":"trunk","name":"NH503 bridge","population":0,"populationEstimated":false}},{"type":"Feature","geometry":{"type":"Point","coordinates":[76.53321,31.22006]},"properties":{"id":"osm:w122062098","kind":"bridge","subtype":"trunk","name":"NH503 bridge","population":0,"populationEstimated":false}},{"type":"Feature","geometry":{"type":"Point","coordinates":[76.35293,31.37661]},"properties":{"id":"osm:w122062099","kind":"bridge","subtype":"trunk","name":"NH503 bridge","population":0,"populationEstimated":false}},{"type":"Feature","geometry":{"type":"Point","coordinates":[76.49222,31.23683]},"properties":{"id":"osm:w122062101","kind":"bridge","subtype":"trunk","name":"NH503 bridge","population":0,"populationEstimated":false}},{"type":"Feature","geometry":{"type":"Point","coordinates":[76.5324,31.22034]},"properties":{"id":"osm:w122062102","kind":"bridge","subtype":"trunk","name":"NH503 bridge","population":0,"populationEstimated":false}},{"type":"Feature","geometry":{"type":"Point","coordinates":[76.36746,31.38016]},"properties":{"id":"osm:w122062103","kind":"bridge","subtype":"tertiary","name":"Road bridge","population":0,"populationEstimated":false}},{"type":"Feature","geometry":{"type":"Point","coordinates":[76.51464,30.9916]},"properties":{"id":"osm:w136152677","kind":"bridge","subtype":"secondary","name":"Road bridge","population":0,"populationEstimated":false}},{"type":"Feature","geometry":{"type":"Point","coordinates":[76.38664,31.25844]},"properties":{"id":"osm:w138959039","kind":"bridge","subtype":"secondary","name":"Road bridge","population":0,"populationEstimated":false}},{"type":"Feature","geometry":{"type":"Point","coordinates":[76.53471,30.96477]},"properties":{"id":"osm:w208875243","kind":"bridge","subtype":"trunk","name":"NH205 bridge","population":0,"populationEstimated":false}},{"type":"Feature","geometry":{"type":"Point","coordinates":[76.3071,31.45967]},"properties":{"id":"osm:w226993598","kind":"bridge","subtype":"trunk","name":"NH503 bridge","population":0,"populationEstimated":false}},{"type":"Feature","geometry":{"type":"Point","coordinates":[76.31383,31.45038]},"properties":{"id":"osm:w226993599","kind":"bridge","subtype":"trunk","name":"NH503 bridge","population":0,"populationEstimated":false}},{"type":"Feature","geometry":{"type":"Point","coordinates":[76.31458,31.45009]},"properties":{"id":"osm:w226993601","kind":"bridge","subtype":"trunk","name":"NH503 bridge","population":0,"populationEstimated":false}},{"type":"Feature","geometry":{"type":"Point","coordinates":[76.37264,31.38209]},"properties":{"id":"osm:w227020832","kind":"bridge","subtype":"tertiary","name":"Road bridge","population":0,"populationEstimated":false}},{"type":"Feature","geometry":{"type":"Point","coordinates":[76.36758,31.38032]},"properties":{"id":"osm:w227020835","kind":"bridge","subtype":"tertiary","name":"Road bridge","population":0,"populationEstimated":false}},{"type":"Feature","geometry":{"type":"Point","coordinates":[76.37219,31.37932]},"properties":{"id":"osm:w227020851","kind":"bridge","subtype":"tertiary","name":"Road bridge","population":0,"populationEstimated":false}},{"type":"Feature","geometry":{"type":"Point","coordinates":[76.36885,31.382]},"properties":{"id":"osm:w227020885","kind":"bridge","subtype":"tertiary","name":"Road bridge","population":0,"populationEstimated":false}},{"type":"Feature","geometry":{"type":"Point","coordinates":[76.41437,31.4142]},"properties":{"id":"osm:w227028534","kind":"bridge","subtype":"tertiary","name":"Road bridge","population":0,"populationEstimated":false}},{"type":"Feature","geometry":{"type":"Point","coordinates":[76.41598,31.41463]},"properties":{"id":"osm:w227028614","kind":"bridge","subtype":"tertiary","name":"Road bridge","population":0,"populationEstimated":false}},{"type":"Feature","geometry":{"type":"Point","coordinates":[76.38408,31.35953]},"properties":{"id":"osm:w227037147","kind":"bridge","subtype":"tertiary","name":"Road bridge","population":0,"populationEstimated":false}},{"type":"Feature","geometry":{"type":"Point","coordinates":[76.38263,31.35865]},"properties":{"id":"osm:w227037171","kind":"bridge","subtype":"tertiary","name":"Road bridge","population":0,"populationEstimated":false}},{"type":"Feature","geometry":{"type":"Point","coordinates":[76.3012,31.35566]},"properties":{"id":"osm:w227058825","kind":"bridge","subtype":"secondary","name":"Major District Road 39","population":0,"populationEstimated":false}},{"type":"Feature","geometry":{"type":"Point","coordinates":[76.30632,31.35641]},"properties":{"id":"osm:w227058828","kind":"bridge","subtype":"secondary","name":"Major District Road 39","population":0,"populationEstimated":false}},{"type":"Feature","geometry":{"type":"Point","coordinates":[76.37792,31.37738]},"properties":{"id":"osm:w227837148","kind":"bridge","subtype":"tertiary","name":"Road bridge","population":0,"populationEstimated":false}},{"type":"Feature","geometry":{"type":"Point","coordinates":[76.56877,31.00547]},"properties":{"id":"osm:w238212133","kind":"bridge","subtype":"trunk","name":"NH205 bridge","population":0,"populationEstimated":false}},{"type":"Feature","geometry":{"type":"Point","coordinates":[76.57415,31.18462]},"properties":{"id":"osm:w238212135","kind":"bridge","subtype":"trunk","name":"NH205 bridge","population":0,"populationEstimated":false}},{"type":"Feature","geometry":{"type":"Point","coordinates":[76.43016,31.19746]},"properties":{"id":"osm:w254573866","kind":"bridge","subtype":"secondary","name":"MDR55 bridge","population":0,"populationEstimated":false}},{"type":"Feature","geometry":{"type":"Point","coordinates":[76.52979,31.07313]},"properties":{"id":"osm:w254573867","kind":"bridge","subtype":"secondary","name":"MDR55 bridge","population":0,"populationEstimated":false}},{"type":"Feature","geometry":{"type":"Point","coordinates":[76.51415,31.04495]},"properties":{"id":"osm:w254573869","kind":"bridge","subtype":"secondary","name":"MDR55 bridge","population":0,"populationEstimated":false}},{"type":"Feature","geometry":{"type":"Point","coordinates":[76.6298,31.02899]},"properties":{"id":"osm:w254574043","kind":"bridge","subtype":"primary","name":"SH16 bridge","population":0,"populationEstimated":false}},{"type":"Feature","geometry":{"type":"Point","coordinates":[76.59635,31.02266]},"properties":{"id":"osm:w254574044","kind":"bridge","subtype":"primary","name":"MDR59 bridge","population":0,"populationEstimated":false}},{"type":"Feature","geometry":{"type":"Point","coordinates":[76.65967,31.02925]},"properties":{"id":"osm:w254574047","kind":"bridge","subtype":"primary","name":"SH16 bridge","population":0,"populationEstimated":false}},{"type":"Feature","geometry":{"type":"Point","coordinates":[76.5981,31.05246]},"properties":{"id":"osm:w288088689","kind":"bridge","subtype":"trunk","name":"NH205 bridge","population":0,"populationEstimated":false}},{"type":"Feature","geometry":{"type":"Point","coordinates":[76.62163,31.20681]},"properties":{"id":"osm:w288088692","kind":"bridge","subtype":"trunk","name":"NH205 bridge","population":0,"populationEstimated":false}},{"type":"Feature","geometry":{"type":"Point","coordinates":[76.59036,31.11584]},"properties":{"id":"osm:w288088696","kind":"bridge","subtype":"trunk","name":"NH205 bridge","population":0,"populationEstimated":false}},{"type":"Feature","geometry":{"type":"Point","coordinates":[76.62555,31.44745]},"properties":{"id":"osm:w305305496","kind":"bridge","subtype":"tertiary","name":"Road bridge","population":0,"populationEstimated":false}},{"type":"Feature","geometry":{"type":"Point","coordinates":[76.34398,31.37855]},"properties":{"id":"osm:w387439586","kind":"bridge","subtype":"trunk","name":"NH503 bridge","population":0,"populationEstimated":false}},{"type":"Feature","geometry":{"type":"Point","coordinates":[76.53422,30.97073]},"properties":{"id":"osm:w395952832","kind":"bridge","subtype":"trunk","name":"NH205 bridge","population":0,"populationEstimated":false}},{"type":"Feature","geometry":{"type":"Point","coordinates":[76.49466,30.98264]},"properties":{"id":"osm:w395952848","kind":"bridge","subtype":"trunk","name":"Ropar Bypass","population":0,"populationEstimated":false}},{"type":"Feature","geometry":{"type":"Point","coordinates":[76.496,30.98199]},"properties":{"id":"osm:w395952850","kind":"bridge","subtype":"trunk","name":"Ropar Bypass","population":0,"populationEstimated":false}},{"type":"Feature","geometry":{"type":"Point","coordinates":[76.60187,31.10474]},"properties":{"id":"osm:w435782761","kind":"bridge","subtype":"trunk","name":"NH205 bridge","population":0,"populationEstimated":false}},{"type":"Feature","geometry":{"type":"Point","coordinates":[76.5664,31.18263]},"properties":{"id":"osm:w460820948","kind":"bridge","subtype":"trunk","name":"NH205 bridge","population":0,"populationEstimated":false}},{"type":"Feature","geometry":{"type":"Point","coordinates":[76.57803,31.14391]},"properties":{"id":"osm:w572907754","kind":"bridge","subtype":"tertiary","name":"Road bridge","population":0,"populationEstimated":false}},{"type":"Feature","geometry":{"type":"Point","coordinates":[76.56991,31.17391]},"properties":{"id":"osm:w572907757","kind":"bridge","subtype":"trunk","name":"NH205 bridge","population":0,"populationEstimated":false}},{"type":"Feature","geometry":{"type":"Point","coordinates":[76.58356,31.13167]},"properties":{"id":"osm:w572907759","kind":"bridge","subtype":"trunk","name":"NH205 bridge","population":0,"populationEstimated":false}},{"type":"Feature","geometry":{"type":"Point","coordinates":[76.58298,31.13249]},"properties":{"id":"osm:w572907761","kind":"bridge","subtype":"trunk","name":"NH205 bridge","population":0,"populationEstimated":false}},{"type":"Feature","geometry":{"type":"Point","coordinates":[76.59091,31.11503]},"properties":{"id":"osm:w572907763","kind":"bridge","subtype":"trunk","name":"NH205 bridge","population":0,"populationEstimated":false}},{"type":"Feature","geometry":{"type":"Point","coordinates":[76.60371,31.10471]},"properties":{"id":"osm:w572907765","kind":"bridge","subtype":"trunk","name":"NH205 bridge","population":0,"populationEstimated":false}},{"type":"Feature","geometry":{"type":"Point","coordinates":[76.59884,31.05679]},"properties":{"id":"osm:w572907767","kind":"bridge","subtype":"trunk","name":"NH205 bridge","population":0,"populationEstimated":false}},{"type":"Feature","geometry":{"type":"Point","coordinates":[76.59889,31.05604]},"properties":{"id":"osm:w572907768","kind":"bridge","subtype":"trunk","name":"NH205 bridge","population":0,"populationEstimated":false}},{"type":"Feature","geometry":{"type":"Point","coordinates":[76.59767,31.04934]},"properties":{"id":"osm:w572907771","kind":"bridge","subtype":"trunk","name":"NH205 bridge","population":0,"populationEstimated":false}},{"type":"Feature","geometry":{"type":"Point","coordinates":[76.56799,31.00475]},"properties":{"id":"osm:w572907774","kind":"bridge","subtype":"trunk","name":"NH205 bridge","population":0,"populationEstimated":false}},{"type":"Feature","geometry":{"type":"Point","coordinates":[76.53679,30.93746]},"properties":{"id":"osm:w572907788","kind":"bridge","subtype":"trunk","name":"NH205 bridge","population":0,"populationEstimated":false}},{"type":"Feature","geometry":{"type":"Point","coordinates":[76.53643,30.93781]},"properties":{"id":"osm:w572907789","kind":"bridge","subtype":"trunk","name":"NH205 bridge","population":0,"populationEstimated":false}},{"type":"Feature","geometry":{"type":"Point","coordinates":[76.54025,30.92755]},"properties":{"id":"osm:w572907792","kind":"bridge","subtype":"trunk","name":"NH205 bridge","population":0,"populationEstimated":false}},{"type":"Feature","geometry":{"type":"Point","coordinates":[76.44427,31.23327]},"properties":{"id":"osm:w620306217","kind":"bridge","subtype":"secondary","name":"Road bridge","population":0,"populationEstimated":false}},{"type":"Feature","geometry":{"type":"Point","coordinates":[76.4123,31.15848]},"properties":{"id":"osm:w625733114","kind":"bridge","subtype":"tertiary","name":"Road bridge","population":0,"populationEstimated":false}},{"type":"Feature","geometry":{"type":"Point","coordinates":[76.41445,31.16061]},"properties":{"id":"osm:w625733118","kind":"bridge","subtype":"tertiary","name":"Road bridge","population":0,"populationEstimated":false}},{"type":"Feature","geometry":{"type":"Point","coordinates":[76.58501,31.14736]},"properties":{"id":"osm:w625775098","kind":"bridge","subtype":"tertiary","name":"Road bridge","population":0,"populationEstimated":false}},{"type":"Feature","geometry":{"type":"Point","coordinates":[76.62364,31.08944]},"properties":{"id":"osm:w625775104","kind":"bridge","subtype":"primary","name":"Road bridge","population":0,"populationEstimated":false}},{"type":"Feature","geometry":{"type":"Point","coordinates":[76.62915,31.20223]},"properties":{"id":"osm:w625787479","kind":"bridge","subtype":"tertiary","name":"Road bridge","population":0,"populationEstimated":false}},{"type":"Feature","geometry":{"type":"Point","coordinates":[76.64391,31.17863]},"properties":{"id":"osm:w625787481","kind":"bridge","subtype":"tertiary","name":"Road bridge","population":0,"populationEstimated":false}},{"type":"Feature","geometry":{"type":"Point","coordinates":[76.64664,31.16543]},"properties":{"id":"osm:w625787486","kind":"bridge","subtype":"tertiary","name":"Road bridge","population":0,"populationEstimated":false}},{"type":"Feature","geometry":{"type":"Point","coordinates":[76.65498,31.13733]},"properties":{"id":"osm:w625787488","kind":"bridge","subtype":"tertiary","name":"Road bridge","population":0,"populationEstimated":false}},{"type":"Feature","geometry":{"type":"Point","coordinates":[76.56028,31.15068]},"properties":{"id":"osm:w625787497","kind":"bridge","subtype":"tertiary","name":"Road bridge","population":0,"populationEstimated":false}},{"type":"Feature","geometry":{"type":"Point","coordinates":[76.57044,31.26871]},"properties":{"id":"osm:w625805834","kind":"bridge","subtype":"tertiary","name":"Road bridge","population":0,"populationEstimated":false}},{"type":"Feature","geometry":{"type":"Point","coordinates":[76.60593,31.22567]},"properties":{"id":"osm:w625805837","kind":"bridge","subtype":"tertiary","name":"Road bridge","population":0,"populationEstimated":false}},{"type":"Feature","geometry":{"type":"Point","coordinates":[76.49899,31.28066]},"properties":{"id":"osm:w625805854","kind":"bridge","subtype":"tertiary","name":"Road bridge","population":0,"populationEstimated":false}},{"type":"Feature","geometry":{"type":"Point","coordinates":[76.51165,31.24164]},"properties":{"id":"osm:w625805861","kind":"bridge","subtype":"secondary","name":"Road bridge","population":0,"populationEstimated":false}},{"type":"Feature","geometry":{"type":"Point","coordinates":[76.49018,30.94088]},"properties":{"id":"osm:w640595398","kind":"bridge","subtype":"tertiary","name":"Bela-Ropar Road","population":0,"populationEstimated":false}},{"type":"Feature","geometry":{"type":"Point","coordinates":[76.51195,30.93712]},"properties":{"id":"osm:w640615472","kind":"bridge","subtype":"trunk","name":"Ropar-Doraha Road","population":0,"populationEstimated":false}},{"type":"Feature","geometry":{"type":"Point","coordinates":[76.49081,30.92185]},"properties":{"id":"osm:w640615475","kind":"bridge","subtype":"trunk","name":"Ropar-Doraha Road","population":0,"populationEstimated":false}},{"type":"Feature","geometry":{"type":"Point","coordinates":[76.59773,30.92475]},"properties":{"id":"osm:w643137125","kind":"bridge","subtype":"tertiary","name":"Road bridge","population":0,"populationEstimated":false}},{"type":"Feature","geometry":{"type":"Point","coordinates":[76.52505,30.93003]},"properties":{"id":"osm:w643164350","kind":"bridge","subtype":"tertiary","name":"Morinda Rupnagar SH","population":0,"populationEstimated":false}},{"type":"Feature","geometry":{"type":"Point","coordinates":[76.54606,30.9628]},"properties":{"id":"osm:w643164428","kind":"bridge","subtype":"tertiary","name":"Road bridge","population":0,"populationEstimated":false}},{"type":"Feature","geometry":{"type":"Point","coordinates":[76.52679,30.98105]},"properties":{"id":"osm:w643164464","kind":"bridge","subtype":"secondary","name":"Road bridge","population":0,"populationEstimated":false}},{"type":"Feature","geometry":{"type":"Point","coordinates":[76.53172,30.9666]},"properties":{"id":"osm:w643164468","kind":"bridge","subtype":"tertiary","name":"Bela-Ropar Road","population":0,"populationEstimated":false}},{"type":"Feature","geometry":{"type":"Point","coordinates":[76.59325,31.07388]},"properties":{"id":"osm:w643193873","kind":"bridge","subtype":"tertiary","name":"Road bridge","population":0,"populationEstimated":false}},{"type":"Feature","geometry":{"type":"Point","coordinates":[76.59653,31.05248]},"properties":{"id":"osm:w643193876","kind":"bridge","subtype":"tertiary","name":"Road bridge","population":0,"populationEstimated":false}},{"type":"Feature","geometry":{"type":"Point","coordinates":[76.59621,31.06002]},"properties":{"id":"osm:w643193888","kind":"bridge","subtype":"tertiary","name":"Road bridge","population":0,"populationEstimated":false}},{"type":"Feature","geometry":{"type":"Point","coordinates":[76.53588,30.96331]},"properties":{"id":"osm:w644575777","kind":"bridge","subtype":"tertiary","name":"Road bridge","population":0,"populationEstimated":false}},{"type":"Feature","geometry":{"type":"Point","coordinates":[76.3912,31.27469]},"properties":{"id":"osm:w646071828","kind":"bridge","subtype":"tertiary","name":"Road bridge","population":0,"populationEstimated":false}},{"type":"Feature","geometry":{"type":"Point","coordinates":[76.56045,31.20257]},"properties":{"id":"osm:w646320355","kind":"bridge","subtype":"tertiary","name":"Road bridge","population":0,"populationEstimated":false}},{"type":"Feature","geometry":{"type":"Point","coordinates":[76.54446,31.28866]},"properties":{"id":"osm:w682417280","kind":"bridge","subtype":"secondary","name":"Road bridge","population":0,"populationEstimated":false}},{"type":"Feature","geometry":{"type":"Point","coordinates":[76.37127,31.01662]},"properties":{"id":"osm:w719639495","kind":"bridge","subtype":"trunk","name":"NH344A bridge","population":0,"populationEstimated":false}},{"type":"Feature","geometry":{"type":"Point","coordinates":[76.30826,31.44103]},"properties":{"id":"osm:w759079215","kind":"bridge","subtype":"secondary","name":"Road bridge","population":0,"populationEstimated":false}},{"type":"Feature","geometry":{"type":"Point","coordinates":[76.3987,31.337]},"properties":{"id":"osm:w759158088","kind":"bridge","subtype":"trunk","name":"NH503 bridge","population":0,"populationEstimated":false}},{"type":"Feature","geometry":{"type":"Point","coordinates":[76.53958,31.43311]},"properties":{"id":"osm:w759161428","kind":"bridge","subtype":"secondary","name":"Road bridge","population":0,"populationEstimated":false}},{"type":"Feature","geometry":{"type":"Point","coordinates":[76.5243,31.45498]},"properties":{"id":"osm:w759161431","kind":"bridge","subtype":"secondary","name":"Road bridge","population":0,"populationEstimated":false}},{"type":"Feature","geometry":{"type":"Point","coordinates":[76.51409,31.45074]},"properties":{"id":"osm:w759161435","kind":"bridge","subtype":"secondary","name":"Road bridge","population":0,"populationEstimated":false}},{"type":"Feature","geometry":{"type":"Point","coordinates":[76.61136,31.41314]},"properties":{"id":"osm:w759177724","kind":"bridge","subtype":"secondary","name":"Road bridge","population":0,"populationEstimated":false}},{"type":"Feature","geometry":{"type":"Point","coordinates":[76.62916,31.44467]},"properties":{"id":"osm:w759192337","kind":"bridge","subtype":"tertiary","name":"Road bridge","population":0,"populationEstimated":false}},{"type":"Feature","geometry":{"type":"Point","coordinates":[76.63689,31.43041]},"properties":{"id":"osm:w759192339","kind":"bridge","subtype":"tertiary","name":"Road bridge","population":0,"populationEstimated":false}},{"type":"Feature","geometry":{"type":"Point","coordinates":[76.3047,31.45695]},"properties":{"id":"osm:w880784050","kind":"bridge","subtype":"tertiary","name":"Road bridge","population":0,"populationEstimated":false}},{"type":"Feature","geometry":{"type":"Point","coordinates":[76.31333,31.4484]},"properties":{"id":"osm:w880788242","kind":"bridge","subtype":"tertiary","name":"Road bridge","population":0,"populationEstimated":false}},{"type":"Feature","geometry":{"type":"Point","coordinates":[76.31475,31.36105]},"properties":{"id":"osm:w893096563","kind":"bridge","subtype":"secondary","name":"Road bridge","population":0,"populationEstimated":false}},{"type":"Feature","geometry":{"type":"Point","coordinates":[76.3211,31.36967]},"properties":{"id":"osm:w893096566","kind":"bridge","subtype":"tertiary","name":"Road bridge","population":0,"populationEstimated":false}},{"type":"Feature","geometry":{"type":"Point","coordinates":[76.36783,31.44228]},"properties":{"id":"osm:w893348561","kind":"bridge","subtype":"tertiary","name":"to Bangarh","population":0,"populationEstimated":false}},{"type":"Feature","geometry":{"type":"Point","coordinates":[76.36949,31.43862]},"properties":{"id":"osm:w893348564","kind":"bridge","subtype":"tertiary","name":"to Bangarh","population":0,"populationEstimated":false}},{"type":"Feature","geometry":{"type":"Point","coordinates":[76.37067,31.43417]},"properties":{"id":"osm:w893348566","kind":"bridge","subtype":"tertiary","name":"to Bangarh","population":0,"populationEstimated":false}},{"type":"Feature","geometry":{"type":"Point","coordinates":[76.37572,31.41266]},"properties":{"id":"osm:w893348572","kind":"bridge","subtype":"tertiary","name":"Road bridge","population":0,"populationEstimated":false}},{"type":"Feature","geometry":{"type":"Point","coordinates":[76.31437,31.42358]},"properties":{"id":"osm:w893348577","kind":"bridge","subtype":"tertiary","name":"Road bridge","population":0,"populationEstimated":false}},{"type":"Feature","geometry":{"type":"Point","coordinates":[76.32184,31.40244]},"properties":{"id":"osm:w893348582","kind":"bridge","subtype":"secondary","name":"Road bridge","population":0,"populationEstimated":false}},{"type":"Feature","geometry":{"type":"Point","coordinates":[76.5314,30.97187]},"properties":{"id":"osm:w1034054418","kind":"bridge","subtype":"tertiary","name":"Road bridge","population":0,"populationEstimated":false}},{"type":"Feature","geometry":{"type":"Point","coordinates":[76.47461,31.25036]},"properties":{"id":"osm:w1131083433","kind":"bridge","subtype":"tertiary","name":"Road bridge","population":0,"populationEstimated":false}},{"type":"Feature","geometry":{"type":"Point","coordinates":[76.50223,30.98449]},"properties":{"id":"osm:w1153688478","kind":"bridge","subtype":"secondary","name":"Road bridge","population":0,"populationEstimated":false}},{"type":"Feature","geometry":{"type":"Point","coordinates":[76.36571,31.3777]},"properties":{"id":"osm:w1155846922","kind":"bridge","subtype":"trunk","name":"NH503 bridge","population":0,"populationEstimated":false}},{"type":"Feature","geometry":{"type":"Point","coordinates":[76.37357,31.3767]},"properties":{"id":"osm:w1155846924","kind":"bridge","subtype":"trunk","name":"NH503 bridge","population":0,"populationEstimated":false}},{"type":"Feature","geometry":{"type":"Point","coordinates":[76.37349,31.37659]},"properties":{"id":"osm:w1155846925","kind":"bridge","subtype":"trunk","name":"NH503 bridge","population":0,"populationEstimated":false}},{"type":"Feature","geometry":{"type":"Point","coordinates":[76.52009,30.94522]},"properties":{"id":"osm:w1207988843","kind":"bridge","subtype":"trunk","name":"NH344A bridge","population":0,"populationEstimated":false}},{"type":"Feature","geometry":{"type":"Point","coordinates":[76.52124,30.94443]},"properties":{"id":"osm:w1207990355","kind":"bridge","subtype":"trunk","name":"Ropar Bypass","population":0,"populationEstimated":false}},{"type":"Feature","geometry":{"type":"Point","coordinates":[76.37005,31.3774]},"properties":{"id":"osm:w1268163872","kind":"bridge","subtype":"trunk","name":"NH503 bridge","population":0,"populationEstimated":false}},{"type":"Feature","geometry":{"type":"Point","coordinates":[76.34419,31.37806]},"properties":{"id":"osm:w1268163882","kind":"bridge","subtype":"trunk","name":"NH503 bridge","population":0,"populationEstimated":false}},{"type":"Feature","geometry":{"type":"Point","coordinates":[76.34462,31.37746]},"properties":{"id":"osm:w1268163883","kind":"bridge","subtype":"trunk","name":"NH503 bridge","population":0,"populationEstimated":false}},{"type":"Feature","geometry":{"type":"Point","coordinates":[76.57501,31.18481]},"properties":{"id":"osm:w1286177592","kind":"bridge","subtype":"trunk","name":"NH205 bridge","population":0,"populationEstimated":false}},{"type":"Feature","geometry":{"type":"Point","coordinates":[76.34378,31.38025]},"properties":{"id":"osm:w1289315116","kind":"bridge","subtype":"trunk","name":"NH503 bridge","population":0,"populationEstimated":false}},{"type":"Feature","geometry":{"type":"Point","coordinates":[76.3717,31.01671]},"properties":{"id":"osm:w1291322679","kind":"bridge","subtype":"trunk","name":"NH344A bridge","population":0,"populationEstimated":false}},{"type":"Feature","geometry":{"type":"Point","coordinates":[76.55755,31.19979]},"properties":{"id":"osm:w1291995481","kind":"bridge","subtype":"trunk","name":"NH503 bridge","population":0,"populationEstimated":false}},{"type":"Feature","geometry":{"type":"Point","coordinates":[76.55697,31.20014]},"properties":{"id":"osm:w1291995483","kind":"bridge","subtype":"trunk","name":"NH503 bridge","population":0,"populationEstimated":false}},{"type":"Feature","geometry":{"type":"Point","coordinates":[76.50687,31.25952]},"properties":{"id":"osm:w1305029999","kind":"bridge","subtype":"secondary","name":"Road bridge","population":0,"populationEstimated":false}},{"type":"Feature","geometry":{"type":"Point","coordinates":[76.50664,31.25874]},"properties":{"id":"osm:w1305030002","kind":"bridge","subtype":"secondary","name":"Road bridge","population":0,"populationEstimated":false}},{"type":"Feature","geometry":{"type":"Point","coordinates":[76.45688,30.97172]},"properties":{"id":"osm:w1426169920","kind":"bridge","subtype":"tertiary","name":"Road bridge","population":0,"populationEstimated":false}},{"type":"Feature","geometry":{"type":"Point","coordinates":[76.50337,31.29499]},"properties":{"id":"osm:w1445987432","kind":"bridge","subtype":"tertiary","name":"Road bridge","population":0,"populationEstimated":false}},{"type":"Feature","geometry":{"type":"Point","coordinates":[76.40718,31.00898]},"properties":{"id":"osm:w1458387822","kind":"bridge","subtype":"trunk","name":"NH344A bridge","population":0,"populationEstimated":false}},{"type":"Feature","geometry":{"type":"Point","coordinates":[76.40774,31.00909]},"properties":{"id":"osm:w1458387824","kind":"bridge","subtype":"trunk","name":"NH344A bridge","population":0,"populationEstimated":false}},{"type":"Feature","geometry":{"type":"Point","coordinates":[76.43652,31.00443]},"properties":{"id":"osm:w1458389090","kind":"bridge","subtype":"trunk","name":"NH344A","population":0,"populationEstimated":false}},{"type":"Feature","geometry":{"type":"Point","coordinates":[76.43612,31.00441]},"properties":{"id":"osm:w1458389092","kind":"bridge","subtype":"trunk","name":"NH344A bridge","population":0,"populationEstimated":false}},{"type":"Feature","geometry":{"type":"Point","coordinates":[76.31585,31.18276]},"properties":{"id":"osm:w1462324984","kind":"bridge","subtype":"tertiary","name":"Road bridge","population":0,"populationEstimated":false}},{"type":"Feature","geometry":{"type":"Point","coordinates":[76.46329,30.92664]},"properties":{"id":"osm:w1463480392","kind":"bridge","subtype":"tertiary","name":"Bela-Ropar Road","population":0,"populationEstimated":false}},{"type":"Feature","geometry":{"type":"Point","coordinates":[76.40292,30.93639]},"properties":{"id":"osm:w1463535271","kind":"bridge","subtype":"tertiary","name":"Bela-Ropar Road","population":0,"populationEstimated":false}},{"type":"Feature","geometry":{"type":"Point","coordinates":[76.33153,31.16463]},"properties":{"id":"osm:w1481210116","kind":"bridge","subtype":"tertiary","name":"Road bridge","population":0,"populationEstimated":false}},{"type":"Feature","geometry":{"type":"Point","coordinates":[76.33426,31.16153]},"properties":{"id":"osm:w1481210581","kind":"bridge","subtype":"tertiary","name":"Road bridge","population":0,"populationEstimated":false}},{"type":"Feature","geometry":{"type":"Point","coordinates":[76.49924,31.24324]},"properties":{"id":"osm:w1484711905","kind":"bridge","subtype":"secondary","name":"Road bridge","population":0,"populationEstimated":false}},{"type":"Feature","geometry":{"type":"Point","coordinates":[76.45471,31.23625]},"properties":{"id":"osm:w1484724520","kind":"bridge","subtype":"secondary","name":"Road bridge","population":0,"populationEstimated":false}},{"type":"Feature","geometry":{"type":"Point","coordinates":[76.53638,30.98318]},"properties":{"id":"osm:w1504687956","kind":"bridge","subtype":"trunk","name":"NH205 bridge","population":0,"populationEstimated":false}},{"type":"Feature","geometry":{"type":"Point","coordinates":[76.53652,30.98301]},"properties":{"id":"osm:w1504687958","kind":"bridge","subtype":"trunk","name":"NH205 bridge","population":0,"populationEstimated":false}}]}