{"type":"FeatureCollection","features":[{"type":"Feature","geometry":{"type":"Point","coordinates":[70.74869,22.65622]},"properties":{"id":"osm:n245708524","kind":"settlement","subtype":"town","name":"Tankara","population":15000,"populationEstimated":true}},{"type":"Feature","geometry":{"type":"Point","coordinates":[70.83459,22.81767]},"properties":{"id":"osm:n245709936","kind":"settlement","subtype":"city","name":"Morbi","population":194947,"populationEstimated":false}},{"type":"Feature","geometry":{"type":"Point","coordinates":[70.78872,22.63177]},"properties":{"id":"osm:n2846239010","kind":"settlement","subtype":"village","name":"Amrapar","population":1000,"populationEstimated":true}},{"type":"Feature","geometry":{"type":"Point","coordinates":[70.83584,22.81326]},"properties":{"id":"osm:n4508358594","kind":"emergency","subtype":"police","name":"City police line &  A divison police station","population":0,"populationEstimated":false}},{"type":"Feature","geometry":{"type":"Point","coordinates":[70.80404,22.7875]},"properties":{"id":"osm:n6772480843","kind":"settlement","subtype":"village","name":"Sanala","population":1000,"populationEstimated":true}},{"type":"Feature","geometry":{"type":"Point","coordinates":[70.7745,22.76986]},"properties":{"id":"osm:n6772489354","kind":"settlement","subtype":"village","name":"Rajpur","population":2500,"populationEstimated":false}},{"type":"Feature","geometry":{"type":"Point","coordinates":[70.8316,22.81594]},"properties":{"id":"osm:n6977126264","kind":"hospital","subtype":"hospital","name":"Civil Hospital, Rajkot","population":0,"populationEstimated":false}},{"type":"Feature","geometry":{"type":"Point","coordinates":[70.82999,22.81399]},"properties":{"id":"osm:n6978577823","kind":"hospital","subtype":"hospital","name":"Drashti Hospital, Rajkot","population":0,"populationEstimated":false}},{"type":"Feature","geometry":{"type":"Point","coordinates":[70.82848,22.812]},"properties":{"id":"osm:n6981883358","kind":"hospital","subtype":"hospital","name":"Devshree Hospital","population":0,"populationEstimated":false}},{"type":"Feature","geometry":{"type":"Point","coordinates":[70.82903,22.81364]},"properties":{"id":"osm:n6983705280","kind":"hospital","subtype":"hospital","name":"Dr. R. G. Rupala Ortho Hospital - Morbi","population":0,"populationEstimated":false}},{"type":"Feature","geometry":{"type":"Point","coordinates":[70.82901,22.81512]},"properties":{"id":"osm:n6987246240","kind":"hospital","subtype":"hospital","name":"Parth Hospital, Morbi","population":0,"populationEstimated":false}},{"type":"Feature","geometry":{"type":"Point","coordinates":[70.82879,22.81768]},"properties":{"id":"osm:n6988072337","kind":"hospital","subtype":"hospital","name":"Jivandeep Hospital, Rajkot","population":0,"populationEstimated":false}},{"type":"Feature","geometry":{"type":"Point","coordinates":[70.82758,22.8121]},"properties":{"id":"osm:n7861787442","kind":"hospital","subtype":"doctors","name":"Dr. Dharmesh Maniyar","population":0,"populationEstimated":false}},{"type":"Feature","geometry":{"type":"Point","coordinates":[70.82767,22.81232]},"properties":{"id":"osm:n7861787443","kind":"hospital","subtype":"hospital","name":"Killol Children Hospital","population":0,"populationEstimated":false}},{"type":"Feature","geometry":{"type":"Point","coordinates":[70.82973,22.81909]},"properties":{"id":"osm:n7861787444","kind":"hospital","subtype":"clinic","name":"Shree Raj Rajeshwari Clinic","population":0,"populationEstimated":false}},{"type":"Feature","geometry":{"type":"Point","coordinates":[70.74796,22.65907]},"properties":{"id":"osm:n7861787445","kind":"hospital","subtype":"hospital","name":"Civil Hospital","population":0,"populationEstimated":false}},{"type":"Feature","geometry":{"type":"Point","coordinates":[70.8298,22.81577]},"properties":{"id":"osm:n7861787446","kind":"hospital","subtype":"hospital","name":"Dr. Bheela Hospital","population":0,"populationEstimated":false}},{"type":"Feature","geometry":{"type":"Point","coordinates":[70.82959,22.81549]},"properties":{"id":"osm:n7861787447","kind":"hospital","subtype":"hospital","name":"Radhe Krishna Hospital","population":0,"populationEstimated":false}},{"type":"Feature","geometry":{"type":"Point","coordinates":[70.82574,22.8108]},"properties":{"id":"osm:n7861787448","kind":"hospital","subtype":"hospital","name":"Janki Hospital","population":0,"populationEstimated":false}},{"type":"Feature","geometry":{"type":"Point","coordinates":[70.82879,22.81794]},"properties":{"id":"osm:n7861787449","kind":"hospital","subtype":"hospital","name":"Shubh Hospital & Heart Care","population":0,"populationEstimated":false}},{"type":"Feature","geometry":{"type":"Point","coordinates":[70.8292,22.81971]},"properties":{"id":"osm:n7861787450","kind":"hospital","subtype":"clinic","name":"Dr. Aervadia Clinic","population":0,"populationEstimated":false}},{"type":"Feature","geometry":{"type":"Point","coordinates":[70.82914,22.81552]},"properties":{"id":"osm:n7861787451","kind":"hospital","subtype":"hospital","name":"Madhav Hospital - Cardiac & Critical Care","population":0,"populationEstimated":false}},{"type":"Feature","geometry":{"type":"Point","coordinates":[70.83134,22.81767]},"properties":{"id":"osm:n7861787452","kind":"hospital","subtype":"hospital","name":"Dr. Ketan Hindocha","population":0,"populationEstimated":false}},{"type":"Feature","geometry":{"type":"Point","coordinates":[70.82995,22.80918]},"properties":{"id":"osm:n7861787453","kind":"hospital","subtype":"clinic","name":"Dhaval Clinic","population":0,"populationEstimated":false}},{"type":"Feature","geometry":{"type":"Point","coordinates":[70.85387,22.83645]},"properties":{"id":"osm:n7861787455","kind":"hospital","subtype":"hospital","name":"Samarpan Multispeciality Hospital","population":0,"populationEstimated":false}},{"type":"Feature","geometry":{"type":"Point","coordinates":[70.82881,22.8179]},"properties":{"id":"osm:n7861787456","kind":"hospital","subtype":"hospital","name":"Dr. Hemal Patel Orthopaedic Hospital","population":0,"populationEstimated":false}},{"type":"Feature","geometry":{"type":"Point","coordinates":[70.84941,22.8269]},"properties":{"id":"osm:n7861787457","kind":"hospital","subtype":"hospital","name":"Aditya Hospital","population":0,"populationEstimated":false}},{"type":"Feature","geometry":{"type":"Point","coordinates":[70.83044,22.81592]},"properties":{"id":"osm:n7861787458","kind":"hospital","subtype":"doctors","name":"Dr. Anil N. Patel","population":0,"populationEstimated":false}},{"type":"Feature","geometry":{"type":"Point","coordinates":[70.8258,22.79848]},"properties":{"id":"osm:n7861787459","kind":"hospital","subtype":"hospital","name":"Devam Hospital","population":0,"populationEstimated":false}},{"type":"Feature","geometry":{"type":"Point","coordinates":[70.82756,22.81229]},"properties":{"id":"osm:n7861787460","kind":"hospital","subtype":"hospital","name":"Anuj Hospital","population":0,"populationEstimated":false}},{"type":"Feature","geometry":{"type":"Point","coordinates":[70.74888,22.65286]},"properties":{"id":"osm:n7861787461","kind":"hospital","subtype":"hospital","name":"Sheth Hospital","population":0,"populationEstimated":false}},{"type":"Feature","geometry":{"type":"Point","coordinates":[70.84954,22.82758]},"properties":{"id":"osm:n7861787462","kind":"hospital","subtype":"hospital","name":"Ravi General Hospital","population":0,"populationEstimated":false}},{"type":"Feature","geometry":{"type":"Point","coordinates":[70.88125,22.88701]},"properties":{"id":"osm:n7861787463","kind":"hospital","subtype":"clinic","name":"Shree Hari Clinic","population":0,"populationEstimated":false}},{"type":"Feature","geometry":{"type":"Point","coordinates":[70.83085,22.8143]},"properties":{"id":"osm:n7861787464","kind":"hospital","subtype":"doctors","name":"Dr. Sanjay Patel","population":0,"populationEstimated":false}},{"type":"Feature","geometry":{"type":"Point","coordinates":[70.82544,22.81074]},"properties":{"id":"osm:n7861787467","kind":"hospital","subtype":"hospital","name":"Chirag Surgical Hospital","population":0,"populationEstimated":false}},{"type":"Feature","geometry":{"type":"Point","coordinates":[70.82928,22.81438]},"properties":{"id":"osm:n7861787468","kind":"hospital","subtype":"hospital","name":"Aashirvad Children's Hospital","population":0,"populationEstimated":false}},{"type":"Feature","geometry":{"type":"Point","coordinates":[70.8302,22.81446]},"properties":{"id":"osm:n7861787469","kind":"hospital","subtype":"hospital","name":"Shyam Hospital","population":0,"populationEstimated":false}},{"type":"Feature","geometry":{"type":"Point","coordinates":[70.82655,22.81195]},"properties":{"id":"osm:n7861787470","kind":"hospital","subtype":"hospital","name":"Masoom Children & Gynec Hospital","population":0,"populationEstimated":false}},{"type":"Feature","geometry":{"type":"Point","coordinates":[70.82907,22.81359]},"properties":{"id":"osm:n7861787471","kind":"hospital","subtype":"hospital","name":"Janani Gynec Hospital","population":0,"populationEstimated":false}},{"type":"Feature","geometry":{"type":"Point","coordinates":[70.8295,22.81688]},"properties":{"id":"osm:n7861787472","kind":"hospital","subtype":"hospital","name":"Dr. Pethapara Hospital","population":0,"populationEstimated":false}},{"type":"Feature","geometry":{"type":"Point","coordinates":[70.82957,22.81458]},"properties":{"id":"osm:n7861787473","kind":"hospital","subtype":"hospital","name":"Om Orthopaedic Hospital","population":0,"populationEstimated":false}},{"type":"Feature","geometry":{"type":"Point","coordinates":[70.8276,22.81188]},"properties":{"id":"osm:n7861787474","kind":"hospital","subtype":"hospital","name":"Sanjeevani Hospital","population":0,"populationEstimated":false}},{"type":"Feature","geometry":{"type":"Point","coordinates":[70.82976,22.81568]},"properties":{"id":"osm:n7861787475","kind":"hospital","subtype":"hospital","name":"Manglam Hospital, Morbi","population":0,"populationEstimated":false}},{"type":"Feature","geometry":{"type":"Point","coordinates":[70.8298,22.81659]},"properties":{"id":"osm:n7861787476","kind":"hospital","subtype":"hospital","name":"Shubham Hospital","population":0,"populationEstimated":false}},{"type":"Feature","geometry":{"type":"Point","coordinates":[70.8518,22.82343]},"properties":{"id":"osm:n7861787477","kind":"hospital","subtype":"clinic","name":"Manasvi Clinic","population":0,"populationEstimated":false}},{"type":"Feature","geometry":{"type":"Point","coordinates":[70.95121,22.8572]},"properties":{"id":"osm:n7861787479","kind":"hospital","subtype":"clinic","name":"Shree Ram Clinic","population":0,"populationEstimated":false}},{"type":"Feature","geometry":{"type":"Point","coordinates":[70.82967,22.81359]},"properties":{"id":"osm:n7861787480","kind":"hospital","subtype":"clinic","name":"Dr. J. H. Tolia Clinic","population":0,"populationEstimated":false}},{"type":"Feature","geometry":{"type":"Point","coordinates":[70.82835,22.8125]},"properties":{"id":"osm:n7861787481","kind":"hospital","subtype":"hospital","name":"Sparsh Children's Hospital","population":0,"populationEstimated":false}},{"type":"Feature","geometry":{"type":"Point","coordinates":[70.83115,22.81706]},"properties":{"id":"osm:n7861787482","kind":"hospital","subtype":"doctors","name":"Dr.C P Chatrola","population":0,"populationEstimated":false}},{"type":"Feature","geometry":{"type":"Point","coordinates":[70.8913,22.90789]},"properties":{"id":"osm:n7861787484","kind":"hospital","subtype":"clinic","name":"Umiya Clinic","population":0,"populationEstimated":false}},{"type":"Feature","geometry":{"type":"Point","coordinates":[70.83145,22.81337]},"properties":{"id":"osm:n7861787486","kind":"hospital","subtype":"hospital","name":"Maheshwari Child Care Hospital","population":0,"populationEstimated":false}},{"type":"Feature","geometry":{"type":"Point","coordinates":[70.82762,22.81128]},"properties":{"id":"osm:n7861787490","kind":"hospital","subtype":"hospital","name":"Radhe ENT Hospital & Laser Centre","population":0,"populationEstimated":false}},{"type":"Feature","geometry":{"type":"Point","coordinates":[70.82489,22.80975]},"properties":{"id":"osm:n7861787492","kind":"hospital","subtype":"hospital","name":"Bhadesia Hospital","population":0,"populationEstimated":false}},{"type":"Feature","geometry":{"type":"Point","coordinates":[70.85101,22.82598]},"properties":{"id":"osm:n7861787493","kind":"hospital","subtype":"clinic","name":"Dr. D.S.Patel Clinic","population":0,"populationEstimated":false}},{"type":"Feature","geometry":{"type":"Point","coordinates":[70.83375,22.81504]},"properties":{"id":"osm:n7861787495","kind":"hospital","subtype":"hospital","name":"Sadbhavna Hospital","population":0,"populationEstimated":false}},{"type":"Feature","geometry":{"type":"Point","coordinates":[70.82702,22.81135]},"properties":{"id":"osm:n7861787496","kind":"hospital","subtype":"hospital","name":"Kalrav Hospital","population":0,"populationEstimated":false}},{"type":"Feature","geometry":{"type":"Point","coordinates":[70.8261,22.81149]},"properties":{"id":"osm:n7861787497","kind":"hospital","subtype":"hospital","name":"Aastha Orthopaedic & Eye Hospital","population":0,"populationEstimated":false}},{"type":"Feature","geometry":{"type":"Point","coordinates":[70.84833,22.81824]},"properties":{"id":"osm:n7861787498","kind":"hospital","subtype":"hospital","name":"Mayur Hospital","population":0,"populationEstimated":false}},{"type":"Feature","geometry":{"type":"Point","coordinates":[70.82583,22.81217]},"properties":{"id":"osm:n7861787499","kind":"hospital","subtype":"hospital","name":"Aary Hospital","population":0,"populationEstimated":false}},{"type":"Feature","geometry":{"type":"Point","coordinates":[70.82562,22.81091]},"properties":{"id":"osm:n7861787500","kind":"hospital","subtype":"hospital","name":"Pooja Children's Hospital","population":0,"populationEstimated":false}},{"type":"Feature","geometry":{"type":"Point","coordinates":[70.8284,22.81178]},"properties":{"id":"osm:n7861787501","kind":"hospital","subtype":"hospital","name":"Sagar Children Hospital","population":0,"populationEstimated":false}},{"type":"Feature","geometry":{"type":"Point","coordinates":[70.82801,22.81221]},"properties":{"id":"osm:n7861787502","kind":"hospital","subtype":"hospital","name":"Naklank Hospital","population":0,"populationEstimated":false}},{"type":"Feature","geometry":{"type":"Point","coordinates":[70.82915,22.81485]},"properties":{"id":"osm:n7861787505","kind":"hospital","subtype":"hospital","name":"Amrutam Hospital","population":0,"populationEstimated":false}},{"type":"Feature","geometry":{"type":"Point","coordinates":[70.82995,22.81402]},"properties":{"id":"osm:n7861787508","kind":"hospital","subtype":"doctors","name":"Dr. Ketan Aghara","population":0,"populationEstimated":false}},{"type":"Feature","geometry":{"type":"Point","coordinates":[70.82652,22.81185]},"properties":{"id":"osm:n7861787509","kind":"hospital","subtype":"hospital","name":"Apple Hospital","population":0,"populationEstimated":false}},{"type":"Feature","geometry":{"type":"Point","coordinates":[70.82979,22.81486]},"properties":{"id":"osm:n7861787510","kind":"hospital","subtype":"hospital","name":"Kagathara Surgical Hospital","population":0,"populationEstimated":false}},{"type":"Feature","geometry":{"type":"Point","coordinates":[70.82653,22.80994]},"properties":{"id":"osm:n7861787511","kind":"hospital","subtype":"hospital","name":"Khushbu Hospital","population":0,"populationEstimated":false}},{"type":"Feature","geometry":{"type":"Point","coordinates":[70.82651,22.80997]},"properties":{"id":"osm:n7861787514","kind":"hospital","subtype":"hospital","name":"Sanjivani Medical and Nursing Home","population":0,"populationEstimated":false}},{"type":"Feature","geometry":{"type":"Point","coordinates":[70.82953,22.81443]},"properties":{"id":"osm:n7861787515","kind":"hospital","subtype":"hospital","name":"Gokul Hospital","population":0,"populationEstimated":false}},{"type":"Feature","geometry":{"type":"Point","coordinates":[70.82753,22.81136]},"properties":{"id":"osm:n7861787516","kind":"hospital","subtype":"hospital","name":"Vedant Hospital","population":0,"populationEstimated":false}},{"type":"Feature","geometry":{"type":"Point","coordinates":[70.82966,22.81936]},"properties":{"id":"osm:n7861787518","kind":"hospital","subtype":"clinic","name":"Anurag Clinic","population":0,"populationEstimated":false}},{"type":"Feature","geometry":{"type":"Point","coordinates":[70.82718,22.81183]},"properties":{"id":"osm:n7861787519","kind":"hospital","subtype":"hospital","name":"Krishna Multispeciality Hospital","population":0,"populationEstimated":false}},{"type":"Feature","geometry":{"type":"Point","coordinates":[70.82558,22.81069]},"properties":{"id":"osm:n7861787520","kind":"hospital","subtype":"hospital","name":"Aagman Hospital","population":0,"populationEstimated":false}},{"type":"Feature","geometry":{"type":"Point","coordinates":[70.82987,22.81463]},"properties":{"id":"osm:n7861787522","kind":"hospital","subtype":"hospital","name":"Shivam Hospital","population":0,"populationEstimated":false}},{"type":"Feature","geometry":{"type":"Point","coordinates":[70.86209,22.84302]},"properties":{"id":"osm:n7861787523","kind":"hospital","subtype":"clinic","name":"Om Clinic & Occupational Health Centre","population":0,"populationEstimated":false}},{"type":"Feature","geometry":{"type":"Point","coordinates":[70.80997,22.80873]},"properties":{"id":"osm:n7861787524","kind":"hospital","subtype":"hospital","name":"Dhruv Children Hospital","population":0,"populationEstimated":false}},{"type":"Feature","geometry":{"type":"Point","coordinates":[70.83018,22.81693]},"properties":{"id":"osm:n7861787525","kind":"hospital","subtype":"hospital","name":"Mayaan Maternity Hospital","population":0,"populationEstimated":false}},{"type":"Feature","geometry":{"type":"Point","coordinates":[70.86061,22.82812]},"properties":{"id":"osm:n7861787526","kind":"hospital","subtype":"clinic","name":"Om Clinic","population":0,"populationEstimated":false}},{"type":"Feature","geometry":{"type":"Point","coordinates":[70.83018,22.81445]},"properties":{"id":"osm:n7861787527","kind":"hospital","subtype":"clinic","name":"Saumya Skin Clinic","population":0,"populationEstimated":false}},{"type":"Feature","geometry":{"type":"Point","coordinates":[70.82904,22.81623]},"properties":{"id":"osm:n7861787528","kind":"hospital","subtype":"hospital","name":"Aayush Multispeciality Hospital","population":0,"populationEstimated":false}},{"type":"Feature","geometry":{"type":"Point","coordinates":[70.82959,22.81554]},"properties":{"id":"osm:n7861787530","kind":"hospital","subtype":"hospital","name":"Om Hospital","population":0,"populationEstimated":false}},{"type":"Feature","geometry":{"type":"Point","coordinates":[70.84259,22.71915]},"properties":{"id":"osm:n8039800398","kind":"settlement","subtype":"village","name":"Titwala","population":1000,"populationEstimated":true}},{"type":"Feature","geometry":{"type":"Point","coordinates":[70.91804,22.75161]},"properties":{"id":"osm:n8039800401","kind":"settlement","subtype":"suburb","name":"Makansar","population":5000,"populationEstimated":true}},{"type":"Feature","geometry":{"type":"Point","coordinates":[70.91885,22.62776]},"properties":{"id":"osm:n8039800415","kind":"settlement","subtype":"village","name":"Panchasiya","population":5000,"populationEstimated":false}},{"type":"Feature","geometry":{"type":"Point","coordinates":[70.9946,22.7313]},"properties":{"id":"osm:n8039800437","kind":"settlement","subtype":"village","name":"Matel","population":1000,"populationEstimated":true}},{"type":"Feature","geometry":{"type":"Point","coordinates":[70.75646,22.79596]},"properties":{"id":"osm:n8039800557","kind":"settlement","subtype":"village","name":"Panchasar","population":1234,"populationEstimated":false}},{"type":"Feature","geometry":{"type":"Point","coordinates":[70.71582,22.80451]},"properties":{"id":"osm:n8039800558","kind":"settlement","subtype":"village","name":"Amrapar - Nagalapar","population":1200,"populationEstimated":false}},{"type":"Feature","geometry":{"type":"Point","coordinates":[70.7135,22.77911]},"properties":{"id":"osm:n8039800577","kind":"settlement","subtype":"village","name":"Thorala","population":1500,"populationEstimated":false}},{"type":"Feature","geometry":{"type":"Point","coordinates":[70.71874,22.71523]},"properties":{"id":"osm:n8039800579","kind":"settlement","subtype":"village","name":"Nasitpar","population":3500,"populationEstimated":false}},{"type":"Feature","geometry":{"type":"Point","coordinates":[70.70803,22.67778]},"properties":{"id":"osm:n8039800582","kind":"settlement","subtype":"village","name":"Nana khijadiya","population":2000,"populationEstimated":false}},{"type":"Feature","geometry":{"type":"Point","coordinates":[70.71321,22.6674]},"properties":{"id":"osm:n8039800583","kind":"settlement","subtype":"village","name":"Mota khijadiya","population":2500,"populationEstimated":false}},{"type":"Feature","geometry":{"type":"Point","coordinates":[70.72185,22.85381]},"properties":{"id":"osm:n8039800668","kind":"settlement","subtype":"village","name":"Bagathala","population":3333,"populationEstimated":false}},{"type":"Feature","geometry":{"type":"Point","coordinates":[70.74545,22.65059]},"properties":{"id":"osm:n9775094619","kind":"hospital","subtype":"hospital","name":"Shree Om Clinic&Leboletri","population":0,"populationEstimated":false}},{"type":"Feature","geometry":{"type":"Point","coordinates":[70.72487,22.64703]},"properties":{"id":"osm:n10016043272","kind":"settlement","subtype":"village","name":"Kalyanpur","population":2000,"populationEstimated":false}},{"type":"Feature","geometry":{"type":"Point","coordinates":[70.71676,22.70921]},"properties":{"id":"osm:n10154773269","kind":"settlement","subtype":"village","name":"Nana Rampar","population":500,"populationEstimated":false}},{"type":"Feature","geometry":{"type":"Point","coordinates":[70.70943,22.7203]},"properties":{"id":"osm:n10154773270","kind":"settlement","subtype":"village","name":"Mahendrapur","population":500,"populationEstimated":false}},{"type":"Feature","geometry":{"type":"Point","coordinates":[70.73737,22.63344]},"properties":{"id":"osm:n10166906914","kind":"settlement","subtype":"village","name":"Jabalpur","population":1000,"populationEstimated":true}},{"type":"Feature","geometry":{"type":"Point","coordinates":[70.86726,22.86099]},"properties":{"id":"osm:n10798757965","kind":"settlement","subtype":"village","name":"Juni Pipali","population":1000,"populationEstimated":true}},{"type":"Feature","geometry":{"type":"Point","coordinates":[70.97073,22.92457]},"properties":{"id":"osm:n10798766136","kind":"settlement","subtype":"village","name":"Khareda ખરેડા","population":1000,"populationEstimated":true}},{"type":"Feature","geometry":{"type":"Point","coordinates":[70.82286,22.82243]},"properties":{"id":"osm:n10800960289","kind":"settlement","subtype":"suburb","name":"Janak Nagar","population":5000,"populationEstimated":true}},{"type":"Feature","geometry":{"type":"Point","coordinates":[70.82621,22.78976]},"properties":{"id":"osm:n10800971402","kind":"school","subtype":"school","name":"Krishna School","population":0,"populationEstimated":false}},{"type":"Feature","geometry":{"type":"Point","coordinates":[70.87733,22.80538]},"properties":{"id":"osm:n10806840387","kind":"settlement","subtype":"village","name":"Lalpar લાલપર","population":1000,"populationEstimated":true}},{"type":"Feature","geometry":{"type":"Point","coordinates":[70.96448,22.86245]},"properties":{"id":"osm:n10807239081","kind":"settlement","subtype":"village","name":"Nichimandal નીચી મંડળ","population":1000,"populationEstimated":true}},{"type":"Feature","geometry":{"type":"Point","coordinates":[70.85786,22.94522]},"properties":{"id":"osm:n10818886963","kind":"settlement","subtype":"village","name":"Haripar હરીપર","population":1000,"populationEstimated":true}},{"type":"Feature","geometry":{"type":"Point","coordinates":[70.82733,22.80493]},"properties":{"id":"osm:n11199102229","kind":"school","subtype":"school","name":"Nilkanth School","population":0,"populationEstimated":false}},{"type":"Feature","geometry":{"type":"Point","coordinates":[70.82219,22.79883]},"properties":{"id":"osm:n11199407033","kind":"school","subtype":"school","name":"Nirmal School","population":0,"populationEstimated":false}},{"type":"Feature","geometry":{"type":"Point","coordinates":[70.80965,22.63777]},"properties":{"id":"osm:n11598760774","kind":"settlement","subtype":"village","name":"Tol","population":1000,"populationEstimated":true}},{"type":"Feature","geometry":{"type":"Point","coordinates":[70.8189,22.65684]},"properties":{"id":"osm:n11598760775","kind":"settlement","subtype":"village","name":"Kotharia","population":1000,"populationEstimated":true}},{"type":"Feature","geometry":{"type":"Point","coordinates":[70.84171,22.65797]},"properties":{"id":"osm:n11598760776","kind":"settlement","subtype":"village","name":"New Kotharia","population":1000,"populationEstimated":true}},{"type":"Feature","geometry":{"type":"Point","coordinates":[70.84962,22.76862]},"properties":{"id":"osm:n11742097242","kind":"settlement","subtype":"suburb","name":"Lilapar","population":5000,"populationEstimated":true}},{"type":"Feature","geometry":{"type":"Point","coordinates":[70.93703,22.84938]},"properties":{"id":"osm:n11742097329","kind":"settlement","subtype":"village","name":"Unchimandal","population":1000,"populationEstimated":true}},{"type":"Feature","geometry":{"type":"Point","coordinates":[70.92237,22.88575]},"properties":{"id":"osm:n11742097330","kind":"settlement","subtype":"village","name":"Sanala","population":1000,"populationEstimated":true}},{"type":"Feature","geometry":{"type":"Point","coordinates":[70.72928,22.63785]},"properties":{"id":"osm:w1096345309","kind":"school","subtype":"school","name":"Om Vidhyalay","population":0,"populationEstimated":false}},{"type":"Feature","geometry":{"type":"Point","coordinates":[70.85791,22.82667]},"properties":{"id":"osm:w222784892","kind":"bridge","subtype":"trunk","name":"NH27 bridge","population":0,"populationEstimated":false}},{"type":"Feature","geometry":{"type":"Point","coordinates":[70.98877,22.88054]},"properties":{"id":"osm:w225155828","kind":"bridge","subtype":"primary","name":"SH22 bridge","population":0,"populationEstimated":false}},{"type":"Feature","geometry":{"type":"Point","coordinates":[70.83819,22.82288]},"properties":{"id":"osm:w225155829","kind":"bridge","subtype":"primary","name":"Mayur Bridge","population":0,"populationEstimated":false}},{"type":"Feature","geometry":{"type":"Point","coordinates":[70.79446,22.74569]},"properties":{"id":"osm:w225155835","kind":"bridge","subtype":"primary","name":"Morbi Bypass","population":0,"populationEstimated":false}},{"type":"Feature","geometry":{"type":"Point","coordinates":[70.76721,22.70022]},"properties":{"id":"osm:w225155836","kind":"bridge","subtype":"primary","name":"Rajkot - Morbi Highway","population":0,"populationEstimated":false}},{"type":"Feature","geometry":{"type":"Point","coordinates":[70.75789,22.68451]},"properties":{"id":"osm:w225155837","kind":"bridge","subtype":"primary","name":"Rajkot - Morbi Highway","population":0,"populationEstimated":false}},{"type":"Feature","geometry":{"type":"Point","coordinates":[70.85068,22.83831]},"properties":{"id":"osm:w225882210","kind":"bridge","subtype":"trunk","name":"NH27 bridge","population":0,"populationEstimated":false}},{"type":"Feature","geometry":{"type":"Point","coordinates":[70.84157,22.87785]},"properties":{"id":"osm:w225882211","kind":"bridge","subtype":"trunk","name":"NH27 bridge","population":0,"populationEstimated":false}},{"type":"Feature","geometry":{"type":"Point","coordinates":[70.85075,22.83886]},"properties":{"id":"osm:w225882212","kind":"bridge","subtype":"trunk","name":"NH27 bridge","population":0,"populationEstimated":false}},{"type":"Feature","geometry":{"type":"Point","coordinates":[70.85259,22.85272]},"properties":{"id":"osm:w225882213","kind":"bridge","subtype":"trunk","name":"NH27 bridge","population":0,"populationEstimated":false}},{"type":"Feature","geometry":{"type":"Point","coordinates":[70.95871,22.63103]},"properties":{"id":"osm:w225889471","kind":"bridge","subtype":"trunk","name":"NH27 bridge","population":0,"populationEstimated":false}},{"type":"Feature","geometry":{"type":"Point","coordinates":[70.95814,22.62976]},"properties":{"id":"osm:w225889472","kind":"bridge","subtype":"trunk","name":"NH27 bridge","population":0,"populationEstimated":false}},{"type":"Feature","geometry":{"type":"Point","coordinates":[70.93349,22.7309]},"properties":{"id":"osm:w225889474","kind":"bridge","subtype":"trunk","name":"NH27 bridge","population":0,"populationEstimated":false}},{"type":"Feature","geometry":{"type":"Point","coordinates":[70.93398,22.7297]},"properties":{"id":"osm:w225889475","kind":"bridge","subtype":"trunk","name":"NH27 bridge","population":0,"populationEstimated":false}},{"type":"Feature","geometry":{"type":"Point","coordinates":[70.93585,22.70684]},"properties":{"id":"osm:w225889477","kind":"bridge","subtype":"trunk","name":"NH27 bridge","population":0,"populationEstimated":false}},{"type":"Feature","geometry":{"type":"Point","coordinates":[70.93826,22.71454]},"properties":{"id":"osm:w225889480","kind":"bridge","subtype":"trunk","name":"NH27 bridge","population":0,"populationEstimated":false}},{"type":"Feature","geometry":{"type":"Point","coordinates":[70.93119,22.62812]},"properties":{"id":"osm:w227972087","kind":"bridge","subtype":"primary","name":"SH319 bridge","population":0,"populationEstimated":false}},{"type":"Feature","geometry":{"type":"Point","coordinates":[70.91327,22.62903]},"properties":{"id":"osm:w228569278","kind":"bridge","subtype":"primary","name":"SH319 bridge","population":0,"populationEstimated":false}},{"type":"Feature","geometry":{"type":"Point","coordinates":[70.80425,22.83668]},"properties":{"id":"osm:w229445290","kind":"bridge","subtype":"primary","name":"SH24 bridge","population":0,"populationEstimated":false}},{"type":"Feature","geometry":{"type":"Point","coordinates":[70.71527,22.85478]},"properties":{"id":"osm:w229445293","kind":"bridge","subtype":"primary","name":"SH314 bridge","population":0,"populationEstimated":false}},{"type":"Feature","geometry":{"type":"Point","coordinates":[70.80689,22.8264]},"properties":{"id":"osm:w229445294","kind":"bridge","subtype":"primary","name":"SH314 bridge","population":0,"populationEstimated":false}},{"type":"Feature","geometry":{"type":"Point","coordinates":[70.99223,22.67757]},"properties":{"id":"osm:w229447145","kind":"bridge","subtype":"primary","name":"SH318 bridge","population":0,"populationEstimated":false}},{"type":"Feature","geometry":{"type":"Point","coordinates":[70.90541,22.63082]},"properties":{"id":"osm:w229448762","kind":"bridge","subtype":"primary","name":"SH319 bridge","population":0,"populationEstimated":false}},{"type":"Feature","geometry":{"type":"Point","coordinates":[70.85396,22.8377]},"properties":{"id":"osm:w229450865","kind":"bridge","subtype":"primary","name":"SH22 bridge","population":0,"populationEstimated":false}},{"type":"Feature","geometry":{"type":"Point","coordinates":[70.88721,22.8999]},"properties":{"id":"osm:w229450866","kind":"bridge","subtype":"primary","name":"SH321 bridge","population":0,"populationEstimated":false}},{"type":"Feature","geometry":{"type":"Point","coordinates":[70.85914,22.76849]},"properties":{"id":"osm:w229682212","kind":"bridge","subtype":"secondary","name":"Road bridge","population":0,"populationEstimated":false}},{"type":"Feature","geometry":{"type":"Point","coordinates":[70.8084,22.81574]},"properties":{"id":"osm:w229682213","kind":"bridge","subtype":"secondary","name":"Road bridge","population":0,"populationEstimated":false}},{"type":"Feature","geometry":{"type":"Point","coordinates":[70.82338,22.85708]},"properties":{"id":"osm:w231000362","kind":"bridge","subtype":"primary","name":"Morbi Bypass","population":0,"populationEstimated":false}},{"type":"Feature","geometry":{"type":"Point","coordinates":[70.8616,22.85547]},"properties":{"id":"osm:w231000366","kind":"bridge","subtype":"primary","name":"SH321 bridge","population":0,"populationEstimated":false}},{"type":"Feature","geometry":{"type":"Point","coordinates":[70.78143,22.62956]},"properties":{"id":"osm:w280518356","kind":"bridge","subtype":"tertiary","name":"Road bridge","population":0,"populationEstimated":false}},{"type":"Feature","geometry":{"type":"Point","coordinates":[70.91407,22.68095]},"properties":{"id":"osm:w552037204","kind":"bridge","subtype":"tertiary","name":"Road bridge","population":0,"populationEstimated":false}},{"type":"Feature","geometry":{"type":"Point","coordinates":[70.91056,22.89019]},"properties":{"id":"osm:w649812740","kind":"bridge","subtype":"tertiary","name":"Road bridge","population":0,"populationEstimated":false}},{"type":"Feature","geometry":{"type":"Point","coordinates":[71.0162,22.914]},"properties":{"id":"osm:w687295143","kind":"bridge","subtype":"primary","name":"SH22 bridge","population":0,"populationEstimated":false}},{"type":"Feature","geometry":{"type":"Point","coordinates":[70.9656,22.86862]},"properties":{"id":"osm:w687295145","kind":"bridge","subtype":"tertiary","name":"Road bridge","population":0,"populationEstimated":false}},{"type":"Feature","geometry":{"type":"Point","coordinates":[70.93438,22.85879]},"properties":{"id":"osm:w687295148","kind":"bridge","subtype":"tertiary","name":"Road bridge","population":0,"populationEstimated":false}},{"type":"Feature","geometry":{"type":"Point","coordinates":[70.89691,22.92248]},"properties":{"id":"osm:w702616326","kind":"bridge","subtype":"primary","name":"SH321 bridge","population":0,"populationEstimated":false}},{"type":"Feature","geometry":{"type":"Point","coordinates":[70.88039,22.76589]},"properties":{"id":"osm:w703825875","kind":"bridge","subtype":"secondary","name":"Road bridge","population":0,"populationEstimated":false}},{"type":"Feature","geometry":{"type":"Point","coordinates":[70.8892,22.81838]},"properties":{"id":"osm:w703825882","kind":"bridge","subtype":"tertiary","name":"Road bridge","population":0,"populationEstimated":false}},{"type":"Feature","geometry":{"type":"Point","coordinates":[70.71712,22.71382]},"properties":{"id":"osm:w703973930","kind":"bridge","subtype":"tertiary","name":"Road bridge","population":0,"populationEstimated":false}},{"type":"Feature","geometry":{"type":"Point","coordinates":[70.77378,22.76982]},"properties":{"id":"osm:w703973935","kind":"bridge","subtype":"tertiary","name":"Road bridge","population":0,"populationEstimated":false}},{"type":"Feature","geometry":{"type":"Point","coordinates":[70.88719,22.83519]},"properties":{"id":"osm:w723360938","kind":"bridge","subtype":"secondary","name":"Road bridge","population":0,"populationEstimated":false}},{"type":"Feature","geometry":{"type":"Point","coordinates":[70.85521,22.94115]},"properties":{"id":"osm:w731124935","kind":"bridge","subtype":"tertiary","name":"Road bridge","population":0,"populationEstimated":false}},{"type":"Feature","geometry":{"type":"Point","coordinates":[70.99502,22.73353]},"properties":{"id":"osm:w908133685","kind":"bridge","subtype":"tertiary","name":"Road bridge","population":0,"populationEstimated":false}},{"type":"Feature","geometry":{"type":"Point","coordinates":[70.83886,22.65667]},"properties":{"id":"osm:w953504409","kind":"bridge","subtype":"tertiary","name":"Road bridge","population":0,"populationEstimated":false}},{"type":"Feature","geometry":{"type":"Point","coordinates":[70.83418,22.85244]},"properties":{"id":"osm:w1068746260","kind":"bridge","subtype":"tertiary","name":"Road bridge","population":0,"populationEstimated":false}},{"type":"Feature","geometry":{"type":"Point","coordinates":[70.97504,22.88907]},"properties":{"id":"osm:w1068778155","kind":"bridge","subtype":"tertiary","name":"Road bridge","population":0,"populationEstimated":false}},{"type":"Feature","geometry":{"type":"Point","coordinates":[70.96673,22.94636]},"properties":{"id":"osm:w1068778194","kind":"bridge","subtype":"tertiary","name":"Road bridge","population":0,"populationEstimated":false}},{"type":"Feature","geometry":{"type":"Point","coordinates":[70.74734,22.65138]},"properties":{"id":"osm:w1081692076","kind":"bridge","subtype":"primary","name":"SH24 bridge","population":0,"populationEstimated":false}},{"type":"Feature","geometry":{"type":"Point","coordinates":[70.74723,22.65176]},"properties":{"id":"osm:w1081692078","kind":"bridge","subtype":"primary","name":"SH22;SH24 bridge","population":0,"populationEstimated":false}},{"type":"Feature","geometry":{"type":"Point","coordinates":[70.74778,22.65024]},"properties":{"id":"osm:w1093384604","kind":"bridge","subtype":"primary","name":"Rajkot - Morbi Highway","population":0,"populationEstimated":false}},{"type":"Feature","geometry":{"type":"Point","coordinates":[70.74657,22.65528]},"properties":{"id":"osm:w1093384610","kind":"bridge","subtype":"primary","name":"Road bridge","population":0,"populationEstimated":false}},{"type":"Feature","geometry":{"type":"Point","coordinates":[70.74849,22.64867]},"properties":{"id":"osm:w1096345289","kind":"bridge","subtype":"primary","name":"SH24 bridge","population":0,"populationEstimated":false}},{"type":"Feature","geometry":{"type":"Point","coordinates":[70.74649,22.65526]},"properties":{"id":"osm:w1096345291","kind":"bridge","subtype":"primary","name":"Road bridge","population":0,"populationEstimated":false}},{"type":"Feature","geometry":{"type":"Point","coordinates":[70.74697,22.65307]},"properties":{"id":"osm:w1096345304","kind":"bridge","subtype":"primary","name":"Rajkot - Morbi Highway","population":0,"populationEstimated":false}},{"type":"Feature","geometry":{"type":"Point","coordinates":[70.74289,22.64967]},"properties":{"id":"osm:w1096345320","kind":"bridge","subtype":"primary","name":"Dhrol - Tankara State Highway SH-22","population":0,"populationEstimated":false}},{"type":"Feature","geometry":{"type":"Point","coordinates":[70.84105,22.82287]},"properties":{"id":"osm:w1108793686","kind":"bridge","subtype":"tertiary","name":"Road bridge","population":0,"populationEstimated":false}},{"type":"Feature","geometry":{"type":"Point","coordinates":[70.71368,22.62294]},"properties":{"id":"osm:w1111109459","kind":"bridge","subtype":"primary","name":"Dhrol - Tankara State Highway SH-22","population":0,"populationEstimated":false}},{"type":"Feature","geometry":{"type":"Point","coordinates":[70.7367,22.63911]},"properties":{"id":"osm:w1111109479","kind":"bridge","subtype":"tertiary","name":"Jabalpur Road","population":0,"populationEstimated":false}},{"type":"Feature","geometry":{"type":"Point","coordinates":[70.92355,22.82005]},"properties":{"id":"osm:w1224773589","kind":"bridge","subtype":"tertiary","name":"Road bridge","population":0,"populationEstimated":false}},{"type":"Feature","geometry":{"type":"Point","coordinates":[70.91453,22.63319]},"properties":{"id":"osm:w1253178262","kind":"bridge","subtype":"tertiary","name":"Road bridge","population":0,"populationEstimated":false}},{"type":"Feature","geometry":{"type":"Point","coordinates":[70.75843,22.68589]},"properties":{"id":"osm:w1271752615","kind":"bridge","subtype":"primary","name":"Rajkot - Morbi Highway","population":0,"populationEstimated":false}},{"type":"Feature","geometry":{"type":"Point","coordinates":[70.82494,22.859]},"properties":{"id":"osm:w1291280305","kind":"bridge","subtype":"primary","name":"Morbi Bypass","population":0,"populationEstimated":false}},{"type":"Feature","geometry":{"type":"Point","coordinates":[70.8105,22.83369]},"properties":{"id":"osm:w1291295150","kind":"bridge","subtype":"primary","name":"Morbi Bypass","population":0,"populationEstimated":false}},{"type":"Feature","geometry":{"type":"Point","coordinates":[70.81039,22.83416]},"properties":{"id":"osm:w1291295152","kind":"bridge","subtype":"primary","name":"Morbi Bypass","population":0,"populationEstimated":false}},{"type":"Feature","geometry":{"type":"Point","coordinates":[70.79287,22.74117]},"properties":{"id":"osm:w1291329545","kind":"bridge","subtype":"primary","name":"Rajkot - Morbi Highway","population":0,"populationEstimated":false}},{"type":"Feature","geometry":{"type":"Point","coordinates":[70.79437,22.74511]},"properties":{"id":"osm:w1291329549","kind":"bridge","subtype":"primary","name":"Morbi Bypass","population":0,"populationEstimated":false}},{"type":"Feature","geometry":{"type":"Point","coordinates":[70.81049,22.79501]},"properties":{"id":"osm:w1291329557","kind":"bridge","subtype":"primary","name":"Morbi Bypass","population":0,"populationEstimated":false}},{"type":"Feature","geometry":{"type":"Point","coordinates":[70.81068,22.79526]},"properties":{"id":"osm:w1291329558","kind":"bridge","subtype":"primary","name":"Morbi Bypass","population":0,"populationEstimated":false}},{"type":"Feature","geometry":{"type":"Point","coordinates":[70.81078,22.79591]},"properties":{"id":"osm:w1291329559","kind":"bridge","subtype":"primary","name":"Morbi Bypass","population":0,"populationEstimated":false}},{"type":"Feature","geometry":{"type":"Point","coordinates":[70.76753,22.70069]},"properties":{"id":"osm:w1291638069","kind":"bridge","subtype":"primary","name":"Rajkot - Morbi Highway","population":0,"populationEstimated":false}},{"type":"Feature","geometry":{"type":"Point","coordinates":[70.82595,22.79889]},"properties":{"id":"osm:w1306747205","kind":"bridge","subtype":"secondary","name":"Road bridge","population":0,"populationEstimated":false}},{"type":"Feature","geometry":{"type":"Point","coordinates":[70.9596,22.6326]},"properties":{"id":"osm:w1328707898","kind":"bridge","subtype":"trunk","name":"NH27 bridge","population":0,"populationEstimated":false}},{"type":"Feature","geometry":{"type":"Point","coordinates":[70.9596,22.63234]},"properties":{"id":"osm:w1328707900","kind":"bridge","subtype":"trunk","name":"NH27 bridge","population":0,"populationEstimated":false}},{"type":"Feature","geometry":{"type":"Point","coordinates":[70.8515,22.83393]},"properties":{"id":"osm:w1361374268","kind":"bridge","subtype":"trunk","name":"NH27 bridge","population":0,"populationEstimated":false}},{"type":"Feature","geometry":{"type":"Point","coordinates":[70.79403,22.82934]},"properties":{"id":"osm:w1526739349","kind":"bridge","subtype":"primary","name":"SH314 bridge","population":0,"populationEstimated":false}},{"type":"Feature","geometry":{"type":"Point","coordinates":[70.78868,22.84806]},"properties":{"id":"osm:w1526739351","kind":"bridge","subtype":"tertiary","name":"Road bridge","population":0,"populationEstimated":false}}]}