{"type":"FeatureCollection","features":[{"type":"Feature","geometry":{"type":"Point","coordinates":[79.61897,30.47804]},"properties":{"id":"osm:n245770322","kind":"settlement","subtype":"village","name":"Ringi","population":1000,"populationEstimated":true}},{"type":"Feature","geometry":{"type":"Point","coordinates":[79.74152,30.53101]},"properties":{"id":"osm:n342104904","kind":"settlement","subtype":"village","name":"Suraithota","population":1000,"populationEstimated":true}},{"type":"Feature","geometry":{"type":"Point","coordinates":[79.70719,30.49667]},"properties":{"id":"osm:n342104914","kind":"settlement","subtype":"village","name":"Lata","population":1000,"populationEstimated":true}},{"type":"Feature","geometry":{"type":"Point","coordinates":[79.56126,30.55558]},"properties":{"id":"osm:n342105699","kind":"settlement","subtype":"town","name":"Joshimath","population":16709,"populationEstimated":false}},{"type":"Feature","geometry":{"type":"Point","coordinates":[79.56572,30.53779]},"properties":{"id":"osm:n342105710","kind":"settlement","subtype":"village","name":"Auli","population":1000,"populationEstimated":true}},{"type":"Feature","geometry":{"type":"Point","coordinates":[79.651,30.48407]},"properties":{"id":"osm:n2376466284","kind":"settlement","subtype":"hamlet","name":"Rini","population":150,"populationEstimated":true}},{"type":"Feature","geometry":{"type":"Point","coordinates":[79.57915,30.56264]},"properties":{"id":"osm:n2376466294","kind":"settlement","subtype":"hamlet","name":"Vishnuprayāg","population":150,"populationEstimated":true}},{"type":"Feature","geometry":{"type":"Point","coordinates":[79.7316,30.51902]},"properties":{"id":"osm:n2386907495","kind":"settlement","subtype":"village","name":"Balgaon","population":1000,"populationEstimated":true}},{"type":"Feature","geometry":{"type":"Point","coordinates":[79.75222,30.52391]},"properties":{"id":"osm:n2386907509","kind":"settlement","subtype":"hamlet","name":"Tolma","population":150,"populationEstimated":true}},{"type":"Feature","geometry":{"type":"Point","coordinates":[79.61134,30.49886]},"properties":{"id":"osm:n5519535106","kind":"settlement","subtype":"village","name":"Dhak","population":1000,"populationEstimated":true}},{"type":"Feature","geometry":{"type":"Point","coordinates":[79.56761,30.5355]},"properties":{"id":"osm:n6574850286","kind":"emergency","subtype":"police","name":"Military border","population":0,"populationEstimated":false}},{"type":"Feature","geometry":{"type":"Point","coordinates":[79.61021,30.47794]},"properties":{"id":"osm:n7690199371","kind":"settlement","subtype":"village","name":"Raighadi","population":1000,"populationEstimated":true}},{"type":"Feature","geometry":{"type":"Point","coordinates":[79.60774,30.48304]},"properties":{"id":"osm:n7690199372","kind":"settlement","subtype":"village","name":"Karchi","population":1000,"populationEstimated":true}},{"type":"Feature","geometry":{"type":"Point","coordinates":[79.5244,30.4889]},"properties":{"id":"osm:n7733346065","kind":"settlement","subtype":"hamlet","name":"Rupung","population":150,"populationEstimated":true}},{"type":"Feature","geometry":{"type":"Point","coordinates":[79.52077,30.48311]},"properties":{"id":"osm:n7733346066","kind":"settlement","subtype":"village","name":"Molta","population":1000,"populationEstimated":true}},{"type":"Feature","geometry":{"type":"Point","coordinates":[79.63314,30.47648]},"properties":{"id":"osm:n7733346070","kind":"settlement","subtype":"hamlet","name":"Rangeli","population":150,"populationEstimated":true}},{"type":"Feature","geometry":{"type":"Point","coordinates":[79.62952,30.47031]},"properties":{"id":"osm:n7733346071","kind":"settlement","subtype":"hamlet","name":"Rikhulti","population":150,"populationEstimated":true}},{"type":"Feature","geometry":{"type":"Point","coordinates":[79.62632,30.4635]},"properties":{"id":"osm:n7733346072","kind":"settlement","subtype":"hamlet","name":"Dhurkunda","population":150,"populationEstimated":true}},{"type":"Feature","geometry":{"type":"Point","coordinates":[79.75531,30.55173]},"properties":{"id":"osm:n7733873626","kind":"settlement","subtype":"hamlet","name":"Panwarsa","population":150,"populationEstimated":true}},{"type":"Feature","geometry":{"type":"Point","coordinates":[79.77582,30.55664]},"properties":{"id":"osm:n7733873627","kind":"settlement","subtype":"hamlet","name":"Pagti","population":150,"populationEstimated":true}},{"type":"Feature","geometry":{"type":"Point","coordinates":[79.61964,30.49527]},"properties":{"id":"osm:n7833070511","kind":"settlement","subtype":"hamlet","name":"Bilagarh","population":150,"populationEstimated":true}},{"type":"Feature","geometry":{"type":"Point","coordinates":[79.63212,30.49569]},"properties":{"id":"osm:n7833070512","kind":"settlement","subtype":"hamlet","name":"Bhangyul","population":150,"populationEstimated":true}},{"type":"Feature","geometry":{"type":"Point","coordinates":[79.62527,30.48853]},"properties":{"id":"osm:n7833070513","kind":"settlement","subtype":"village","name":"Tapoban","population":1000,"populationEstimated":true}},{"type":"Feature","geometry":{"type":"Point","coordinates":[79.66631,30.48761]},"properties":{"id":"osm:n7833070514","kind":"settlement","subtype":"hamlet","name":"Saldhar","population":150,"populationEstimated":true}},{"type":"Feature","geometry":{"type":"Point","coordinates":[79.66625,30.48305]},"properties":{"id":"osm:n7833070515","kind":"settlement","subtype":"hamlet","name":"Chanchri","population":150,"populationEstimated":true}},{"type":"Feature","geometry":{"type":"Point","coordinates":[79.67432,30.49312]},"properties":{"id":"osm:n7833070516","kind":"settlement","subtype":"hamlet","name":"Juwagwar","population":150,"populationEstimated":true}},{"type":"Feature","geometry":{"type":"Point","coordinates":[79.69033,30.49029]},"properties":{"id":"osm:n7833070517","kind":"settlement","subtype":"hamlet","name":"Jugju","population":150,"populationEstimated":true}},{"type":"Feature","geometry":{"type":"Point","coordinates":[79.69109,30.48522]},"properties":{"id":"osm:n7833070518","kind":"settlement","subtype":"village","name":"Reni","population":1000,"populationEstimated":true}},{"type":"Feature","geometry":{"type":"Point","coordinates":[79.67688,30.47823]},"properties":{"id":"osm:n7833070519","kind":"settlement","subtype":"village","name":"Subhain","population":1000,"populationEstimated":true}},{"type":"Feature","geometry":{"type":"Point","coordinates":[79.53282,30.49007]},"properties":{"id":"osm:n7833103059","kind":"settlement","subtype":"hamlet","name":"Urchyuri","population":150,"populationEstimated":true}},{"type":"Feature","geometry":{"type":"Point","coordinates":[79.53466,30.47824]},"properties":{"id":"osm:n7833103060","kind":"settlement","subtype":"hamlet","name":"Chheli","population":150,"populationEstimated":true}},{"type":"Feature","geometry":{"type":"Point","coordinates":[79.58882,30.57062]},"properties":{"id":"osm:n7833130297","kind":"settlement","subtype":"hamlet","name":"Painka","population":150,"populationEstimated":true}},{"type":"Feature","geometry":{"type":"Point","coordinates":[79.53879,30.56699]},"properties":{"id":"osm:n7833130298","kind":"settlement","subtype":"village","name":"Chain","population":1000,"populationEstimated":true}},{"type":"Feature","geometry":{"type":"Point","coordinates":[79.52692,30.50697]},"properties":{"id":"osm:n7833130307","kind":"settlement","subtype":"hamlet","name":"Dungra","population":150,"populationEstimated":true}},{"type":"Feature","geometry":{"type":"Point","coordinates":[79.57752,30.52276]},"properties":{"id":"osm:n7833130308","kind":"settlement","subtype":"hamlet","name":"Koti","population":150,"populationEstimated":true}},{"type":"Feature","geometry":{"type":"Point","coordinates":[79.61908,30.54168]},"properties":{"id":"osm:n7833130309","kind":"settlement","subtype":"hamlet","name":"Aira","population":150,"populationEstimated":true}},{"type":"Feature","geometry":{"type":"Point","coordinates":[79.59961,30.52126]},"properties":{"id":"osm:n7833130310","kind":"settlement","subtype":"village","name":"Kharori","population":1000,"populationEstimated":true}},{"type":"Feature","geometry":{"type":"Point","coordinates":[79.60899,30.51363]},"properties":{"id":"osm:n7833130311","kind":"settlement","subtype":"hamlet","name":"Chormi","population":150,"populationEstimated":true}},{"type":"Feature","geometry":{"type":"Point","coordinates":[79.60616,30.50186]},"properties":{"id":"osm:n7833130312","kind":"settlement","subtype":"hamlet","name":"Kunj","population":150,"populationEstimated":true}},{"type":"Feature","geometry":{"type":"Point","coordinates":[79.61671,30.5002]},"properties":{"id":"osm:n7833130313","kind":"settlement","subtype":"village","name":"Chamtoli","population":1000,"populationEstimated":true}},{"type":"Feature","geometry":{"type":"Point","coordinates":[79.62435,30.50089]},"properties":{"id":"osm:n7833130314","kind":"settlement","subtype":"hamlet","name":"Garghaniya","population":150,"populationEstimated":true}},{"type":"Feature","geometry":{"type":"Point","coordinates":[79.59328,30.52956]},"properties":{"id":"osm:n7833155599","kind":"settlement","subtype":"village","name":"Mirag","population":1000,"populationEstimated":true}},{"type":"Feature","geometry":{"type":"Point","coordinates":[79.58097,30.54405]},"properties":{"id":"osm:n7833155600","kind":"settlement","subtype":"village","name":"Oucha","population":1000,"populationEstimated":true}},{"type":"Feature","geometry":{"type":"Point","coordinates":[79.58032,30.5342]},"properties":{"id":"osm:n7833155601","kind":"settlement","subtype":"hamlet","name":"Premnagar","population":150,"populationEstimated":true}},{"type":"Feature","geometry":{"type":"Point","coordinates":[79.56131,30.5497]},"properties":{"id":"osm:n7833155602","kind":"settlement","subtype":"hamlet","name":"Dadon","population":150,"populationEstimated":true}},{"type":"Feature","geometry":{"type":"Point","coordinates":[79.54735,30.55119]},"properties":{"id":"osm:n7833155603","kind":"settlement","subtype":"hamlet","name":"Sunil","population":150,"populationEstimated":true}},{"type":"Feature","geometry":{"type":"Point","coordinates":[79.54021,30.54723]},"properties":{"id":"osm:n7833155604","kind":"settlement","subtype":"hamlet","name":"Gaunkh","population":150,"populationEstimated":true}},{"type":"Feature","geometry":{"type":"Point","coordinates":[79.54712,30.58404]},"properties":{"id":"osm:n7833155611","kind":"settlement","subtype":"hamlet","name":"Toli","population":150,"populationEstimated":true}},{"type":"Feature","geometry":{"type":"Point","coordinates":[79.72529,30.51959]},"properties":{"id":"osm:n7833167610","kind":"settlement","subtype":"hamlet","name":"Suki","population":150,"populationEstimated":true}},{"type":"Feature","geometry":{"type":"Point","coordinates":[79.72039,30.5147]},"properties":{"id":"osm:n7833167611","kind":"settlement","subtype":"hamlet","name":"Kuraipani","population":150,"populationEstimated":true}},{"type":"Feature","geometry":{"type":"Point","coordinates":[79.7138,30.4947]},"properties":{"id":"osm:n7833216682","kind":"settlement","subtype":"hamlet","name":"Lata","population":150,"populationEstimated":true}},{"type":"Feature","geometry":{"type":"Point","coordinates":[79.70309,30.46948]},"properties":{"id":"osm:n7833216683","kind":"settlement","subtype":"hamlet","name":"Murunna","population":150,"populationEstimated":true}},{"type":"Feature","geometry":{"type":"Point","coordinates":[79.7131,30.47293]},"properties":{"id":"osm:n7833216684","kind":"settlement","subtype":"hamlet","name":"Paing","population":150,"populationEstimated":true}},{"type":"Feature","geometry":{"type":"Point","coordinates":[79.78531,30.59719]},"properties":{"id":"osm:n7833637989","kind":"settlement","subtype":"hamlet","name":"Tamak","population":150,"populationEstimated":true}},{"type":"Feature","geometry":{"type":"Point","coordinates":[79.77764,30.58675]},"properties":{"id":"osm:n7833637990","kind":"settlement","subtype":"hamlet","name":"Markura","population":150,"populationEstimated":true}},{"type":"Feature","geometry":{"type":"Point","coordinates":[79.77041,30.5926]},"properties":{"id":"osm:n7833637991","kind":"settlement","subtype":"hamlet","name":"Naug","population":150,"populationEstimated":true}},{"type":"Feature","geometry":{"type":"Point","coordinates":[79.5981,30.48226]},"properties":{"id":"osm:n9387763623","kind":"settlement","subtype":"village","name":"Tugasi","population":1000,"populationEstimated":true}},{"type":"Feature","geometry":{"type":"Point","coordinates":[79.74394,30.53168]},"properties":{"id":"osm:w227466381","kind":"bridge","subtype":"tertiary","name":"NH107B bridge","population":0,"populationEstimated":false}},{"type":"Feature","geometry":{"type":"Point","coordinates":[79.74115,30.52981]},"properties":{"id":"osm:w227466382","kind":"bridge","subtype":"tertiary","name":"NH107B bridge","population":0,"populationEstimated":false}},{"type":"Feature","geometry":{"type":"Point","coordinates":[79.76525,30.56464]},"properties":{"id":"osm:w227470905","kind":"bridge","subtype":"tertiary","name":"NH107B bridge","population":0,"populationEstimated":false}},{"type":"Feature","geometry":{"type":"Point","coordinates":[79.78482,30.59596]},"properties":{"id":"osm:w436118318","kind":"bridge","subtype":"tertiary","name":"NH107B bridge","population":0,"populationEstimated":false}},{"type":"Feature","geometry":{"type":"Point","coordinates":[79.57611,30.56314]},"properties":{"id":"osm:w445635164","kind":"bridge","subtype":"trunk","name":"NH7 bridge","population":0,"populationEstimated":false}},{"type":"Feature","geometry":{"type":"Point","coordinates":[79.57029,30.58307]},"properties":{"id":"osm:w636372256","kind":"bridge","subtype":"trunk","name":"NH7 bridge","population":0,"populationEstimated":false}},{"type":"Feature","geometry":{"type":"Point","coordinates":[79.55323,30.56685]},"properties":{"id":"osm:w636372258","kind":"bridge","subtype":"trunk","name":"NH7 bridge","population":0,"populationEstimated":false}},{"type":"Feature","geometry":{"type":"Point","coordinates":[79.54491,30.58526]},"properties":{"id":"osm:w683252029","kind":"bridge","subtype":"tertiary","name":"Road bridge","population":0,"populationEstimated":false}},{"type":"Feature","geometry":{"type":"Point","coordinates":[79.61591,30.493]},"properties":{"id":"osm:w683268037","kind":"bridge","subtype":"tertiary","name":"NH107B bridge","population":0,"populationEstimated":false}},{"type":"Feature","geometry":{"type":"Point","coordinates":[79.57873,30.54385]},"properties":{"id":"osm:w904927105","kind":"bridge","subtype":"tertiary","name":"Joshimath-Malari Road","population":0,"populationEstimated":false}},{"type":"Feature","geometry":{"type":"Point","coordinates":[79.64505,30.48981]},"properties":{"id":"osm:w905613416","kind":"bridge","subtype":"tertiary","name":"Ringi Bridge","population":0,"populationEstimated":false}},{"type":"Feature","geometry":{"type":"Point","coordinates":[79.69419,30.48545]},"properties":{"id":"osm:w905613418","kind":"bridge","subtype":"tertiary","name":"Reni Bridge (Destroyed)","population":0,"populationEstimated":false}},{"type":"Feature","geometry":{"type":"Point","coordinates":[79.57251,30.58012]},"properties":{"id":"osm:w1302307383","kind":"bridge","subtype":"trunk","name":"NH7 bridge","population":0,"populationEstimated":false}},{"type":"Feature","geometry":{"type":"Point","coordinates":[79.57737,30.56931]},"properties":{"id":"osm:w1302307385","kind":"bridge","subtype":"trunk","name":"NH7 bridge","population":0,"populationEstimated":false}},{"type":"Feature","geometry":{"type":"Point","coordinates":[79.5397,30.55192]},"properties":{"id":"osm:w1302307389","kind":"bridge","subtype":"trunk","name":"NH7 bridge","population":0,"populationEstimated":false}},{"type":"Feature","geometry":{"type":"Point","coordinates":[79.68187,30.48628]},"properties":{"id":"osm:w1491824478","kind":"bridge","subtype":"tertiary","name":"Joshimath-Malari Road","population":0,"populationEstimated":false}}]}