{"type":"FeatureCollection","features":[{"type":"Feature","geometry":{"type":"LineString","coordinates":[[79.52844,30.52831],[79.52847,30.5284],[79.52841,30.5286],[79.5284,30.52885],[79.52836,30.52907],[79.5282,30.52926],[79.52821,30.52944],[79.5283,30.52952],[79.52835,30.52965],[79.52828,30.52983],[79.52808,30.53],[79.52789,30.53015],[79.52781,30.53026],[79.52779,30.53036],[79.52783,30.53045],[79.52791,30.53052],[79.52798,30.53058],[79.52799,30.53067],[79.52792,30.53113],[79.52789,30.53132],[79.52783,30.5314],[79.52737,30.53157],[79.52721,30.53179],[79.52689,30.53197],[79.52669,30.5322],[79.52644,30.53227],[79.52629,30.53235],[79.52618,30.53253],[79.526,30.53276],[79.52597,30.53292],[79.52571,30.53332],[79.52536,30.53363],[79.52492,30.534],[79.5249,30.53412],[79.52499,30.53435],[79.52498,30.53453],[79.5249,30.53473],[79.52491,30.53491],[79.5248,30.53509],[79.52477,30.5356],[79.52474,30.53572],[79.52473,30.53593],[79.52481,30.53607],[79.52489,30.53621],[79.52477,30.53656],[79.52467,30.53668],[79.52435,30.53693],[79.52405,30.5371],[79.52385,30.5373],[79.52377,30.53745],[79.52377,30.53753],[79.5238,30.53756],[79.52385,30.53758],[79.52394,30.53759],[79.52415,30.53751],[79.52449,30.53758],[79.52479,30.53756],[79.52511,30.5377],[79.52532,30.53807],[79.52533,30.53824],[79.52532,30.5384],[79.52517,30.53862],[79.52507,30.53873],[79.52506,30.5388],[79.52508,30.53884],[79.52511,30.53887],[79.52515,30.5389],[79.5252,30.53892],[79.52535,30.5389],[79.5256,30.53879],[79.5258,30.53881],[79.52622,30.53891],[79.52684,30.53905],[79.52741,30.53922],[79.52772,30.53932],[79.52799,30.53953],[79.52814,30.53973],[79.5283,30.53992],[79.52855,30.54002],[79.52877,30.54015],[79.52906,30.54031],[79.52911,30.54052],[79.52935,30.54083],[79.52935,30.54114],[79.52947,30.54153],[79.52954,30.54186],[79.5295,30.54208],[79.52934,30.54233],[79.52935,30.54241],[79.52944,30.54252],[79.52965,30.54272],[79.52988,30.54301],[79.53013,30.54334],[79.5302,30.54348],[79.5302,30.5436],[79.53021,30.54371],[79.5303,30.54377],[79.5304,30.5439],[79.53044,30.54408],[79.5305,30.54421],[79.53061,30.54425],[79.53069,30.54435],[79.53071,30.54443],[79.5307,30.54449],[79.53066,30.54455],[79.53053,30.54473],[79.5305,30.54482],[79.53054,30.54488],[79.53063,30.54496],[79.53075,30.54503],[79.53094,30.54515],[79.53102,30.54525],[79.53108,30.5454],[79.53109,30.54559],[79.53111,30.54563],[79.53116,30.54565],[79.53123,30.54569],[79.53137,30.54576],[79.53151,30.54586],[79.53159,30.54598],[79.53165,30.54615],[79.53169,30.54626],[79.53175,30.54632],[79.53202,30.54643],[79.53211,30.54654],[79.53222,30.54661],[79.5323,30.54664],[79.53246,30.54667],[79.53254,30.5467],[79.53262,30.54677],[79.5328,30.54698],[79.53292,30.54705],[79.53301,30.54712],[79.53314,30.5472],[79.53321,30.54733],[79.53322,30.54744],[79.53322,30.54753],[79.53323,30.54761],[79.53323,30.54771],[79.53311,30.54794],[79.53311,30.54806],[79.53316,30.54813],[79.53325,30.54819],[79.53336,30.54824],[79.53342,30.54833],[79.53346,30.54885],[79.53349,30.54893],[79.53359,30.54901],[79.53375,30.54904],[79.53391,30.54911],[79.53404,30.54923],[79.53425,30.54953],[79.53433,30.54967],[79.53439,30.54982],[79.53436,30.55],[79.53436,30.55008],[79.53442,30.55016],[79.53451,30.55025],[79.53465,30.55038],[79.53474,30.55043],[79.53486,30.55045],[79.53498,30.55047],[79.53511,30.55049],[79.53544,30.55059],[79.53556,30.55062],[79.53567,30.55068],[79.53603,30.55092],[79.53619,30.55104],[79.53631,30.55112],[79.53642,30.55116],[79.53651,30.55119],[79.53662,30.55122],[79.53676,30.55126],[79.53688,30.55138],[79.53697,30.55144],[79.53705,30.55145],[79.53716,30.55151],[79.53726,30.55157],[79.5373,30.55166],[79.53748,30.55242],[79.53751,30.55251],[79.53755,30.55257],[79.53761,30.5526],[79.53774,30.55261],[79.5379,30.55258],[79.53823,30.55248],[79.53844,30.5524],[79.53886,30.55224],[79.53909,30.55218],[79.53919,30.55214],[79.53927,30.5521],[79.53948,30.55192],[79.53957,30.5519]]},"properties":{"id":"osm:w37610612","name":"NH7","highway":"trunk","bridge":false}},{"type":"Feature","geometry":{"type":"LineString","coordinates":[[79.56796,30.52845],[79.56838,30.52816],[79.56842,30.52796],[79.56847,30.52742],[79.56873,30.52682],[79.56892,30.52636],[79.56904,30.52612],[79.56912,30.52589],[79.56916,30.52574],[79.56918,30.5257],[79.5692,30.52566],[79.56924,30.52564],[79.56927,30.52564],[79.5693,30.52565],[79.56931,30.52567],[79.56933,30.52572],[79.56942,30.52605],[79.56975,30.5266],[79.56993,30.52678],[79.56996,30.52696],[79.57007,30.52729],[79.57001,30.52744],[79.56998,30.52755],[79.56987,30.52762],[79.56953,30.52763],[79.56922,30.52771],[79.56892,30.52798],[79.56885,30.5281],[79.56887,30.52819],[79.56889,30.52829],[79.56884,30.52839],[79.56867,30.52848],[79.56853,30.52859],[79.56843,30.52887],[79.56835,30.52904],[79.56857,30.52947],[79.56859,30.52979],[79.56845,30.53027],[79.56842,30.53037],[79.56841,30.53043],[79.56841,30.53048],[79.56842,30.53053],[79.56846,30.53056],[79.56849,30.53058],[79.56853,30.53058],[79.56856,30.53058],[79.56859,30.53056],[79.56866,30.53045],[79.56875,30.53027],[79.56881,30.53004],[79.5694,30.52903],[79.56953,30.52892],[79.56971,30.5289],[79.57003,30.52895],[79.57009,30.529],[79.57012,30.52905],[79.57014,30.52917],[79.57013,30.52923],[79.5701,30.52928],[79.57009,30.52935],[79.57009,30.52937],[79.5701,30.52939],[79.57012,30.52941],[79.57016,30.52942],[79.57021,30.52942],[79.57024,30.52942],[79.57026,30.5294],[79.5703,30.52938],[79.57032,30.52937],[79.57033,30.52934],[79.57037,30.52926],[79.57039,30.52923],[79.57041,30.52919],[79.57042,30.52917],[79.57046,30.52915],[79.57049,30.52915],[79.57051,30.52916],[79.57053,30.52917],[79.57055,30.52922],[79.57055,30.52928],[79.57054,30.52938],[79.57052,30.52944],[79.57042,30.52962],[79.57039,30.52975],[79.57039,30.52986],[79.57048,30.53012],[79.57051,30.53081],[79.57039,30.53109],[79.57032,30.53144],[79.57031,30.53169],[79.56989,30.5326],[79.56988,30.53273],[79.56937,30.53308],[79.56899,30.53351],[79.56876,30.53362],[79.5686,30.53376],[79.56853,30.5339],[79.56845,30.53401],[79.56804,30.53441],[79.56764,30.53532],[79.56751,30.5361],[79.56753,30.53656],[79.5676,30.53696],[79.56769,30.53727],[79.56774,30.53757],[79.56764,30.53795],[79.56752,30.53833],[79.56738,30.53855],[79.56729,30.53864],[79.56719,30.5387],[79.56709,30.53875],[79.56699,30.53878],[79.56677,30.53881],[79.56642,30.53878]]},"properties":{"id":"osm:w37612844","name":"Joshimath - Auli road","highway":"primary","bridge":false}},{"type":"Feature","geometry":{"type":"LineString","coordinates":[[79.74383,30.53252],[79.74394,30.53168],[79.74395,30.53161]]},"properties":{"id":"osm:w227466381","name":"NH107B","highway":"tertiary","bridge":true}},{"type":"Feature","geometry":{"type":"LineString","coordinates":[[79.74137,30.53033],[79.74115,30.52981]]},"properties":{"id":"osm:w227466382","name":"NH107B","highway":"tertiary","bridge":true}},{"type":"Feature","geometry":{"type":"LineString","coordinates":[[79.61591,30.493],[79.61579,30.49302],[79.61545,30.49335],[79.61531,30.49369],[79.61537,30.494],[79.61521,30.49436],[79.61514,30.49463],[79.61502,30.49481],[79.61479,30.49514],[79.61458,30.49549],[79.61442,30.4957],[79.61438,30.49581],[79.61442,30.49595],[79.61454,30.49611],[79.61494,30.49647],[79.61511,30.49663],[79.61519,30.49673],[79.61524,30.49685],[79.61524,30.49704],[79.61513,30.49722],[79.61505,30.4975],[79.61502,30.49765],[79.615,30.49778],[79.61495,30.49797],[79.61487,30.49814],[79.61484,30.49829],[79.61493,30.49849],[79.61509,30.49885],[79.61515,30.49908],[79.61517,30.49925],[79.61514,30.49939],[79.61495,30.49945],[79.61469,30.49946],[79.61451,30.49948],[79.61433,30.49956],[79.61406,30.49971],[79.61382,30.49996],[79.61358,30.50025],[79.61337,30.5005],[79.61324,30.5007],[79.61291,30.50095],[79.61254,30.50112],[79.6124,30.50132],[79.61224,30.50177],[79.61215,30.50201],[79.61221,30.50237],[79.6123,30.50289],[79.61222,30.50319],[79.61212,30.50358],[79.61207,30.50376],[79.61213,30.50391],[79.6123,30.5041],[79.61252,30.50437],[79.61269,30.50454],[79.61278,30.5046],[79.6128,30.50472],[79.61271,30.50475],[79.61261,30.50472],[79.61256,30.50462],[79.61249,30.50453],[79.61216,30.50418],[79.61191,30.50394],[79.61184,30.50384],[79.61184,30.50362],[79.6119,30.50314],[79.61191,30.50278],[79.61186,30.50245],[79.61178,30.50219],[79.61169,30.50189],[79.61161,30.50135],[79.61159,30.50106],[79.61171,30.50078],[79.61182,30.50051],[79.61186,30.50029],[79.61188,30.5001],[79.61181,30.49995],[79.61171,30.49969],[79.61159,30.49946],[79.61161,30.49923],[79.61168,30.49909],[79.6118,30.49897],[79.61187,30.49889],[79.61182,30.4988],[79.61171,30.4988],[79.61164,30.49885],[79.61156,30.49904],[79.61149,30.4992],[79.61142,30.49942],[79.61149,30.49969],[79.61154,30.49994],[79.61155,30.50012],[79.6115,30.50035],[79.61137,30.50055],[79.61115,30.5007],[79.61098,30.50084],[79.61094,30.50095],[79.61095,30.50111],[79.61107,30.50155],[79.6111,30.50174],[79.6112,30.50197],[79.61125,30.50211],[79.61122,30.50237],[79.61107,30.50277],[79.61103,30.50298],[79.61105,30.50317],[79.61106,30.50331],[79.61094,30.50349],[79.61076,30.50363],[79.61073,30.50379],[79.61073,30.50412],[79.61073,30.5044],[79.61066,30.50465],[79.61062,30.50482],[79.61062,30.50498],[79.61071,30.50507],[79.61086,30.5051],[79.61107,30.50514],[79.61128,30.50522],[79.61145,30.50539],[79.61163,30.50559],[79.61169,30.50572],[79.61167,30.50587],[79.6116,30.50601],[79.61138,30.50625],[79.61127,30.50641],[79.61126,30.50664],[79.61128,30.50678],[79.6112,30.50698],[79.61105,30.50732],[79.61098,30.50759],[79.61095,30.5078],[79.61096,30.50796],[79.61088,30.50813],[79.61073,30.5082],[79.61057,30.50825],[79.61049,30.50834],[79.61043,30.50843],[79.61042,30.50854],[79.6105,30.50865],[79.61058,30.50876],[79.61065,30.50886],[79.61072,30.50899],[79.61073,30.50914],[79.61072,30.5093],[79.61065,30.50939],[79.6105,30.50945],[79.61021,30.50937],[79.61004,30.50928],[79.60984,30.50914],[79.60964,30.50905],[79.60938,30.50895],[79.6092,30.50895],[79.60898,30.50889],[79.60887,30.50878],[79.60862,30.5087],[79.60841,30.50867],[79.60823,30.50854],[79.60806,30.50853],[79.6078,30.50853],[79.60752,30.50846],[79.6073,30.50845],[79.60713,30.50852],[79.60707,30.50861],[79.60705,30.50888],[79.60703,30.50918],[79.60705,30.50936],[79.60709,30.50963],[79.60708,30.50998],[79.60703,30.5103],[79.60705,30.51047],[79.6072,30.51066],[79.60732,30.5108],[79.60735,30.5109],[79.60729,30.51099],[79.60715,30.51117],[79.60679,30.51154],[79.6065,30.51193],[79.60616,30.51218],[79.60577,30.51246],[79.60544,30.51258],[79.60523,30.51279],[79.60515,30.51293],[79.60513,30.5131],[79.60514,30.51325],[79.60509,30.51343],[79.6051,30.51357],[79.60515,30.51416],[79.60521,30.51464],[79.60524,30.5152],[79.60519,30.51556],[79.60508,30.5158],[79.6049,30.51593],[79.60465,30.51596],[79.60443,30.516],[79.6042,30.5161],[79.60413,30.51619],[79.60396,30.51625],[79.60382,30.51618],[79.60359,30.51616],[79.60301,30.51616],[79.60279,30.51617],[79.6026,30.5162],[79.6025,30.51623],[79.60246,30.51631],[79.60246,30.51645],[79.60251,30.51669],[79.60251,30.51687],[79.6025,30.51724],[79.60248,30.51749],[79.60235,30.51767],[79.60223,30.51783],[79.6022,30.51799],[79.60222,30.51808],[79.60232,30.51825],[79.60238,30.5184],[79.60232,30.51867],[79.60215,30.51892],[79.60199,30.51912],[79.60169,30.51932],[79.60144,30.51951],[79.60096,30.5199],[79.60066,30.52021],[79.60036,30.5206],[79.6,30.52098],[79.5998,30.52126],[79.59955,30.52191],[79.59927,30.52234],[79.59845,30.52274],[79.598,30.52342],[79.59791,30.52451],[79.59771,30.52528],[79.59766,30.52703],[79.59797,30.52777],[79.59808,30.52847],[79.59728,30.52969],[79.59682,30.53014],[79.59658,30.53025],[79.59628,30.53061],[79.59609,30.53065],[79.59592,30.53057],[79.59555,30.53068],[79.59524,30.53061],[79.59463,30.53057],[79.59427,30.53128],[79.59382,30.53162],[79.59305,30.53205],[79.5929,30.53205],[79.59245,30.53238],[79.59215,30.53232],[79.59176,30.53237],[79.59118,30.53258],[79.59085,30.53252],[79.5907,30.53197],[79.59054,30.53187],[79.59,30.53209],[79.58941,30.53171],[79.58921,30.53169],[79.5892,30.53187],[79.58949,30.53306],[79.5894,30.53358],[79.58954,30.53447],[79.58969,30.53471],[79.58973,30.53485],[79.58956,30.53501],[79.58942,30.53503],[79.58912,30.53498],[79.589,30.53482],[79.58886,30.53472],[79.58873,30.53466],[79.58855,30.53475],[79.58843,30.53486],[79.58833,30.53497],[79.58834,30.53508],[79.58853,30.53529],[79.58861,30.53543],[79.58859,30.53556],[79.58841,30.53582],[79.5883,30.53597],[79.58781,30.53629],[79.58724,30.53643],[79.58675,30.53657],[79.5865,30.53681],[79.5862,30.53695],[79.58575,30.53787],[79.58494,30.53864],[79.58426,30.53937],[79.58351,30.5405],[79.58298,30.54114],[79.58239,30.54187],[79.58231,30.54214],[79.58221,30.54258],[79.58106,30.54348],[79.58032,30.54373],[79.5794,30.54373],[79.57899,30.54378]]},"properties":{"id":"osm:w227466389","name":"Joshimath-Malari Road","highway":"tertiary","bridge":false}},{"type":"Feature","geometry":{"type":"LineString","coordinates":[[79.76525,30.56464],[79.76536,30.56475],[79.7658,30.56471],[79.76602,30.56482],[79.76602,30.56533],[79.76605,30.56563],[79.76603,30.56614],[79.76618,30.5666],[79.76641,30.56736],[79.76717,30.56833],[79.76727,30.56943],[79.76786,30.57045],[79.76942,30.57225],[79.77047,30.57331],[79.77107,30.57418],[79.77195,30.57479],[79.77249,30.5756],[79.77262,30.57582],[79.77263,30.57602],[79.77254,30.57612],[79.77241,30.57602],[79.77232,30.5758],[79.77221,30.57551],[79.77198,30.57512],[79.77186,30.57499],[79.77179,30.57525],[79.77205,30.57588],[79.77211,30.57641],[79.7721,30.57676],[79.7723,30.57679],[79.77272,30.57644],[79.773,30.57643],[79.77347,30.57663],[79.77372,30.57673],[79.77399,30.57687],[79.77423,30.57731],[79.77425,30.57741],[79.77424,30.57751],[79.77417,30.57754],[79.77408,30.57747],[79.77394,30.57723],[79.77377,30.57697],[79.77345,30.57688],[79.77299,30.5768],[79.77283,30.5769],[79.77288,30.57699],[79.7733,30.57705],[79.77353,30.57715],[79.77393,30.57769],[79.774,30.5782],[79.77417,30.57825],[79.77434,30.57834],[79.77465,30.57855],[79.77483,30.57866],[79.77484,30.57879],[79.77474,30.57884],[79.77456,30.57875],[79.77426,30.57856],[79.77386,30.57842],[79.77372,30.57837],[79.7736,30.57846],[79.77363,30.57856],[79.77417,30.57881],[79.77458,30.57911],[79.77513,30.57959],[79.77528,30.57996],[79.7755,30.58007],[79.77564,30.58025],[79.77581,30.58056],[79.77581,30.581],[79.7756,30.58119],[79.77542,30.58147],[79.77546,30.58175],[79.77549,30.58198],[79.77572,30.58286],[79.77557,30.58332],[79.7756,30.58363],[79.7757,30.58383],[79.77588,30.58392],[79.77598,30.5841],[79.77614,30.58439],[79.77626,30.58467],[79.77642,30.585],[79.77652,30.58531],[79.77658,30.58609],[79.77672,30.58642],[79.77705,30.58683],[79.7774,30.58718],[79.77778,30.58732],[79.77819,30.58758],[79.77824,30.58794],[79.77844,30.58811],[79.779,30.58829],[79.77966,30.58863],[79.78012,30.58916],[79.78042,30.58953],[79.78067,30.58999],[79.78097,30.59034],[79.78105,30.59029],[79.78097,30.5901],[79.78085,30.58987],[79.78072,30.58965],[79.78067,30.58952],[79.78066,30.58944],[79.7808,30.58931],[79.78092,30.58945],[79.78113,30.58985],[79.78132,30.5901],[79.78151,30.59067],[79.78151,30.59109],[79.78201,30.59197],[79.78235,30.59246],[79.78265,30.59289],[79.7828,30.59302],[79.7833,30.59309],[79.78375,30.59332],[79.78412,30.59367],[79.7843,30.59392],[79.78456,30.59421],[79.78488,30.59432],[79.78499,30.59462],[79.78504,30.5952],[79.78485,30.59556],[79.78465,30.59574],[79.78472,30.59587]]},"properties":{"id":"osm:w227470904","name":"NH107B","highway":"tertiary","bridge":false}},{"type":"Feature","geometry":{"type":"LineString","coordinates":[[79.76481,30.56409],[79.76525,30.56464]]},"properties":{"id":"osm:w227470905","name":"NH107B","highway":"tertiary","bridge":true}},{"type":"Feature","geometry":{"type":"LineString","coordinates":[[79.74115,30.52981],[79.74103,30.52971],[79.74084,30.52963],[79.74062,30.52948],[79.74039,30.52922],[79.74005,30.52899],[79.73997,30.52872],[79.73999,30.52847],[79.73989,30.52816],[79.7397,30.52773],[79.73885,30.52617],[79.73828,30.52523],[79.73825,30.52518],[79.73812,30.52473],[79.7381,30.52429],[79.73761,30.52334],[79.73748,30.52307],[79.73745,30.52265],[79.73759,30.52216],[79.73761,30.52175],[79.73735,30.52127],[79.73712,30.52078],[79.73716,30.52039],[79.73729,30.52015],[79.73741,30.51999],[79.73736,30.51985],[79.73699,30.51958],[79.73689,30.51944],[79.73685,30.51924],[79.73695,30.51904],[79.73709,30.51867],[79.73728,30.51847],[79.73733,30.51828],[79.73724,30.51756],[79.73701,30.51695],[79.73695,30.51668],[79.73685,30.51622],[79.73665,30.5157],[79.73661,30.5154],[79.73662,30.51503],[79.7366,30.51466],[79.73652,30.51405],[79.73634,30.51348],[79.73602,30.51291],[79.73595,30.51276],[79.73593,30.51254],[79.73599,30.51222],[79.73588,30.51186],[79.73505,30.51093],[79.73437,30.51049],[79.73416,30.51037],[79.73397,30.51016],[79.73396,30.50995],[79.7339,30.50957],[79.73387,30.50923],[79.73377,30.50882],[79.73367,30.5085],[79.73341,30.50807],[79.73316,30.5077],[79.73291,30.5075],[79.73275,30.50733],[79.73283,30.50718],[79.73291,30.50697],[79.7329,30.50676],[79.73265,30.50654],[79.7319,30.50586],[79.73121,30.50536],[79.73077,30.50499],[79.73058,30.5047],[79.73046,30.50435],[79.73038,30.50402],[79.73019,30.50378],[79.72981,30.50343],[79.72948,30.50319],[79.72894,30.50306],[79.72836,30.50293],[79.72804,30.50284],[79.72766,30.5026],[79.72746,30.50241],[79.72723,30.50222],[79.72683,30.50204],[79.72654,30.50194],[79.72631,30.50182],[79.72602,30.50164],[79.72547,30.50148],[79.72512,30.50134],[79.72485,30.50131],[79.72459,30.50137],[79.72431,30.50144],[79.72414,30.50148],[79.72392,30.50141],[79.72352,30.50131],[79.72328,30.5013],[79.72308,30.50129],[79.72279,30.50112],[79.72129,30.50052],[79.71996,30.49987],[79.71899,30.49951],[79.7186,30.49935],[79.71844,30.4992],[79.71834,30.49897],[79.71797,30.49851],[79.71713,30.49801],[79.71684,30.49787],[79.71652,30.49749],[79.71628,30.49728],[79.71602,30.49723],[79.71586,30.49731],[79.71566,30.49746],[79.71544,30.49766],[79.7146,30.49801],[79.71423,30.49811],[79.71362,30.4981],[79.7133,30.49815],[79.7128,30.49819],[79.71245,30.49826],[79.71222,30.49831],[79.71204,30.49832],[79.7117,30.49832],[79.71149,30.49828],[79.7113,30.49819],[79.71117,30.49813],[79.71014,30.4976],[79.70944,30.49713],[79.70885,30.49678],[79.70803,30.49642],[79.70773,30.49625],[79.70712,30.49607],[79.7065,30.49572],[79.70603,30.49548],[79.70533,30.49546],[79.70489,30.49552],[79.70474,30.4955],[79.70455,30.49544],[79.70425,30.49517],[79.70405,30.49508],[79.70387,30.49504],[79.70364,30.49489],[79.70325,30.49468],[79.70294,30.49453],[79.70274,30.49453],[79.70236,30.49453],[79.7021,30.49456],[79.70194,30.49465],[79.7017,30.49473],[79.70158,30.49467],[79.70126,30.49418],[79.70103,30.49399],[79.7005,30.49373],[79.70018,30.49362],[79.69999,30.49351],[79.6998,30.49329],[79.69955,30.49312],[79.69913,30.49296],[79.69818,30.49212],[79.6979,30.49184],[79.6975,30.49171],[79.69684,30.49154],[79.6964,30.4913],[79.69598,30.49105],[79.69533,30.49079],[79.69511,30.49063],[79.6951,30.4903],[79.69498,30.49001],[79.69476,30.48969],[79.6947,30.48944],[79.69454,30.48907],[79.69442,30.4889],[79.69427,30.48875],[79.69414,30.48869],[79.69362,30.48853],[79.69338,30.48849],[79.69332,30.48845],[79.69328,30.48833],[79.69333,30.48817],[79.69366,30.48795],[79.69394,30.48774],[79.6945,30.48728],[79.69485,30.48701],[79.69506,30.48664],[79.69515,30.48632],[79.69562,30.48568],[79.69596,30.48535],[79.69612,30.4851],[79.69614,30.48482],[79.69629,30.48465],[79.69654,30.48455],[79.6967,30.48438],[79.69686,30.48419],[79.69701,30.48406],[79.69697,30.48396],[79.69688,30.48396],[79.69676,30.48404],[79.69659,30.48418],[79.6965,30.48438],[79.69641,30.48445],[79.69607,30.48459],[79.69579,30.48484],[79.69564,30.48513],[79.69537,30.48541],[79.69516,30.48561],[79.69504,30.48586],[79.69481,30.48603],[79.69469,30.48617],[79.69448,30.48634],[79.69429,30.48658],[79.69408,30.48681],[79.69387,30.48696],[79.69367,30.48707],[79.69352,30.48712],[79.6935,30.48709],[79.69351,30.48703],[79.69358,30.48696],[79.69391,30.48667],[79.69409,30.48649],[79.69428,30.48623],[79.69437,30.48612],[79.69451,30.48596],[79.69459,30.48576]]},"properties":{"id":"osm:w227470906","name":"NH107B","highway":"tertiary","bridge":false}},{"type":"Feature","geometry":{"type":"LineString","coordinates":[[79.74395,30.53161],[79.74394,30.53149],[79.74362,30.53127],[79.74335,30.53115],[79.7429,30.5311],[79.74251,30.53109],[79.74201,30.53106],[79.74177,30.53097],[79.7416,30.53084],[79.74154,30.53079],[79.74152,30.53077],[79.74145,30.53068],[79.74143,30.53056],[79.74137,30.53033]]},"properties":{"id":"osm:w227470907","name":"NH107B","highway":"tertiary","bridge":false}},{"type":"Feature","geometry":{"type":"LineString","coordinates":[[79.74383,30.53252],[79.74379,30.53274],[79.74381,30.53295],[79.74383,30.5332],[79.74388,30.5335],[79.74386,30.53363],[79.74366,30.53387],[79.74361,30.53399],[79.74376,30.53474],[79.74376,30.53503],[79.74361,30.53544],[79.74375,30.53587],[79.74379,30.53612],[79.74395,30.53666],[79.74417,30.53748],[79.74437,30.53799],[79.74448,30.53846],[79.74479,30.53922],[79.74517,30.53957],[79.74568,30.53998],[79.74581,30.54051],[79.7459,30.54104],[79.74591,30.54186],[79.74595,30.54226],[79.74615,30.54252],[79.74639,30.54268],[79.74663,30.543],[79.74686,30.54346],[79.74702,30.54391],[79.74716,30.54452],[79.74719,30.54481],[79.7475,30.54505],[79.7476,30.54534],[79.74763,30.54567],[79.74776,30.54603],[79.74788,30.54633],[79.74828,30.5465],[79.74873,30.54675],[79.74893,30.54716],[79.74919,30.54744],[79.74984,30.54764],[79.75037,30.54793],[79.75095,30.54806],[79.75148,30.54812],[79.75181,30.54865],[79.75183,30.54978],[79.7518,30.55021],[79.75199,30.55059],[79.7522,30.5509],[79.75241,30.55113],[79.75259,30.55132],[79.75308,30.55202],[79.75337,30.5525],[79.75373,30.55285],[79.75407,30.55305],[79.75438,30.55318],[79.75464,30.55349],[79.7551,30.55355],[79.75601,30.55387],[79.75622,30.55413],[79.75653,30.55464],[79.75689,30.55476],[79.75729,30.55498],[79.75773,30.5552],[79.75825,30.55528],[79.75877,30.55544],[79.75887,30.55563],[79.75873,30.55604],[79.75872,30.55639],[79.75863,30.55676],[79.75868,30.55709],[79.75888,30.55738],[79.75928,30.5578],[79.75963,30.55803],[79.76004,30.55837],[79.76026,30.55882],[79.76053,30.55931],[79.7607,30.55978],[79.76109,30.56019],[79.76197,30.56052],[79.76261,30.56091],[79.76273,30.56128],[79.76286,30.56147],[79.76308,30.56168],[79.76328,30.56191],[79.76366,30.56216],[79.76404,30.56231],[79.76446,30.56265],[79.76477,30.56309],[79.76494,30.56348],[79.76502,30.56371],[79.76488,30.56398],[79.76481,30.56409]]},"properties":{"id":"osm:w227470908","name":"NH107B","highway":"tertiary","bridge":false}},{"type":"Feature","geometry":{"type":"LineString","coordinates":[[79.50818,30.52676],[79.5082,30.527],[79.50846,30.52724],[79.50897,30.52754],[79.50908,30.52792],[79.50978,30.5284],[79.51013,30.52941],[79.51039,30.52983],[79.51114,30.53053],[79.51189,30.53089],[79.51275,30.53094],[79.51327,30.53105],[79.514,30.53107],[79.51427,30.53116],[79.51441,30.53134],[79.51471,30.53142],[79.51497,30.53149],[79.51547,30.53193],[79.51567,30.53203],[79.516,30.53203],[79.51621,30.53208],[79.51637,30.53227],[79.51667,30.5323],[79.517,30.53222],[79.51724,30.53229],[79.51774,30.53254],[79.51794,30.53259],[79.51863,30.53249],[79.5189,30.53256],[79.51927,30.53285],[79.5196,30.53307],[79.51992,30.53349],[79.52011,30.53386],[79.52048,30.53409],[79.52092,30.5341],[79.52088,30.53381],[79.52041,30.5337],[79.5203,30.53335],[79.52011,30.53287],[79.51985,30.53251],[79.51949,30.5322],[79.51897,30.53207],[79.51842,30.53196],[79.51793,30.53189],[79.51776,30.53191],[79.51757,30.53193],[79.51745,30.53182],[79.5174,30.53171],[79.51739,30.5316],[79.51736,30.53149],[79.51728,30.53137],[79.51707,30.53131],[79.51678,30.53136],[79.51648,30.53143],[79.51616,30.53147],[79.516,30.5314],[79.51592,30.53132],[79.51574,30.53125],[79.51558,30.53123],[79.51532,30.53122],[79.51526,30.5312],[79.51521,30.53113],[79.51519,30.531],[79.5151,30.53086],[79.5149,30.53057],[79.51467,30.53041],[79.5146,30.53027],[79.51452,30.53002],[79.51451,30.52989],[79.5145,30.5297],[79.51437,30.52946],[79.51424,30.52937],[79.51404,30.52927],[79.51386,30.52921],[79.51362,30.52921],[79.51328,30.52917],[79.51304,30.52914],[79.51277,30.52913],[79.51269,30.52909],[79.51266,30.52902],[79.51269,30.52897],[79.51275,30.52893],[79.51284,30.52895],[79.51297,30.52898],[79.51307,30.52902],[79.51323,30.52905],[79.51337,30.52906],[79.51356,30.52904],[79.51375,30.52902],[79.51403,30.52903],[79.51436,30.52911],[79.51452,30.52918],[79.51469,30.52928],[79.51481,30.52945],[79.51484,30.52959],[79.51477,30.52979],[79.51477,30.52993],[79.51479,30.53004],[79.51484,30.53013],[79.51494,30.53025],[79.51506,30.5304],[79.51509,30.53048],[79.5151,30.53058],[79.51513,30.53067],[79.51518,30.53074],[79.51529,30.53077],[79.51544,30.53078],[79.5156,30.53079],[79.51588,30.53076],[79.51646,30.5306],[79.51714,30.53035],[79.51728,30.5303],[79.51735,30.53027],[79.51743,30.53031],[79.5175,30.53036],[79.51751,30.53043],[79.51751,30.53054],[79.51754,30.53065],[79.51759,30.53074],[79.51767,30.53082],[79.51784,30.53088],[79.51813,30.53095],[79.51856,30.53095],[79.519,30.53102],[79.51922,30.53105],[79.51938,30.53107],[79.51949,30.53109],[79.51968,30.53105],[79.52002,30.53092],[79.52021,30.53085],[79.52052,30.53083],[79.52072,30.53089],[79.52087,30.53092],[79.52098,30.53092],[79.52117,30.53095],[79.52124,30.53094],[79.52144,30.53092],[79.5216,30.5309],[79.5219,30.53091],[79.52213,30.53099],[79.52227,30.53106],[79.52241,30.53112],[79.52253,30.53114],[79.52269,30.53113],[79.52324,30.53105],[79.52341,30.53104],[79.52355,30.531],[79.52365,30.53094],[79.52373,30.53089],[79.52382,30.53081],[79.52391,30.5308],[79.52404,30.53083],[79.52413,30.53086],[79.52421,30.53089],[79.52428,30.53089],[79.52433,30.53083],[79.52435,30.53077],[79.52427,30.53071],[79.52414,30.53065],[79.52394,30.53065],[79.52364,30.53074],[79.52346,30.53086],[79.52336,30.53086],[79.52319,30.53081],[79.52299,30.53072],[79.52266,30.53069],[79.52233,30.53058],[79.52208,30.53045],[79.52189,30.53038],[79.52167,30.53042],[79.52112,30.5305],[79.52093,30.53053],[79.52079,30.53051],[79.52066,30.53043],[79.52057,30.53038],[79.52027,30.53037],[79.52008,30.53034],[79.51973,30.53033],[79.51944,30.5304],[79.5193,30.53042],[79.51905,30.53042],[79.5188,30.53035],[79.51866,30.53031],[79.51857,30.53019],[79.51857,30.53007],[79.51857,30.52986],[79.51862,30.52965],[79.51853,30.52946],[79.51828,30.52918],[79.51816,30.52902],[79.51799,30.52894],[79.51786,30.52887],[79.51761,30.52891],[79.51718,30.52904],[79.5169,30.52913],[79.51657,30.52925],[79.51635,30.52927],[79.5158,30.52925],[79.51558,30.52927],[79.51532,30.52929],[79.51522,30.52928],[79.5152,30.52921],[79.51519,30.52915],[79.51523,30.52909],[79.51529,30.52906],[79.51538,30.52907],[79.51545,30.5291],[79.51557,30.52913],[79.5157,30.52912],[79.51635,30.52901],[79.51649,30.52896],[79.51658,30.52891],[79.51678,30.52875],[79.5169,30.52867],[79.51751,30.52845],[79.51766,30.52841],[79.51779,30.5284],[79.51792,30.5284],[79.51802,30.52835],[79.51813,30.5283],[79.51828,30.52833],[79.51841,30.52834],[79.51864,30.52852],[79.51877,30.52865],[79.51884,30.52876],[79.51893,30.52885],[79.51903,30.52889],[79.51915,30.52892],[79.51925,30.52893],[79.51938,30.52894],[79.51944,30.52892],[79.51959,30.52894],[79.51968,30.52896],[79.51973,30.52903],[79.51973,30.5291],[79.51969,30.52924],[79.51967,30.52932],[79.51969,30.52939],[79.51974,30.52945],[79.51984,30.52946],[79.51996,30.52947],[79.5201,30.52946],[79.52021,30.5295],[79.52028,30.52956],[79.52039,30.5296],[79.52062,30.52957],[79.52085,30.52958],[79.52098,30.52959],[79.52108,30.52957],[79.52115,30.52952],[79.52136,30.52942],[79.52193,30.52924],[79.52217,30.52917],[79.52282,30.52909],[79.52297,30.52905],[79.52305,30.52901],[79.52312,30.52893],[79.52327,30.52859],[79.5234,30.52849],[79.5235,30.52844],[79.52363,30.5284],[79.52394,30.52832],[79.52417,30.52829],[79.52428,30.52829],[79.52467,30.5284],[79.52479,30.52843],[79.52504,30.52843],[79.52514,30.52844],[79.52525,30.52849],[79.5258,30.52882],[79.52594,30.52888],[79.52599,30.52889],[79.52611,30.52888],[79.52634,30.5288],[79.52663,30.52867],[79.52676,30.52862],[79.52688,30.52863],[79.52705,30.52871],[79.52718,30.52874],[79.52727,30.52875],[79.52734,30.52869],[79.52745,30.5286],[79.52755,30.52857],[79.52774,30.52854],[79.52815,30.52837],[79.52831,30.52831],[79.52844,30.52831]]},"properties":{"id":"osm:w238241202","name":"NH7","highway":"trunk","bridge":false}},{"type":"Feature","geometry":{"type":"LineString","coordinates":[[79.56508,30.53951],[79.56497,30.53942],[79.5649,30.53936],[79.56486,30.53934],[79.56482,30.53933],[79.56478,30.53933],[79.56474,30.53934],[79.56467,30.5394],[79.56445,30.53962],[79.56433,30.53965],[79.56394,30.53969],[79.56369,30.5397],[79.5632,30.53973],[79.56306,30.53975],[79.56294,30.53978],[79.56281,30.53983],[79.56264,30.53996],[79.56247,30.54005],[79.56237,30.54008],[79.56231,30.54016],[79.56225,30.54027],[79.56199,30.5405],[79.56181,30.54064],[79.56172,30.5407],[79.56165,30.54074],[79.5615,30.54076],[79.5612,30.54084],[79.56107,30.54083],[79.56097,30.54079],[79.56086,30.54079],[79.56076,30.5408],[79.56066,30.54081],[79.56047,30.54077],[79.56024,30.54077],[79.55966,30.54084],[79.55945,30.54088],[79.55905,30.54093],[79.55865,30.54108],[79.55825,30.54122],[79.55792,30.54132],[79.5576,30.54151],[79.55726,30.54181],[79.5571,30.5419],[79.55685,30.542],[79.55654,30.54224],[79.55646,30.54226],[79.55634,30.54226],[79.55605,30.54225],[79.5556,30.54234],[79.55538,30.54243],[79.55508,30.54254],[79.55477,30.54271],[79.55461,30.54272],[79.55437,30.54282],[79.55426,30.54282],[79.55406,30.54269],[79.55396,30.54264],[79.55377,30.54258],[79.55361,30.54257],[79.55343,30.54257],[79.55338,30.54256],[79.55323,30.54245],[79.55317,30.54244],[79.55313,30.54244],[79.5531,30.54246],[79.55309,30.54249],[79.55309,30.54252],[79.55311,30.54255],[79.55313,30.54259],[79.55316,30.54263],[79.55345,30.54285],[79.55358,30.54306],[79.55376,30.54324],[79.55399,30.54334],[79.55426,30.54341],[79.5546,30.54344],[79.55508,30.54336],[79.5555,30.54338],[79.55609,30.54353],[79.55648,30.54355],[79.55694,30.54357],[79.55721,30.54354],[79.55774,30.54345],[79.55806,30.54333],[79.55826,30.54324],[79.55853,30.54312],[79.55871,30.54307],[79.55885,30.54311],[79.55918,30.54311],[79.55957,30.54304],[79.56011,30.54298],[79.56034,30.54287],[79.56083,30.54273],[79.56109,30.54269],[79.56136,30.54257],[79.56163,30.54246],[79.56183,30.54246],[79.56209,30.54247],[79.56239,30.54241],[79.56267,30.54241],[79.56294,30.54252],[79.56305,30.54255],[79.56313,30.54257]]},"properties":{"id":"osm:w257411270","name":"Joshimath - Auli road","highway":"primary","bridge":false}},{"type":"Feature","geometry":{"type":"LineString","coordinates":[[79.56628,30.55416],[79.56638,30.55423],[79.56646,30.55433],[79.56657,30.55439],[79.56667,30.55443],[79.56693,30.55442],[79.56706,30.55443],[79.56715,30.55451],[79.56721,30.55461],[79.56738,30.55508],[79.56744,30.55519],[79.56753,30.55526],[79.5677,30.55528],[79.56789,30.55525],[79.56821,30.55521],[79.56862,30.55527],[79.56892,30.55537],[79.56925,30.55548],[79.56945,30.55557],[79.56973,30.55558],[79.5699,30.55562],[79.57011,30.5557],[79.57051,30.55566],[79.57092,30.5556],[79.5713,30.55541],[79.57145,30.55527],[79.5715,30.55515],[79.57156,30.55496],[79.57163,30.55482],[79.57176,30.55469],[79.57192,30.55461],[79.57233,30.55448],[79.57274,30.55443],[79.57314,30.55442],[79.57326,30.55437],[79.57346,30.55425],[79.57377,30.5541],[79.5739,30.55409],[79.57405,30.55409],[79.5742,30.55416],[79.5743,30.55429],[79.57445,30.55441],[79.57467,30.55446],[79.57484,30.55448],[79.57501,30.55446],[79.57528,30.55446],[79.57545,30.55442],[79.57557,30.55434],[79.57573,30.55417],[79.57581,30.55407],[79.576,30.55377],[79.5761,30.55358],[79.57621,30.55349],[79.57632,30.55343],[79.57649,30.55337],[79.57664,30.55327],[79.57678,30.55314],[79.57697,30.55298],[79.57703,30.5529],[79.57707,30.55279],[79.57714,30.55261],[79.57725,30.55248],[79.57742,30.55239],[79.57759,30.55237],[79.57772,30.55236],[79.57788,30.55227],[79.57826,30.55213],[79.57842,30.55207],[79.57861,30.55202],[79.57882,30.55191],[79.57933,30.55158],[79.57969,30.55136],[79.57982,30.55127],[79.58009,30.55116],[79.58022,30.55104],[79.58052,30.55078],[79.58065,30.55069],[79.58073,30.55058],[79.58077,30.55049],[79.58089,30.5504],[79.58099,30.55046],[79.58101,30.55052],[79.58099,30.55059],[79.58095,30.55065],[79.58086,30.5507],[79.58077,30.55076],[79.58066,30.55081],[79.58028,30.55115],[79.58011,30.55136],[79.57987,30.55151],[79.57919,30.55203],[79.5788,30.55237],[79.57869,30.55246],[79.57841,30.5527],[79.57825,30.55284],[79.57809,30.5529],[79.57801,30.553],[79.5778,30.5533],[79.57765,30.55361],[79.57755,30.55379],[79.57703,30.5544],[79.57645,30.55508],[79.57613,30.55555],[79.57587,30.55585],[79.5758,30.55598],[79.57575,30.55609],[79.57568,30.55617],[79.57558,30.55624],[79.57533,30.55648],[79.57523,30.55659],[79.5751,30.55663],[79.57495,30.55666],[79.57467,30.55677],[79.57436,30.55694],[79.57398,30.55714],[79.57361,30.55737],[79.57345,30.5575],[79.57333,30.55764],[79.57306,30.55776],[79.57266,30.55796],[79.57258,30.55804],[79.57252,30.55813],[79.57248,30.55822],[79.5724,30.55829],[79.57227,30.55833],[79.57217,30.55835],[79.57202,30.55834],[79.57188,30.55834],[79.57174,30.55837],[79.57167,30.55838],[79.57154,30.55833],[79.5712,30.55823],[79.5711,30.5582],[79.571,30.55819],[79.57079,30.55817],[79.57068,30.55817],[79.5705,30.55822],[79.5704,30.55821],[79.57017,30.5582],[79.57004,30.55818],[79.56986,30.55815],[79.56959,30.55809],[79.56939,30.55806],[79.56915,30.55806],[79.56899,30.55806],[79.56889,30.55806],[79.56872,30.55811],[79.56844,30.55817],[79.56832,30.55819],[79.56821,30.55821],[79.56811,30.5582],[79.56799,30.55814],[79.56775,30.55802],[79.56765,30.55797],[79.56753,30.55794],[79.56742,30.55795],[79.56735,30.55797],[79.56727,30.55801],[79.567,30.55811],[79.56679,30.55822],[79.56652,30.55839],[79.56643,30.55845],[79.56631,30.55852],[79.56618,30.55856],[79.56601,30.55858],[79.56593,30.5586],[79.5658,30.55858],[79.56572,30.55858],[79.56566,30.55858],[79.56558,30.5586],[79.56551,30.55864],[79.56544,30.55869],[79.56532,30.55869],[79.56525,30.55869],[79.56494,30.55874],[79.56477,30.55875],[79.56464,30.55879],[79.56429,30.5589],[79.56345,30.55921],[79.56293,30.55945],[79.56264,30.55964],[79.56236,30.55978],[79.56222,30.55982],[79.56208,30.55987],[79.56192,30.55993],[79.56184,30.55998],[79.56175,30.56006],[79.56155,30.5602],[79.56137,30.56031],[79.56113,30.5604],[79.56088,30.56047],[79.56066,30.56054],[79.56048,30.5606],[79.56037,30.56061],[79.56024,30.56062],[79.56012,30.56062],[79.55996,30.56065],[79.55983,30.56071],[79.55971,30.56078],[79.55943,30.56093],[79.5591,30.56108],[79.55891,30.56115],[79.55875,30.56123],[79.55856,30.56138],[79.55838,30.56151],[79.55827,30.56156],[79.55817,30.56159],[79.55807,30.5616],[79.55779,30.56166],[79.55768,30.5617],[79.55735,30.5618],[79.55708,30.56191],[79.55688,30.56196],[79.55666,30.562],[79.55651,30.562],[79.5564,30.56198],[79.5563,30.56192],[79.55619,30.56187],[79.55611,30.56187],[79.55598,30.56188],[79.55581,30.56194],[79.55568,30.56202],[79.55539,30.56224],[79.55522,30.5624],[79.55508,30.56253],[79.55502,30.56257],[79.55494,30.56258],[79.55486,30.56254],[79.55477,30.56248],[79.55472,30.56238],[79.55467,30.56226],[79.55461,30.56219],[79.55454,30.56217],[79.55432,30.56216],[79.55419,30.56219],[79.55405,30.56223],[79.5539,30.56227],[79.55378,30.56227],[79.55369,30.56223],[79.55349,30.56216],[79.55335,30.56214],[79.55316,30.56215],[79.55299,30.56216],[79.55286,30.56216],[79.55224,30.5623],[79.55182,30.56247],[79.55168,30.56254],[79.55104,30.563],[79.55074,30.56325],[79.55055,30.56347],[79.55044,30.56366],[79.55029,30.56381],[79.55008,30.56397],[79.54994,30.56412],[79.54987,30.56426],[79.54971,30.56441],[79.54964,30.56446],[79.54953,30.56447],[79.54943,30.56446],[79.54936,30.5644],[79.54929,30.56436],[79.54923,30.5643],[79.54913,30.56429],[79.54908,30.56435],[79.54908,30.56442],[79.54915,30.56447],[79.54926,30.56449],[79.54943,30.56455],[79.54957,30.56458],[79.54968,30.56459],[79.54978,30.56458],[79.54993,30.56448],[79.55004,30.56441],[79.55022,30.56439],[79.55037,30.56437],[79.55061,30.56427],[79.55083,30.56421],[79.55097,30.56413],[79.55112,30.56399],[79.55127,30.56392],[79.55153,30.56391],[79.55173,30.56387],[79.55192,30.56372],[79.55206,30.56361],[79.55217,30.56359],[79.55238,30.56358],[79.55277,30.56353],[79.55319,30.56355],[79.55341,30.5636],[79.55371,30.56359],[79.55403,30.56359],[79.55428,30.56355],[79.55459,30.56354],[79.55486,30.56349],[79.55529,30.56344],[79.55546,30.56345],[79.55568,30.56351],[79.55584,30.56361],[79.55596,30.56365],[79.55609,30.56363],[79.55633,30.56355],[79.5565,30.56352],[79.55667,30.56355],[79.55679,30.56358],[79.55701,30.56359],[79.5574,30.56361],[79.55765,30.5636],[79.55793,30.56354],[79.55807,30.56358],[79.55811,30.56364],[79.55811,30.56369],[79.55806,30.56374],[79.55799,30.56377],[79.55789,30.56377],[79.55763,30.56377],[79.55736,30.56378],[79.55712,30.56381],[79.55694,30.56387],[79.55681,30.56392],[79.55669,30.56397],[79.55654,30.56402],[79.5564,30.56403],[79.55626,30.56401],[79.55612,30.56402],[79.55595,30.56406],[79.55576,30.56411],[79.5556,30.56414],[79.55544,30.56412],[79.55528,30.5641],[79.55511,30.56409],[79.55492,30.5641],[79.55468,30.56418],[79.55454,30.56428],[79.5544,30.5643],[79.55425,30.56432],[79.55409,30.56432],[79.55391,30.56434],[79.55374,30.56437],[79.55363,30.56443],[79.55348,30.56457],[79.5533,30.56466],[79.55304,30.56482],[79.55289,30.56486],[79.55273,30.5649],[79.55262,30.56489],[79.55242,30.5649],[79.55228,30.56492],[79.55209,30.565],[79.55199,30.56508],[79.5519,30.56519],[79.55184,30.56529],[79.55175,30.56538],[79.55165,30.56546],[79.55157,30.56548],[79.55147,30.56548],[79.55138,30.56549],[79.55128,30.56551],[79.55119,30.56555],[79.55109,30.56563],[79.55092,30.56574],[79.55078,30.56581],[79.55042,30.56594],[79.55016,30.56606],[79.55,30.56615],[79.54993,30.56621],[79.54994,30.56628],[79.55,30.56633],[79.55007,30.56632],[79.55016,30.56624],[79.55025,30.56615],[79.55039,30.56607],[79.5506,30.56597],[79.55089,30.56595],[79.55108,30.56589],[79.55147,30.56575],[79.55173,30.56564],[79.55197,30.56564],[79.55223,30.56555],[79.55255,30.56545],[79.55284,30.56535],[79.55306,30.56535],[79.55326,30.56538],[79.55344,30.56533],[79.55364,30.56526],[79.55389,30.56519],[79.55412,30.56511],[79.55422,30.56513],[79.55425,30.56521],[79.55421,30.56526],[79.55414,30.56528],[79.55402,30.56529],[79.55374,30.5654],[79.55358,30.56545],[79.55336,30.56557],[79.55321,30.56561],[79.55298,30.56565],[79.55277,30.5657],[79.5526,30.56581],[79.55242,30.56595],[79.5523,30.56603],[79.55208,30.5661],[79.55183,30.56617],[79.5516,30.5662],[79.55138,30.56626],[79.55113,30.5663],[79.55096,30.56635],[79.55077,30.56644],[79.5507,30.5665],[79.55066,30.56658],[79.5507,30.56665],[79.5508,30.56665],[79.55089,30.5666],[79.55099,30.56651],[79.55109,30.56644],[79.55123,30.56641],[79.55174,30.5663],[79.55201,30.56632],[79.55227,30.56627],[79.55244,30.56619],[79.55261,30.56606],[79.55279,30.56596],[79.55293,30.56594],[79.55301,30.56594],[79.55308,30.56598],[79.55307,30.5661]]},"properties":{"id":"osm:w311214299","name":"NH7","highway":"trunk","bridge":false}},{"type":"Feature","geometry":{"type":"LineString","coordinates":[[79.785,30.5961],[79.78482,30.59596]]},"properties":{"id":"osm:w436118318","name":"NH107B","highway":"tertiary","bridge":true}},{"type":"Feature","geometry":{"type":"LineString","coordinates":[[79.78482,30.59596],[79.78472,30.59587]]},"properties":{"id":"osm:w436118319","name":"NH107B","highway":"tertiary","bridge":false}},{"type":"Feature","geometry":{"type":"LineString","coordinates":[[79.8065,30.60632],[79.80673,30.60613],[79.80677,30.60579],[79.80677,30.60541],[79.8059,30.60458],[79.80573,30.60444],[79.80554,30.60407],[79.80509,30.60381],[79.80468,30.60321],[79.80434,30.6027],[79.80414,30.60237],[79.80413,30.6018],[79.80415,30.60118],[79.80411,30.60077],[79.80378,30.6002],[79.80334,30.60001],[79.8019,30.59993],[79.80054,30.6001],[79.799,30.60053],[79.79765,30.60068],[79.79639,30.60067],[79.79533,30.60031],[79.79411,30.59998],[79.79213,30.5993],[79.78995,30.59775],[79.78879,30.59761],[79.78856,30.59756],[79.78832,30.59738],[79.78792,30.59742],[79.78758,30.59714],[79.78657,30.5967],[79.78618,30.59642],[79.78589,30.59626],[79.78562,30.59611],[79.78542,30.59611],[79.78513,30.59616],[79.785,30.5961]]},"properties":{"id":"osm:w436118320","name":"NH107B","highway":"tertiary","bridge":false}},{"type":"Feature","geometry":{"type":"LineString","coordinates":[[79.57573,30.56309],[79.57611,30.56314],[79.5765,30.56311]]},"properties":{"id":"osm:w445635164","name":"NH7","highway":"trunk","bridge":true}},{"type":"Feature","geometry":{"type":"LineString","coordinates":[[79.57029,30.58307],[79.57007,30.58316],[79.56994,30.58326],[79.56992,30.58342],[79.57004,30.58357],[79.57012,30.58383],[79.57023,30.58424],[79.57029,30.58441],[79.57033,30.58451],[79.57034,30.58482],[79.57025,30.58496],[79.57019,30.58502],[79.57006,30.58507],[79.56996,30.5851],[79.56989,30.58516],[79.56982,30.58545],[79.56974,30.58578],[79.5697,30.58592],[79.56965,30.58603],[79.56957,30.58652],[79.56956,30.5867],[79.56965,30.58693],[79.56966,30.58704],[79.56954,30.58744],[79.56957,30.58758],[79.56964,30.58775],[79.56967,30.58802],[79.56967,30.58815],[79.56963,30.58825],[79.56959,30.58835],[79.56959,30.58856],[79.56957,30.58868],[79.56951,30.58884],[79.56949,30.58895],[79.56949,30.58912],[79.56949,30.58941],[79.56949,30.58962],[79.5695,30.58988],[79.56962,30.59031],[79.56973,30.59067],[79.56979,30.59087],[79.56977,30.59096],[79.56971,30.59109],[79.56965,30.59119],[79.56964,30.59133],[79.5696,30.5914],[79.56953,30.59151],[79.56934,30.59189],[79.56929,30.59223],[79.56915,30.59241],[79.5691,30.59256],[79.56922,30.59328],[79.56939,30.59365],[79.56979,30.59411],[79.56988,30.59441],[79.57016,30.59476],[79.57009,30.59504],[79.57017,30.59534],[79.57006,30.59551],[79.56974,30.59561],[79.56957,30.59574],[79.56956,30.59633],[79.56968,30.59663],[79.56987,30.59698],[79.56995,30.59714],[79.57045,30.5975],[79.57074,30.59802],[79.57078,30.59848],[79.5709,30.59873],[79.57077,30.59896],[79.57077,30.59911],[79.57094,30.59944],[79.57094,30.59958],[79.57087,30.59973],[79.57077,30.60005],[79.57078,30.60023],[79.57086,30.60062],[79.57093,30.60093],[79.57112,30.60141],[79.57124,30.60185],[79.5712,30.60216],[79.57111,30.60243],[79.57096,30.60283],[79.57089,30.6034],[79.57079,30.60352]]},"properties":{"id":"osm:w445635165","name":"NH7","highway":"trunk","bridge":false}},{"type":"Feature","geometry":{"type":"LineString","coordinates":[[79.5668,30.5538],[79.56666,30.55365],[79.56633,30.55351],[79.56601,30.55354],[79.56565,30.55349],[79.56535,30.55341],[79.56532,30.55339],[79.56523,30.55333],[79.56519,30.55332],[79.56497,30.55344],[79.56481,30.55354],[79.56472,30.55355],[79.56467,30.55352],[79.56465,30.55349],[79.56466,30.55345],[79.5647,30.55342],[79.56479,30.55337],[79.56491,30.55329],[79.56504,30.55322],[79.56516,30.55317],[79.56528,30.55315],[79.56534,30.55309],[79.56534,30.55305],[79.56532,30.55302],[79.56527,30.55302],[79.56523,30.55303],[79.5651,30.55305],[79.56495,30.55304],[79.56479,30.55306],[79.56465,30.55309],[79.56461,30.55308],[79.56458,30.55303],[79.56458,30.55297],[79.56461,30.5529],[79.56468,30.55282],[79.56478,30.55278],[79.56491,30.55274],[79.56507,30.5527],[79.5651,30.55267],[79.56508,30.55264],[79.56502,30.55262],[79.56489,30.55266],[79.5647,30.55272],[79.56454,30.55281],[79.56441,30.5529],[79.56437,30.5529],[79.56413,30.55292],[79.56395,30.55291],[79.56365,30.55295],[79.56346,30.55292],[79.56328,30.55291],[79.56317,30.5529],[79.56302,30.55292],[79.56293,30.55294],[79.56284,30.55295],[79.56263,30.55297],[79.5624,30.55294],[79.56217,30.55291],[79.56208,30.55289],[79.5619,30.55281],[79.56169,30.55275],[79.56146,30.55276],[79.5613,30.55279],[79.56114,30.55285],[79.56091,30.55292],[79.56075,30.55296],[79.56059,30.55299],[79.56044,30.55301],[79.56015,30.55308],[79.55991,30.55317],[79.55972,30.5532],[79.55958,30.55322],[79.55951,30.5532],[79.55939,30.55316],[79.55933,30.55314],[79.55918,30.5531],[79.5591,30.55306],[79.55907,30.55306],[79.55901,30.55307],[79.5589,30.55308],[79.55885,30.55307],[79.5588,30.55305],[79.55879,30.55303],[79.55877,30.55299],[79.55879,30.55297],[79.55885,30.55294],[79.55924,30.55282],[79.55978,30.5527],[79.56013,30.55261],[79.56058,30.55235],[79.56081,30.5523],[79.56102,30.55231],[79.56105,30.55231],[79.56128,30.55224],[79.56149,30.55222],[79.56177,30.55223],[79.56197,30.55228],[79.56222,30.55229],[79.56232,30.55234],[79.56237,30.55235],[79.56267,30.55227],[79.56283,30.5522],[79.56301,30.55217],[79.56314,30.55215],[79.5633,30.55212],[79.56371,30.5519],[79.56397,30.55179],[79.56415,30.55173],[79.56427,30.55166],[79.56438,30.55156],[79.56443,30.55155],[79.56461,30.55161],[79.56473,30.55163],[79.56487,30.55159],[79.56523,30.55142],[79.56538,30.55135],[79.56551,30.55121],[79.56563,30.55109],[79.56571,30.55104],[79.56584,30.551],[79.56593,30.55103],[79.56602,30.55113],[79.56608,30.55125],[79.56615,30.55133],[79.56626,30.5514],[79.56638,30.5514],[79.5665,30.55136],[79.5667,30.55126],[79.56698,30.55112],[79.56715,30.55106],[79.56736,30.55103],[79.56753,30.55107],[79.56771,30.55107],[79.56792,30.551],[79.56815,30.55092],[79.56841,30.55073],[79.5686,30.5505],[79.5689,30.55037],[79.56902,30.5503],[79.56911,30.55025],[79.56917,30.55019],[79.56916,30.55014],[79.56913,30.55011],[79.56904,30.55013],[79.56898,30.55016],[79.56885,30.55023],[79.56847,30.55036],[79.5682,30.55046],[79.56792,30.55052],[79.56772,30.55048],[79.56732,30.55046],[79.56711,30.55047],[79.56687,30.55054],[79.56665,30.55065],[79.56647,30.55067],[79.56634,30.55063],[79.56621,30.55053],[79.56609,30.55039],[79.56588,30.55017],[79.56547,30.55004],[79.56525,30.55007],[79.56499,30.55012],[79.56478,30.55019],[79.56455,30.55025],[79.56451,30.55025],[79.56422,30.5501],[79.56388,30.55003],[79.56337,30.54994],[79.56293,30.54995],[79.56265,30.54999],[79.56227,30.55005],[79.56191,30.5501],[79.56165,30.55016],[79.56143,30.55013],[79.56123,30.55009],[79.56093,30.55013],[79.56019,30.55023],[79.56001,30.55026],[79.55985,30.55024],[79.55969,30.55023],[79.55929,30.55024],[79.55889,30.55032],[79.55849,30.55051],[79.55833,30.55066],[79.55797,30.55082],[79.55743,30.55107],[79.55689,30.55127],[79.55638,30.55154],[79.5555,30.55199],[79.55496,30.55227],[79.55437,30.55254],[79.55381,30.5528],[79.55285,30.55302],[79.5516,30.55299],[79.55138,30.55295],[79.55109,30.55299],[79.55092,30.55297],[79.55075,30.55288],[79.55051,30.5529],[79.55016,30.55303],[79.54997,30.55304],[79.54975,30.55301],[79.54944,30.55308],[79.54928,30.55314],[79.54916,30.55327],[79.54887,30.55334],[79.54805,30.55356],[79.54719,30.55384],[79.54678,30.55393],[79.5466,30.55396],[79.54645,30.55395],[79.54636,30.55388],[79.54628,30.5538],[79.54618,30.55371],[79.54599,30.55364],[79.54582,30.55362],[79.54555,30.55371],[79.54541,30.55379],[79.54527,30.55384],[79.5452,30.55387],[79.54513,30.55383],[79.54512,30.55374],[79.54517,30.55365],[79.54529,30.5536],[79.54542,30.55357],[79.54554,30.55354],[79.54566,30.55348],[79.5458,30.55343],[79.5459,30.55342],[79.54605,30.55342],[79.54616,30.55344],[79.54628,30.55352],[79.54641,30.55359],[79.54648,30.55363],[79.54656,30.55363],[79.54666,30.55361],[79.54703,30.55349],[79.54714,30.55347],[79.54722,30.55343],[79.54728,30.55335],[79.54735,30.55328],[79.54746,30.55323],[79.54757,30.5532],[79.5477,30.55316],[79.5479,30.55304],[79.54812,30.55289],[79.54829,30.55274],[79.54846,30.55256],[79.54864,30.55239],[79.54886,30.55224],[79.54914,30.5521],[79.54941,30.55197],[79.54957,30.55191],[79.54977,30.55187],[79.54993,30.55184],[79.55011,30.55187],[79.5503,30.55194],[79.55042,30.55201],[79.5505,30.55205],[79.55059,30.55205],[79.55077,30.55201],[79.55099,30.55198],[79.55124,30.55196],[79.55149,30.55191],[79.55176,30.55183],[79.55202,30.55178],[79.55228,30.55165],[79.55251,30.55155],[79.55269,30.55148],[79.55302,30.5514],[79.55341,30.55117],[79.55371,30.551],[79.55382,30.55091],[79.55388,30.55082],[79.55399,30.55077],[79.55425,30.55059],[79.55463,30.55021],[79.55479,30.55012],[79.55487,30.55],[79.55492,30.54996]]},"properties":{"id":"osm:w575156687","name":"Joshimath - Auli road","highway":"primary","bridge":false}},{"type":"Feature","geometry":{"type":"LineString","coordinates":[[79.57093,30.58296],[79.57029,30.58307]]},"properties":{"id":"osm:w636372256","name":"NH7","highway":"trunk","bridge":true}},{"type":"Feature","geometry":{"type":"LineString","coordinates":[[79.57737,30.56931],[79.57737,30.56945],[79.57756,30.56977],[79.57762,30.57015],[79.57761,30.57052],[79.57753,30.57081],[79.57743,30.57103],[79.57728,30.57123],[79.57727,30.57148],[79.57718,30.57161],[79.57707,30.57188],[79.57701,30.57206],[79.57706,30.57234],[79.57711,30.57276],[79.57709,30.57294],[79.57697,30.57341],[79.57687,30.57367],[79.57674,30.57387],[79.57665,30.57407],[79.57648,30.57458],[79.5763,30.57496],[79.57618,30.57516],[79.57604,30.57539],[79.57583,30.57553],[79.57565,30.57587],[79.57557,30.57598],[79.57552,30.57606],[79.57542,30.5761],[79.57504,30.57635],[79.57492,30.57644],[79.57475,30.5765],[79.57445,30.57662],[79.57438,30.57672],[79.57436,30.57685],[79.5744,30.57698],[79.57435,30.57708],[79.57429,30.57714],[79.57413,30.57723],[79.57402,30.57731],[79.57396,30.57742],[79.57393,30.57755],[79.57376,30.57778],[79.57355,30.57791],[79.57338,30.57797],[79.57335,30.57805],[79.57333,30.57816],[79.57344,30.57849],[79.57326,30.57882],[79.57314,30.57906],[79.57287,30.5793],[79.57266,30.57952],[79.57257,30.57972],[79.57259,30.5799],[79.57258,30.58004]]},"properties":{"id":"osm:w636372257","name":"NH7","highway":"trunk","bridge":false}},{"type":"Feature","geometry":{"type":"LineString","coordinates":[[79.55307,30.5661],[79.55307,30.56644],[79.55311,30.5666],[79.55316,30.56672],[79.55323,30.56685],[79.55333,30.56697],[79.55346,30.5671],[79.55358,30.5672]]},"properties":{"id":"osm:w636372258","name":"NH7","highway":"trunk","bridge":true}},{"type":"Feature","geometry":{"type":"LineString","coordinates":[[79.55358,30.5672],[79.55363,30.56739],[79.55385,30.56735],[79.55401,30.56734],[79.55445,30.56735],[79.55491,30.56729],[79.55517,30.56713],[79.5553,30.56701],[79.55536,30.56688],[79.55554,30.56679],[79.55577,30.56681],[79.55613,30.56693],[79.55627,30.56695],[79.55637,30.56693],[79.55696,30.56687],[79.55779,30.56684],[79.55798,30.56681],[79.55815,30.56673],[79.55831,30.5666],[79.55853,30.56641],[79.55876,30.56614],[79.55883,30.56608],[79.55904,30.56594],[79.55953,30.56583],[79.56005,30.56567],[79.56035,30.56557],[79.56076,30.56541],[79.56134,30.56531],[79.56185,30.56531],[79.56211,30.56536],[79.56222,30.56537],[79.5624,30.56529],[79.56272,30.56515],[79.56309,30.56501],[79.56336,30.56488],[79.56353,30.56481],[79.56385,30.56458],[79.56419,30.56445],[79.56491,30.56425],[79.56568,30.56405],[79.5659,30.56393],[79.56612,30.56384],[79.56642,30.56389],[79.56667,30.56386],[79.56688,30.56379],[79.56712,30.56377],[79.56734,30.56365],[79.56764,30.56362],[79.56792,30.56353],[79.56824,30.56343],[79.56872,30.56347],[79.56896,30.56346],[79.56918,30.56352],[79.56943,30.56348],[79.56974,30.56339],[79.56993,30.56337],[79.57019,30.56342],[79.57054,30.56355],[79.57071,30.56356],[79.57087,30.56355],[79.57119,30.56345],[79.57221,30.56333],[79.57315,30.56325],[79.57331,30.56319],[79.57381,30.56311],[79.57437,30.56302],[79.5748,30.56295],[79.57522,30.56292],[79.57547,30.56297],[79.57567,30.56306],[79.57573,30.56309]]},"properties":{"id":"osm:w636372259","name":"NH7","highway":"trunk","bridge":false}},{"type":"Feature","geometry":{"type":"LineString","coordinates":[[79.55877,30.55299],[79.55871,30.55314],[79.55864,30.55321],[79.55846,30.5534],[79.5583,30.55353],[79.55814,30.55362],[79.55804,30.55363],[79.55786,30.55365],[79.55774,30.55372],[79.55763,30.55377],[79.55739,30.55389],[79.55718,30.55409],[79.55691,30.5543],[79.55667,30.55451],[79.55647,30.55461],[79.55633,30.55465],[79.55609,30.55479],[79.55574,30.55497],[79.55555,30.5551],[79.55537,30.5552],[79.55514,30.55529],[79.55493,30.55536],[79.55482,30.55541],[79.55468,30.55545],[79.55449,30.55544],[79.55423,30.55548],[79.55399,30.55555],[79.55383,30.55564],[79.5536,30.55574],[79.55349,30.55581],[79.55341,30.55585],[79.55333,30.55584],[79.55321,30.55582],[79.55312,30.5558],[79.55302,30.55582],[79.5529,30.55585],[79.55262,30.55592],[79.55246,30.55593],[79.55226,30.55595],[79.55214,30.55596],[79.55204,30.55597],[79.55191,30.55603],[79.55167,30.55623],[79.54993,30.55701]]},"properties":{"id":"osm:w665636061","name":"Joshimath - Auli road","highway":"tertiary","bridge":false}},{"type":"Feature","geometry":{"type":"LineString","coordinates":[[79.54491,30.58526],[79.54465,30.58525],[79.54423,30.58489],[79.54387,30.58437],[79.54383,30.58398],[79.5436,30.58351],[79.54353,30.58288],[79.54351,30.58262],[79.5436,30.5824],[79.54434,30.58149]]},"properties":{"id":"osm:w683252028","name":"","highway":"tertiary","bridge":false}},{"type":"Feature","geometry":{"type":"LineString","coordinates":[[79.54537,30.58506],[79.54491,30.58526]]},"properties":{"id":"osm:w683252029","name":"","highway":"tertiary","bridge":true}},{"type":"Feature","geometry":{"type":"LineString","coordinates":[[79.61607,30.49309],[79.61591,30.493]]},"properties":{"id":"osm:w683268037","name":"NH107B","highway":"tertiary","bridge":true}},{"type":"Feature","geometry":{"type":"LineString","coordinates":[[79.68187,30.48628],[79.68178,30.48614],[79.68163,30.48607],[79.68134,30.48607],[79.68123,30.48609],[79.68103,30.48625],[79.68088,30.48639],[79.68058,30.48645],[79.68026,30.48655],[79.67998,30.48655],[79.67981,30.48662],[79.67961,30.48677],[79.6794,30.48697],[79.67907,30.48725],[79.67865,30.48746],[79.67823,30.4876],[79.67783,30.48773],[79.67736,30.48775],[79.67696,30.48776],[79.67664,30.48773],[79.67628,30.48769],[79.67623,30.48769],[79.67596,30.48767],[79.67567,30.48773],[79.67549,30.48771],[79.67511,30.48758],[79.67467,30.48753],[79.67432,30.48749],[79.67413,30.48745],[79.67385,30.48751],[79.67353,30.48758],[79.67334,30.48758],[79.67304,30.48761],[79.67275,30.48773],[79.67261,30.4878],[79.67239,30.48791],[79.67217,30.48796],[79.67193,30.48801],[79.67176,30.4881],[79.67143,30.48799],[79.67089,30.48791],[79.67044,30.48778],[79.67004,30.48774],[79.66974,30.48777],[79.66944,30.48795],[79.66921,30.48795],[79.66894,30.48795],[79.66866,30.48801],[79.66828,30.4881],[79.66803,30.48819],[79.66771,30.48824],[79.66746,30.48836],[79.6672,30.48843],[79.66665,30.48846],[79.66622,30.48842],[79.66585,30.48825],[79.66536,30.48807],[79.66501,30.48796],[79.66483,30.48795],[79.66452,30.48797],[79.66416,30.48803],[79.66385,30.48802],[79.66349,30.48798],[79.66319,30.48791],[79.66273,30.48794],[79.66253,30.48796],[79.66236,30.48809],[79.66209,30.48815],[79.66164,30.48814],[79.66127,30.48795],[79.66086,30.48787],[79.66061,30.48793],[79.66037,30.48803],[79.65999,30.48821],[79.65981,30.48827],[79.65968,30.48832],[79.65948,30.48832],[79.65928,30.48834],[79.65906,30.48829],[79.65887,30.48827],[79.65871,30.48825],[79.65839,30.48823],[79.65804,30.48822],[79.65783,30.48828],[79.65769,30.48837],[79.65742,30.48852],[79.65729,30.48859],[79.65701,30.48873],[79.65675,30.48875],[79.65651,30.48866],[79.65621,30.48851],[79.65596,30.48845],[79.65565,30.48831],[79.65542,30.48819],[79.65513,30.48805],[79.65476,30.48785],[79.65466,30.48774],[79.65452,30.48772],[79.6544,30.48771],[79.65433,30.48782],[79.65405,30.48814],[79.65385,30.48841],[79.65353,30.48864],[79.65321,30.48874],[79.65278,30.48887],[79.65236,30.48897],[79.65208,30.48911],[79.65187,30.4893],[79.65164,30.4894],[79.65105,30.48954],[79.65048,30.4897],[79.64995,30.48993],[79.64954,30.49001],[79.64909,30.4901],[79.64878,30.4902],[79.64846,30.49027],[79.64834,30.49036],[79.64829,30.49048],[79.6483,30.49066],[79.64814,30.4908],[79.64794,30.49089],[79.64766,30.49091],[79.64746,30.49079],[79.64723,30.49055],[79.64711,30.49049],[79.64685,30.49049],[79.64664,30.49049],[79.64654,30.49039],[79.6465,30.49025],[79.64639,30.49005],[79.64568,30.48958],[79.64567,30.48957],[79.64557,30.48953],[79.64547,30.48953]]},"properties":{"id":"osm:w683268038","name":"Joshimath-Malari Road","highway":"tertiary","bridge":false}},{"type":"Feature","geometry":{"type":"LineString","coordinates":[[79.56313,30.54257],[79.56342,30.5426],[79.56358,30.54261],[79.56368,30.54266],[79.56386,30.54266],[79.56396,30.54268],[79.56398,30.5427],[79.56398,30.54271],[79.56399,30.54272],[79.56398,30.54274],[79.56397,30.54275],[79.56394,30.54276],[79.56365,30.54279],[79.56328,30.54286],[79.56292,30.54289],[79.56278,30.54288],[79.56262,30.54284],[79.56253,30.54282]]},"properties":{"id":"osm:w819544143","name":"Joshimath - Auli road","highway":"primary","bridge":false}},{"type":"Feature","geometry":{"type":"LineString","coordinates":[[79.55453,30.54685],[79.55434,30.54686],[79.55417,30.54693],[79.55398,30.54696],[79.55378,30.54695],[79.5536,30.54687],[79.55353,30.54674],[79.5534,30.5466],[79.55327,30.54651],[79.55319,30.54645]]},"properties":{"id":"osm:w819544149","name":"Joshimath - Auli road","highway":"primary","bridge":false}},{"type":"Feature","geometry":{"type":"LineString","coordinates":[[79.56253,30.54282],[79.56244,30.54279],[79.56227,30.54278],[79.56207,30.54282],[79.56169,30.54295],[79.56157,30.543],[79.56142,30.54311],[79.56111,30.54328],[79.56095,30.54336],[79.56045,30.54348],[79.55992,30.54363],[79.55953,30.54372],[79.55934,30.54381],[79.55879,30.54412],[79.55858,30.54425],[79.5584,30.5444],[79.55827,30.54447],[79.55811,30.54452],[79.55788,30.54464],[79.55769,30.54469],[79.55751,30.54479],[79.5571,30.54505],[79.55679,30.54523],[79.55646,30.54537],[79.55618,30.54547],[79.55598,30.54551],[79.55579,30.54561],[79.55572,30.54569],[79.55555,30.54576],[79.55544,30.54579],[79.55531,30.54577],[79.55515,30.54577],[79.55484,30.54585],[79.55457,30.54594],[79.55437,30.54605],[79.55398,30.54631],[79.55387,30.54637],[79.55377,30.5464],[79.55368,30.54641],[79.55358,30.54635],[79.5535,30.54629],[79.55339,30.5463],[79.55329,30.54631],[79.55319,30.54638],[79.55318,30.54639],[79.55318,30.54641],[79.55319,30.54645]]},"properties":{"id":"osm:w819544150","name":"Joshimath - Auli road","highway":"primary","bridge":false}},{"type":"Feature","geometry":{"type":"LineString","coordinates":[[79.55492,30.54996],[79.55501,30.54989],[79.55519,30.54981],[79.55529,30.5498],[79.55543,30.54973],[79.55566,30.54948],[79.55589,30.5493],[79.55614,30.54902],[79.55624,30.54884]]},"properties":{"id":"osm:w867499093","name":"Joshimath - Auli road","highway":"primary","bridge":false}},{"type":"Feature","geometry":{"type":"LineString","coordinates":[[79.55624,30.54884],[79.55659,30.54853],[79.55685,30.54839],[79.55699,30.54828],[79.55717,30.54806],[79.55728,30.54797],[79.55742,30.54792],[79.55763,30.54787],[79.55792,30.54779],[79.55825,30.54765],[79.55865,30.54744],[79.55889,30.54732],[79.55905,30.54723],[79.55915,30.54712],[79.5593,30.54691],[79.55949,30.54673],[79.55962,30.54657],[79.5598,30.54644],[79.55997,30.54637],[79.56013,30.54631],[79.56022,30.54626],[79.56032,30.54614],[79.56039,30.54608],[79.56051,30.54603],[79.56089,30.54605],[79.5611,30.546],[79.5618,30.54585],[79.56251,30.54569],[79.56264,30.54568],[79.56277,30.5457],[79.56287,30.54574],[79.563,30.54581],[79.56319,30.54591],[79.5633,30.54596],[79.56337,30.54597],[79.56345,30.54596],[79.56371,30.5459],[79.56389,30.54584],[79.56407,30.54583],[79.56421,30.54587],[79.56463,30.5461],[79.56483,30.5462],[79.56492,30.54621],[79.56518,30.54625],[79.56549,30.54624],[79.5656,30.54618],[79.56586,30.546],[79.56606,30.54598],[79.56618,30.54597],[79.56626,30.5459],[79.56627,30.54587],[79.56626,30.54583],[79.56624,30.54579],[79.56619,30.54577],[79.56611,30.54575],[79.56592,30.54575],[79.56573,30.54578],[79.56555,30.54585],[79.56538,30.5459],[79.56526,30.5459],[79.565,30.54591],[79.56483,30.54593],[79.56461,30.54586],[79.56452,30.54578],[79.56424,30.54545],[79.56408,30.5453],[79.56394,30.54522],[79.56375,30.54516],[79.56349,30.54518],[79.56332,30.54519],[79.5632,30.54512],[79.56302,30.54504],[79.56284,30.54501],[79.56264,30.54507],[79.56251,30.54507],[79.56234,30.54503],[79.56217,30.54504],[79.562,30.54497],[79.56181,30.54497],[79.56162,30.54502],[79.56145,30.54502],[79.56125,30.54499],[79.56101,30.5449],[79.56084,30.54487],[79.5606,30.54494],[79.56043,30.54498],[79.56026,30.54494],[79.56007,30.54498],[79.55961,30.54512],[79.55932,30.54525],[79.55916,30.54531],[79.55897,30.54544],[79.55883,30.54551],[79.5584,30.54565],[79.55815,30.54577],[79.55794,30.54585],[79.55752,30.54598],[79.55736,30.54608],[79.55716,30.54616],[79.55697,30.54614],[79.55675,30.54616],[79.55653,30.54624],[79.55635,30.54636],[79.55611,30.5464],[79.55514,30.54668],[79.55478,30.5468],[79.55453,30.54685]]},"properties":{"id":"osm:w867499094","name":"Joshimath - Auli road","highway":"primary","bridge":false}},{"type":"Feature","geometry":{"type":"LineString","coordinates":[[79.57899,30.54378],[79.57873,30.54385],[79.5784,30.54397]]},"properties":{"id":"osm:w904927105","name":"Joshimath-Malari Road","highway":"tertiary","bridge":true}},{"type":"Feature","geometry":{"type":"LineString","coordinates":[[79.5784,30.54397],[79.57774,30.54441],[79.57686,30.54527],[79.57633,30.54637],[79.57586,30.54711],[79.57525,30.5476],[79.57477,30.54775],[79.57448,30.54785],[79.57416,30.54808],[79.57383,30.54828],[79.5738,30.54836],[79.57383,30.54842],[79.5739,30.54843],[79.57397,30.5484],[79.57402,30.54834],[79.57452,30.54799],[79.57514,30.54783],[79.57607,30.54754],[79.5764,30.54737],[79.57669,30.54699],[79.57742,30.54654],[79.57748,30.54631],[79.57752,30.5462],[79.57761,30.54618],[79.57768,30.54621],[79.57772,30.54632],[79.57764,30.54659],[79.57728,30.54697],[79.57691,30.54725],[79.57673,30.54757],[79.57638,30.54794],[79.5763,30.54818],[79.57596,30.54843],[79.57528,30.54911],[79.57495,30.54928],[79.5738,30.54965],[79.57342,30.55015],[79.57293,30.55056],[79.57224,30.55076],[79.57178,30.55125],[79.57151,30.55165],[79.57111,30.55198],[79.57067,30.55227],[79.57015,30.55241],[79.56996,30.55255],[79.56982,30.55307],[79.56952,30.5533],[79.56905,30.55366],[79.56877,30.55401],[79.56863,30.55415],[79.56812,30.55425],[79.56775,30.55439],[79.56749,30.55424],[79.56731,30.554],[79.56695,30.55378],[79.5668,30.5538]]},"properties":{"id":"osm:w904927106","name":"Joshimath-Malari Road","highway":"tertiary","bridge":false}},{"type":"Feature","geometry":{"type":"LineString","coordinates":[[79.64505,30.48981],[79.64498,30.4899],[79.64497,30.49001],[79.64502,30.49009],[79.64508,30.4902],[79.6452,30.49034],[79.64519,30.49046],[79.64516,30.49053],[79.64502,30.49062],[79.64418,30.491],[79.64368,30.49116],[79.64286,30.49124],[79.64247,30.49131],[79.6421,30.49133],[79.64165,30.4915],[79.64141,30.49168],[79.64117,30.49188],[79.64065,30.49223],[79.64061,30.49225],[79.63958,30.49248],[79.63898,30.49279],[79.63836,30.49296],[79.63805,30.49295],[79.63793,30.49271],[79.63794,30.49258],[79.63769,30.49239],[79.63741,30.49225],[79.63741,30.49206],[79.63768,30.49196],[79.63788,30.49189],[79.63806,30.49176],[79.63822,30.49164],[79.63862,30.49148],[79.63876,30.49133],[79.63876,30.49121],[79.63878,30.4911],[79.63873,30.49101],[79.63859,30.491],[79.63843,30.49106],[79.63818,30.49112],[79.63768,30.49112],[79.637,30.49101],[79.63654,30.49081],[79.6362,30.49071],[79.63598,30.49058],[79.63586,30.49046],[79.63552,30.49029],[79.63527,30.49022],[79.63496,30.49033],[79.63462,30.49026],[79.63437,30.49017],[79.63414,30.49003],[79.63382,30.48977],[79.63367,30.48975],[79.63314,30.48997],[79.63267,30.49016],[79.63256,30.49018],[79.63233,30.49011],[79.63224,30.48996],[79.63207,30.4899],[79.63195,30.48996],[79.63182,30.4901],[79.63155,30.49026],[79.63136,30.4903],[79.63113,30.49028],[79.63088,30.49012],[79.63071,30.49001],[79.63052,30.48993],[79.63027,30.48989],[79.63006,30.4899],[79.62982,30.48997],[79.62962,30.49012],[79.62928,30.49056],[79.62903,30.49072],[79.62879,30.491],[79.62869,30.49112],[79.62861,30.49122],[79.62846,30.49134],[79.62836,30.49137],[79.62825,30.49134],[79.62818,30.49125],[79.62814,30.49105],[79.62808,30.4908],[79.62798,30.49066],[79.62769,30.49054],[79.62746,30.49054],[79.62723,30.49056],[79.62619,30.49096],[79.62596,30.49104],[79.62565,30.49106],[79.62531,30.49116],[79.62515,30.49131],[79.62473,30.49167],[79.62418,30.49222],[79.6238,30.49269],[79.62364,30.49287],[79.62351,30.49289],[79.62344,30.49284],[79.62328,30.49267],[79.62309,30.49242],[79.62303,30.49231],[79.62295,30.49228],[79.62285,30.49229],[79.62274,30.49238],[79.62267,30.49249],[79.62251,30.49259],[79.62237,30.49264],[79.62217,30.49266],[79.62203,30.49276],[79.62193,30.49297],[79.6219,30.49301],[79.62177,30.49357],[79.62173,30.49372],[79.6216,30.49387],[79.6214,30.49393],[79.62109,30.49399],[79.62031,30.49416],[79.61982,30.49428],[79.61939,30.49445],[79.61915,30.49446],[79.61895,30.49453],[79.61876,30.49461],[79.61864,30.49474],[79.61852,30.49482],[79.61831,30.49487],[79.61787,30.49492],[79.61709,30.49493],[79.61654,30.49488],[79.61621,30.49477],[79.61591,30.49447],[79.61581,30.49419],[79.61577,30.49393],[79.6159,30.49369],[79.61603,30.49336],[79.6161,30.49315],[79.61607,30.49309]]},"properties":{"id":"osm:w905613415","name":"Joshimath-Malari Road","highway":"tertiary","bridge":false}},{"type":"Feature","geometry":{"type":"LineString","coordinates":[[79.64547,30.48953],[79.64505,30.48981]]},"properties":{"id":"osm:w905613416","name":"Ringi Bridge","highway":"tertiary","bridge":true}},{"type":"Feature","geometry":{"type":"LineString","coordinates":[[79.69387,30.48521],[79.69381,30.48516]]},"properties":{"id":"osm:w905613417","name":"NH107B","highway":"tertiary","bridge":false}},{"type":"Feature","geometry":{"type":"LineString","coordinates":[[79.69459,30.48576],[79.69419,30.48545],[79.69387,30.48521]]},"properties":{"id":"osm:w905613418","name":"Reni Bridge (Destroyed)","highway":"tertiary","bridge":true}},{"type":"Feature","geometry":{"type":"LineString","coordinates":[[79.56545,30.53773],[79.56572,30.53792],[79.56602,30.53817],[79.5661,30.53819],[79.56619,30.53818],[79.56622,30.53818],[79.56626,30.53818],[79.56629,30.5382],[79.56631,30.53823],[79.56631,30.53826],[79.56631,30.53828],[79.56628,30.5383],[79.56608,30.53834],[79.566,30.53834],[79.56594,30.53832],[79.56587,30.53825],[79.56581,30.53822],[79.5656,30.53822],[79.56547,30.53822],[79.56517,30.53819],[79.56511,30.53819],[79.56509,30.5382],[79.56508,30.53822],[79.56508,30.53823],[79.56508,30.53826],[79.56511,30.53828],[79.5652,30.53832],[79.56545,30.53837],[79.56574,30.53844],[79.56584,30.53854],[79.5659,30.53867],[79.56601,30.53878],[79.56611,30.5388],[79.56622,30.53877],[79.56636,30.53874],[79.56638,30.53874],[79.5664,30.53875],[79.56642,30.53878],[79.56642,30.53879],[79.56642,30.5388],[79.56641,30.53881],[79.5664,30.53882],[79.56633,30.53887],[79.56605,30.53895],[79.56599,30.53895],[79.5659,30.53894],[79.56577,30.5389],[79.56558,30.53879],[79.56542,30.53878],[79.56526,30.53878],[79.56508,30.53878],[79.56501,30.53878],[79.565,30.5388],[79.56499,30.53881],[79.56503,30.53892],[79.5651,30.53902],[79.56535,30.53921],[79.56549,30.53928],[79.56561,30.53928],[79.56574,30.53926],[79.56583,30.53926],[79.56585,30.53926],[79.56587,30.53928],[79.56587,30.5393],[79.56586,30.53931],[79.56579,30.53934],[79.56543,30.53945],[79.56517,30.53951],[79.56508,30.53951]]},"properties":{"id":"osm:w905664215","name":"Joshimath - Auli road","highway":"primary","bridge":false}},{"type":"Feature","geometry":{"type":"LineString","coordinates":[[79.56579,30.5543],[79.56577,30.55419],[79.56577,30.55416],[79.56584,30.55405],[79.56606,30.55397],[79.56659,30.55383],[79.5668,30.5538]]},"properties":{"id":"osm:w1156689805","name":"Joshimath - Auli road","highway":"primary","bridge":false}},{"type":"Feature","geometry":{"type":"LineString","coordinates":[[79.57258,30.58004],[79.57251,30.58012]]},"properties":{"id":"osm:w1302307383","name":"NH7","highway":"trunk","bridge":true}},{"type":"Feature","geometry":{"type":"LineString","coordinates":[[79.57251,30.58012],[79.57223,30.58021],[79.572,30.58041],[79.57179,30.58057],[79.57168,30.58072],[79.57166,30.58087],[79.57165,30.58099],[79.57156,30.58116],[79.57117,30.58144],[79.57103,30.58158],[79.57102,30.58174],[79.57123,30.58193],[79.57134,30.58205],[79.57131,30.58224],[79.5711,30.58245],[79.57095,30.58257],[79.57099,30.58278],[79.57093,30.58296]]},"properties":{"id":"osm:w1302307384","name":"NH7","highway":"trunk","bridge":false}},{"type":"Feature","geometry":{"type":"LineString","coordinates":[[79.57745,30.56877],[79.57737,30.56931]]},"properties":{"id":"osm:w1302307385","name":"NH7","highway":"trunk","bridge":true}},{"type":"Feature","geometry":{"type":"LineString","coordinates":[[79.5765,30.56311],[79.57659,30.56313],[79.57664,30.56326],[79.5767,30.56365],[79.57673,30.56405],[79.57688,30.5644],[79.57689,30.56449],[79.57683,30.56498],[79.57681,30.56518],[79.57685,30.56536],[79.57712,30.56594],[79.57717,30.56608],[79.57716,30.56625],[79.57707,30.56648],[79.57694,30.5669],[79.57688,30.5673],[79.57686,30.56758],[79.57695,30.56782],[79.57716,30.56795],[79.57747,30.56814],[79.57754,30.56837],[79.57745,30.56877]]},"properties":{"id":"osm:w1302307386","name":"NH7","highway":"trunk","bridge":false}},{"type":"Feature","geometry":{"type":"LineString","coordinates":[[79.53957,30.5519],[79.5397,30.55192],[79.53979,30.55198]]},"properties":{"id":"osm:w1302307389","name":"NH7","highway":"trunk","bridge":true}},{"type":"Feature","geometry":{"type":"LineString","coordinates":[[79.53979,30.55198],[79.53991,30.55224],[79.54004,30.55244],[79.54025,30.55263],[79.54032,30.5527],[79.54053,30.55276],[79.54073,30.55281],[79.54104,30.55306],[79.54118,30.5532],[79.54124,30.55334],[79.54139,30.55375],[79.54151,30.55417],[79.54157,30.55432],[79.5416,30.55443],[79.5417,30.5545],[79.54182,30.55457],[79.54192,30.55459],[79.54203,30.55466],[79.54234,30.55491],[79.54243,30.55498],[79.54249,30.55507],[79.5426,30.55521],[79.54271,30.55532],[79.54279,30.55537],[79.54286,30.55539],[79.54295,30.55538],[79.54318,30.55537],[79.54328,30.55538],[79.54345,30.55545],[79.54375,30.55561],[79.5438,30.55563],[79.54406,30.55561],[79.54417,30.55564],[79.54446,30.55576],[79.54452,30.55582],[79.54458,30.55591],[79.54479,30.55611],[79.54488,30.55615],[79.54497,30.55621],[79.54504,30.55629],[79.54513,30.55646],[79.54518,30.55656],[79.5452,30.55669],[79.54523,30.55675],[79.54529,30.55678],[79.54546,30.55683],[79.54556,30.55689],[79.54567,30.55695],[79.54573,30.55697],[79.54586,30.557],[79.54591,30.55703],[79.54596,30.55708],[79.54607,30.55723],[79.54614,30.55739],[79.54617,30.55763],[79.5462,30.55769],[79.54629,30.55774],[79.5466,30.55793],[79.5467,30.55794],[79.54684,30.55792],[79.5471,30.55786],[79.54731,30.55783],[79.54753,30.55784],[79.54761,30.55783],[79.54767,30.55779],[79.54789,30.55763],[79.5481,30.55756],[79.54829,30.5575],[79.54855,30.55748],[79.54887,30.55742],[79.54926,30.5573],[79.54971,30.55711],[79.54993,30.55701],[79.55019,30.557],[79.55071,30.55698],[79.55099,30.55701],[79.55115,30.55702],[79.55135,30.55699],[79.55158,30.55688],[79.55216,30.55664],[79.55234,30.55652],[79.5525,30.55641],[79.5527,30.55634],[79.5529,30.55633],[79.55304,30.55636],[79.55319,30.55638],[79.55328,30.55643],[79.55339,30.55653],[79.55349,30.55658],[79.55364,30.55658],[79.55385,30.55648],[79.55411,30.55647],[79.55441,30.55652],[79.55463,30.55661],[79.55488,30.55657],[79.55514,30.55659],[79.55545,30.55663],[79.55595,30.55658],[79.55619,30.55658],[79.55653,30.55649],[79.55656,30.55649],[79.55669,30.55649],[79.55692,30.55661],[79.55713,30.55664],[79.55746,30.55664],[79.55785,30.55661],[79.55827,30.55651],[79.5585,30.55644],[79.55869,30.55631],[79.55905,30.55623],[79.55956,30.55612],[79.55994,30.55612],[79.56011,30.5561],[79.56027,30.55601],[79.56044,30.55591],[79.56069,30.55579],[79.56071,30.55578],[79.56085,30.55576],[79.56112,30.55583],[79.56123,30.55593],[79.56143,30.55608],[79.56162,30.55615],[79.56167,30.55616],[79.56187,30.55613],[79.56208,30.55606],[79.56247,30.55582],[79.5625,30.55581],[79.56284,30.55557],[79.56315,30.55534],[79.56344,30.55521],[79.56377,30.55506],[79.56413,30.5549],[79.56441,30.55486],[79.56486,30.55493],[79.56529,30.55499],[79.5655,30.555],[79.56564,30.55496],[79.5658,30.55486],[79.56585,30.55471],[79.56585,30.55455],[79.56581,30.55447],[79.56578,30.55437],[79.56579,30.5543],[79.56589,30.55422],[79.56606,30.55417],[79.56616,30.55413],[79.56628,30.55416]]},"properties":{"id":"osm:w1302307390","name":"NH7","highway":"trunk","bridge":false}},{"type":"Feature","geometry":{"type":"LineString","coordinates":[[79.69381,30.48516],[79.69375,30.48514],[79.69371,30.48514],[79.69363,30.48514],[79.69303,30.48561],[79.69256,30.48584],[79.692,30.4861],[79.69173,30.48628],[79.69162,30.48643],[79.69137,30.48663],[79.69117,30.48676],[79.69098,30.48686],[79.69051,30.48676],[79.69001,30.48673],[79.68962,30.48673],[79.68933,30.48669],[79.68901,30.48661],[79.68866,30.48663],[79.6884,30.48667],[79.68807,30.48689],[79.68767,30.48706],[79.68749,30.4872],[79.68711,30.48714],[79.68622,30.48709],[79.68565,30.48714],[79.68534,30.48721],[79.68497,30.48719],[79.68458,30.48713],[79.68438,30.48716],[79.68414,30.48718],[79.68396,30.48715],[79.6838,30.48715],[79.68348,30.48705],[79.68326,30.487],[79.68299,30.48696],[79.68276,30.48684],[79.68253,30.48659],[79.68236,30.4865],[79.68212,30.48647],[79.68195,30.48634]]},"properties":{"id":"osm:w1491824477","name":"Joshimath-Malari Road","highway":"tertiary","bridge":false}},{"type":"Feature","geometry":{"type":"LineString","coordinates":[[79.68195,30.48634],[79.68187,30.48628]]},"properties":{"id":"osm:w1491824478","name":"Joshimath-Malari Road","highway":"tertiary","bridge":true}}]}