{
 "type": "FeatureCollection",
 "name": "Synthetic Sentinel-1 flood extent, Bhagirathi below Tehri",
 "features": [
  {
   "type": "Feature",
   "properties": {
    "source": "synthetic sample \u2014 not a real observation",
    "method": "channel corridor, 1.2 km wide"
   },
   "geometry": {
    "type": "Polygon",
    "coordinates": [
     [
      [
       78.486556,
       30.376382
      ],
      [
       78.483603,
       30.369785
      ],
      [
       78.490738,
       30.358574
      ],
      [
       78.494056,
       30.337785
      ],
      [
       78.495115,
       30.324935
      ],
      [
       78.495989,
       30.314963
      ],
      [
       78.503453,
       30.295566
      ],
      [
       78.495256,
       30.287326
      ],
      [
       78.492968,
       30.279722
      ],
      [
       78.47646,
       30.285413
      ],
      [
       78.48543,
       30.299862
      ],
      [
       78.487966,
       30.30476
      ],
      [
       78.498762,
       30.3086
      ],
      [
       78.504309,
       30.294268
      ],
      [
       78.492866,
       30.283408
      ],
      [
       78.497129,
       30.281545
      ],
      [
       78.49409,
       30.284666
      ],
      [
       78.500331,
       30.277466
      ],
      [
       78.499752,
       30.262537
      ],
      [
       78.499385,
       30.269001
      ],
      [
       78.505878,
       30.258535
      ],
      [
       78.486085,
       30.263103
      ],
      [
       78.50934,
       30.270876
      ],
      [
       78.515708,
       30.254465
      ],
      [
       78.51396,
       30.25493
      ],
      [
       78.520095,
       30.252992
      ],
      [
       78.525171,
       30.255359
      ],
      [
       78.533619,
       30.253292
      ],
      [
       78.541949,
       30.24075
      ],
      [
       78.562407,
       30.231065
      ],
      [
       78.565801,
       30.213944
      ],
      [
       78.566306,
       30.205084
      ],
      [
       78.58797,
       30.194387
      ],
      [
       78.592251,
       30.182127
      ],
      [
       78.606168,
       30.163156
      ],
      [
       78.604288,
       30.145536
      ],
      [
       78.602241,
       30.134052
      ],
      [
       78.601483,
       30.126226
      ],
      [
       78.606107,
       30.12298
      ],
      [
       78.592624,
       30.11126
      ],
      [
       78.588691,
       30.106165
      ],
      [
       78.598066,
       30.085239
      ],
      [
       78.591618,
       30.076898
      ],
      [
       78.592123,
       30.075837
      ],
      [
       78.600092,
       30.072013
      ],
      [
       78.594864,
       30.064298
      ],
      [
       78.593362,
       30.066789
      ],
      [
       78.592644,
       30.060354
      ],
      [
       78.590205,
       30.069254
      ],
      [
       78.599729,
       30.071527
      ],
      [
       78.595197,
       30.064288
      ],
      [
       78.603565,
       30.066425
      ],
      [
       78.598825,
       30.059076
      ],
      [
       78.595243,
       30.070407
      ],
      [
       78.60206,
       30.06621
      ],
      [
       78.601483,
       30.063168
      ],
      [
       78.616369,
       30.053814
      ],
      [
       78.600987,
       30.048031
      ],
      [
       78.61126,
       30.055529
      ],
      [
       78.61786,
       30.046056
      ],
      [
       78.620047,
       30.043168
      ],
      [
       78.633647,
       30.037655
      ],
      [
       78.633354,
       30.022179
      ],
      [
       78.630341,
       30.017473
      ],
      [
       78.619967,
       30.023432
      ],
      [
       78.621115,
       30.024156
      ],
      [
       78.622901,
       30.032209
      ],
      [
       78.613617,
       30.033936
      ],
      [
       78.607483,
       30.040098
      ],
      [
       78.601601,
       30.048724
      ],
      [
       78.605633,
       30.058032
      ],
      [
       78.606893,
       30.046819
      ],
      [
       78.592654,
       30.055565
      ],
      [
       78.592077,
       30.059763
      ],
      [
       78.586412,
       30.062805
      ],
      [
       78.593232,
       30.068707
      ],
      [
       78.594733,
       30.074027
      ],
      [
       78.605181,
       30.070734
      ],
      [
       78.60481,
       30.061685
      ],
      [
       78.59145,
       30.058529
      ],
      [
       78.591091,
       30.071049
      ],
      [
       78.604935,
       30.062804
      ],
      [
       78.584711,
       30.058054
      ],
      [
       78.587804,
       30.07025
      ],
      [
       78.583291,
       30.068235
      ],
      [
       78.579635,
       30.079844
      ],
      [
       78.585669,
       30.084172
      ],
      [
       78.57632,
       30.104875
      ],
      [
       78.582789,
       30.11788
      ],
      [
       78.596352,
       30.12969
      ],
      [
       78.590574,
       30.121014
      ],
      [
       78.589816,
       30.134907
      ],
      [
       78.59193,
       30.146952
      ],
      [
       78.594211,
       30.160102
      ],
      [
       78.581083,
       30.17733
      ],
      [
       78.579122,
       30.186789
      ],
      [
       78.557099,
       30.197812
      ],
      [
       78.553442,
       30.212481
      ],
      [
       78.552675,
       30.22432
      ],
      [
       78.533607,
       30.232734
      ],
      [
       78.523213,
       30.247342
      ],
      [
       78.52958,
       30.245275
      ],
      [
       78.520095,
       30.242212
      ],
      [
       78.507506,
       30.245704
      ],
      [
       78.503678,
       30.251599
      ],
      [
       78.501724,
       30.262336
      ],
      [
       78.497934,
       30.26649
      ],
      [
       78.507266,
       30.269248
      ],
      [
       78.503357,
       30.258782
      ],
      [
       78.488428,
       30.258006
      ],
      [
       78.487849,
       30.277466
      ],
      [
       78.49409,
       30.273886
      ],
      [
       78.488971,
       30.273387
      ],
      [
       78.480751,
       30.286004
      ],
      [
       78.492192,
       30.296864
      ],
      [
       78.487337,
       30.30425
      ],
      [
       78.500213,
       30.302661
      ],
      [
       78.496508,
       30.29489
      ],
      [
       78.488835,
       30.283999
      ],
      [
       78.484809,
       30.28788
      ],
      [
       78.484602,
       30.292945
      ],
      [
       78.490968,
       30.295566
      ],
      [
       78.483869,
       30.312367
      ],
      [
       78.482663,
       30.324115
      ],
      [
       78.481641,
       30.336604
      ],
      [
       78.478718,
       30.355635
      ],
      [
       78.471291,
       30.367953
      ],
      [
       78.474579,
       30.379455
      ],
      [
       78.486556,
       30.376382
      ]
     ]
    ]
   }
  }
 ]
}